Business,Phone Number,Service Pricing Tracker,Photo,Notes,District,Address,Hours,,,,,,,,,,,,,,,,,,
Lush Massage,510-698-9194,From webiste (up to date),Yes,,Mission,"2460 Mission St, Ste 104, San Francisco, CA 94110",Fri-Sat 10:30am-7:00pm,,,,,,,,,,,,,,,,,,
Archimedes Banya,415-206-9000,From website (up to date),Yes,,Bayview-Hunters Point,"748 Innes Ave, San Francisco, CA 94124","Mon 12:00pm-12:00am, Wed-Fri 12:00pm-12:00am, Sat-Sun 10:00am-12:00am",,,,,,,,,,,,,,,,,,
Haight Street Nails,415-221-8928 ,From website (up to date),Yes,,The Haight,"1784 Haight St, San Francisco, CA 94117 ","Mon-Tue 10:30am-7:00pm, Wed-Sat 10:30am-7:30pm, Sun 10:30am-6:30pm                       ",,,,,,,,,,,,,,,,,,
NOPA Bodyworks,415-225-6781,From website (up to date),Yes,,NoPa,"1743 Hayes St, San Francisco, CA 94117","Mon-Fri 6:00pm-9:00pm, Sun 5:00pm-9:00pm		",,,,,,,,,,,,,,,,,,
Psoas Massage + Bodywork,415-227-0331,From website (up to date),Yes,,Soma,"333 3rd St Suite 205, San Francisco, CA 94107","Mon-Fri 7:30am-8:30pm, Sat-Sun 9:30am-6:30pm",,,,,,,,,,,,,,,,,,
Massage in Soma,415-240-0854,From website (up to date),Yes,,Mission Bay,"350 Townsend St, San Francisco, CA 94107",Mon-Fri 11:00am-8:00pm,,,,,,,,,,,,,,,,,,
Castro Nail Salon,415-252-1657 ,From website (up to date),Yes,,Castro,"431 Castro St, San Francisco, CA 94114 ",Mon-Sun 10:00am-7:00pm,,,,,,,,,,,,,,,,,,
Lucid Beauty,415-252-9591,From website (up to date),Yes,,Hayes Valley,"427 Hayes St, San Francisco, CA 94102","Tue 11:00am-3:00pm, Wed-Thu 11:00am-7:00pm, Fri 11:00am-3:00pm, Sat 10:00am-6:00pm",,,,,,,,,,,,,,,,,,
Taylor/Monroe,415-252-9723,From website (up to date),Yes,,Hayes Valley,"448 Grove St, San Francisco, CA 94102","Tue 11:00am-8:00pm, Wed-Fri 10:30am-8:00pm, Sat 9:30am-7:00pm, Sun 11:00am-7:00pm        ",,,,,,,,,,,,,,,,,,
LUX SF,415-255-4589 ,From website (up to date),Yes,,Hayes Valley,"490 Hayes St, San Francisco, CA 94102 ","Mon-Fri 10:00am-9:00pm, Sat 10:00am-7:00pm, Sun 10:00am-9:00pm	                , ",,,,,,,,,,,,,,,,,,
Simply Unique Nails,415-255-4772 ,From website (up to date),Yes,,Duboce Triangle,"734 14th St, San Francisco, CA 94114 ","Mon-Fri 10:00am-8:00pm, Sat 10:00am-7:00pm, Sun 11:00am-6:30pm        ",,,,,,,,,,,,,,,,,,
B Parlor,415-255-8554,From website (up to date),Yes,Owner: Filomena; filomena@bparlor.com ,Lower Haight,"782 Haight St, San Francisco, CA 94117","Tue-Thu 11:00am-8:00pm, Fri-Sat 9:00am-9:00pm, Sun 11:00am-7:00pm",,,,,,,,,,,,,,,,,,
Joe's Barbershop,415-255-9096,From website (up to date),Yes,,Duboce Triangle,"2150 Market St, San Francisco, CA 94114","Mon-Fri 11:00am-7:00pm, Sat 9:00am-5:00pm, Sun 10:00am-5:00pm",,,,,,,,,,,,,,,,,,
Mizu Spa,415-278-9988 ,From website (up to date),Yes,,Mission Bay,"1150 4th St, San Francisco, CA 94158","Tue-Sat 11:00am-7:00pm , Sun 10:00am-6:00pm        ",,,,,,,,,,,,,,,,,,
The Pretty Pretty Collective,415-282-2002,From website (up to date),Yes,,Mission,"3290 22nd St, San Francisco, CA 94110","
Mon 1:00pm-9:00pm, Tue-Fri 12:00pm-9:00pm, Sat-Sun 10:00am-6:00pm                ",,,,,,,,,,,,,,,,,,
La Nee Thai Massage,415-282-2236,From website (up to date),Yes,,Mission,"1453 Valencia St, San Francisco, CA 94110",Mon-Sun 11:00am-8:00pm,,,,,,,,,,,,,,,,,,
1512 Barber Shop,415-286-4371,From website (up to date),Yes,Owner: Salvatore Cimino,Potrero Hill,"1532 20th St, San Francisco, CA 94107",Tue-Sat 10:00am-7:00pm,,,,,,,,,,,,,,,,,,
People's Barbershop - Polk St,415-292-4099,From website (up to date),Yes, ,Lower Nob Hill,"1259 Polk St, San Francisco, CA 94109","Mon-Sat 9:00am-9:00pm, Sun 9:00am-8:00pm",,,,,,,,,,,,,,,,,,
Blades Co Barber Shop,415-306-3773,From website (up to date),Yes,Owner: Susan; info@blades.com,Fidi,"13 Columbus Ave, San Francisco, CA 94111","Mon-Fri 10:00am-7:00pm, Sat 9:00am-5:00pm",,,,,,,,,,,,,,,,,,
Ten Zen Nail Spa,415-306-8868 ,From website (up to date),Yes,,Union Square,"207 Powell St, Fl 3, San Francisco, CA 94102 ",Tue-Sat 11:00am-7:00pm,,,,,,,,,,,,,,,,,,
Brows n More,415-344-0009,From website (up to date),Yes,,Soma,"161 Fourth St, San Francisco, CA 94103","Mon-Sat 10:00am-8:30pm, Sun 11:00am-6:00pm",,,,,,,,,,,,,,,,,,
Fellow Barber - Market,415-344-0443,From website (up to date),Yes,,Soma,"973 Market St, San Francisco, CA 94103","
Mon-Sat 9:00am-8:00pm, Sun 9:00am-5:00pm",,,,,,,,,,,,,,,,,,
Mimosa Nails,415-345-1203 ,From website (up to date),Yes,,Lower Pac Heights,"1908 Divisadero St, San Francisco, CA 94115","Mon-Sun 10:00am-7:00pm	",,,,,,,,,,,,,,,,,,
Cascade Nail & Spa,415-345-9188 ,From website (up to date),Yes,,Russian Hill,"2139 Polk St, Ste B, San Francisco, CA 94109",Mon-Sun 10:00am-10:00pm        ,,,,,,,,,,,,,,,,,,
City Famous Nail Spa,415-346-4151 ,From website (up to date),Yes,,Cow Hollow,"2272 Lombard St, San Francisco, CA 94123 ",Mon-Sat 10:00am-7:00pm,,,,,,,,,,,,,,,,,,
Eyebrows To Die For,415-346-9956,From website (up to date),Yes,,Cow Hollow,"2660 Gough St, Ste 204 San Francisco, CA 94123","Tue-Wed 10:00am-7:00pm, Thu-Fri 10:00am-3:00pm",,,,,,,,,,,,,,,,,,
The Upper Hand,415-359-7918 ,From website (up to date),Yes,,Noe Valley,"3836 24th St, San Francisco, CA 94114","Mon-Sat 10:00am-7:00pm, Sun 10:00am-6:00pm",,,,,,,,,,,,,,,,,,
Elite Salon,415-359-9082,From website (up to date),Yes,,Russian Hill,"1409 Green St, San Francisco, CA 94109","Mon-Fri 10:00am-7:00pm, Sat-Sun 10:00am-6:00pm	        ",,,,,,,,,,,,,,,,,,
Tootsie Toes,415-359-9844 ,From website (up to date),Yes,,Nob Hill,"1741 Polk St, San Francisco, CA 94109","Mon-Sat 10:00am-7:30pm, Sun 10:00am-7:00pm",,,,,,,,,,,,,,,,,,
Vanity Beauty Lounge,415-362-2242 ,From website (up to date),Yes,,Fidi,"3 Embarcadero Ctr, Lobby Level, Fl 2, San Francisco, CA 94111 ",Mon-Fri 10:00am-7:00pm,,,,,,,,,,,,,,,,,,
Cowboys & Angels,415-362-8516,From website (up to date),Yes,,Union Square,"207 Powell St, Ste #400, San Francisco, CA 94102","Tue-Wed 10:00am-7:00pm, Thu 11:00am-8:00pm, Fri 10:00am-7:00pm, Sat 9:00am-6:00pm",,,,,,,,,,,,,,,,,,
Cetana Salon,415-371-1335,From website (up to date),Yes,Manager: Jay; jay@cetanasalonspa.com ,South Beach,"155 Brannan St, San Francisco, CA 94107","Tue 9:00am-8:30pm, Wed 9:00am-7:00pm, Thu-Fri 8:00am-8:30pm, Sat 9:00am-6:00pm, Sun 10:00am-6:00pm",,,,,,,,,,,,,,,,,,
Iyara Traditional Thai Massage,415-379-1111,From website (up to date),Yes,,Inner Richmond,"4328 Geary Blvd, San Francisco, CA 94118",Mon-Sun 11:00am-8:00pm,,,,,,,,,,,,,,,,,,
Healing Shiatsu,415-379-9739,From website (up to date),Yes,,Outer Richmond,"3735 Balboa St, San Francisco, CA 94121",Mon-Sun 10:00am-8:30pm,,,,,,,,,,,,,,,,,,
Sutter Nails,415-398-3939 ,From website (up to date),Yes,,Union Square,"539 Sutter St, San Francisco, CA 94102","
Mon-Sat 9:30am-7:30pm, Sun 9:30am-7:00pm",,,,,,,,,,,,,,,,,,
Honeycomb Salon,415-401-0100,From website (up to date),Yes,,Noe Valley,"3915 24th St, Ste C, San Francisco, CA 94114","Tue 11:00am-4:00pm, Wed-Fri 11:00am-8:00pm, Sun11:00am-4:00pm      ",,,,,,,,,,,,,,,,,,
Follicle Hair Salon,415-402-5277,From website (up to date),Yes,,Lower Nob Hill,"798 Sutter St, San Francisco, CA 94109","Tue 12:00pm-7:00pm, Wed-Fri 10:00am-8:00pm, Sat 9:00am-5:00pm",,,,,,,,,,,,,,,,,,
Leelawadee Thai Classic Massage,415-412-2519,From website (up to date),Yes,Called and left voicemail,Fidi,"310 Sutter St, 2nd Fl, San Francisco, CA 94108",Mon-Sat 10:30am-9:00pm,,,,,,,,,,,,,,,,,,
Patrick Evan Hair Salon,415-421-1111,From website (up to date),Yes,,Fidi,"55 Grant Ave, San Francisco, CA 94108",Mon-Sun 11:00am-7:00pm        ,,,,,,,,,,,,,,,,,,
Urban Oasis,415-424-8462,From website (up to date),Yes,,Mission,"2489 Mission St, Ste 35, San Francisco, CA 94110",N/A,,,,,,,,,,,,,,,,,,
TRx CBD Massage,415-429-6456,From website (up to date),Yes,,Soma,"250 Clara St, Ste #8, San Francisco, CA 94107",Mon-Sun10:00am-10:00pm,,,,,,,,,,,,,,,,,,
Revamp Salon - Mission,415-431-8267,From website (up to date),Yes,,Mission,"3167 16th St, San Francisco, CA 94103","Tue-Fri 11:00am-8:00pm, Sat 10:00am-6:00pm, Sun 10:00am-6:00pm",,,,,,,,,,,,,,,,,,
M&M Thread Salon,415-434-1960,From website (up to date),Yes,,Union Square,"547 Sutter St San Francisco, CA 94102","Mon-Sat 10:30am-7:00pm, Sun 12:00pm-4:00pm",,,,,,,,,,,,,,,,,,
JP Kempt Barber,415-437-1300,From website (up to date),Yes,,Lower Haight,"351 Divisadero St, San Francisco, CA 94117","Mon-Fri 10:00am-6:30pm, Sat 9:00pm-5:00pm, Sun 10:00am-6:00pm",,,,,,,,,,,,,,,,,,
Marina Thai Massage,415-440-1263,From website (up to date),Yes,,Cow Hollow,"3288 Steiner St, San Francisco, CA 94123",Mon-Sun 10:00am-9:00pm,,,,,,,,,,,,,,,,,,
Sublime Salon,415-440-4920,From website (up to date),Yes,,Presidio Heights,"3354 A, Sacramento St, San Francisco, CA 94118","Tue-Fri 11:00am-7:00pm, Sat 9:30am-6:00pm",,,,,,,,,,,,,,,,,,
Secret Agent Salon,415-440-5247,From website (up to date),Yes,,Lower Pac Heights,"2843 California St, San Francisco, CA 94115","Tue-Fri 9:00am-6:00pm, Wed 9:00am-7:00pm, Thu 11:00am-6:00pm, Sat 9:00am-5:00pm",,,,,,,,,,,,,,,,,,
Population Nopa Salon,415-440-7677,From website (up to date),Yes,,NoPa,"537 Divisadero St, San Francisco, CA 94117","Mon-Fri 11:00am-7:30pm, Sat-Sun 11:00am-7:00pm",,,,,,,,,,,,,,,,,,
Serenity Wellness Spa,415-441-1061,From website (up to date),Yes,,Marina,"2087 Union St, Ste #2, San Francisco, CA 94123","Mon-Sun 11:00am-8:00pm, Tue-Thu 9:00am-8:00pm, Fri-Sat9:00am-7:00pm",,,,,,,,,,,,,,,,,,
The Woodbridge,415-441-1362,From website (up to date),Yes,,Marina,"2072 Chestnut St, San Francisco, CA 94123","Mon-Sun 10:00am-8:00pm, Wed 8:00am-9:00pm",,,,,,,,,,,,,,,,,,
SenSpa,415-441-1777,From website (up to date),Yes,,Presidio,"1161 Gorgas Ave, San Francisco, CA 94129","Mon-Sun10:00am-8:00pm	",,,,,,,,,,,,,,,,,,
Public Barber Salon - Tenderloin,415-441-8599,From website (up to date),Yes,,Tenderloin,"571 Geary St, San Francisco, CA 94102","Mon-Sat 9:00am-9:00pm, Sun 10:00am-4:00pm",,,,,,,,,,,,,,,,,,
Bateau Hair Salon,415-495-1912,From website (up to date),Yes,,Embarcadero,"2 Townsend St, Ste 4B, San Francisco, CA 94107","Tue-Fri 11:00am-7:00pm, Sat 10:00am-5:00pm",,,,,,,,,,,,,,,,,,
Zaza Nail and Wine Lounge,415-495-6292 ,From website (up to date),Yes,,South Beach,"543 2nd St, San Francisco, CA 94107","Mon 11:00am-7:00pm, Tue-Sat 10:00am-7:00pm, Sun 10:00am-6:00pm",,,,,,,,,,,,,,,,,,
Arthur Sebastian,415-501-0338,From website (up to date),Yes,,Cow Hollow,"1996 Union St, San Francisco, CA 94123",Tue-Sat 10:00am-8:00pm,,,,,,,,,,,,,,,,,,
Tailored Salon,415-501-9205,From website (up to date),Yes,,Fidi,"266 Sutter St 2nd Floor, San Francisco, CA 94108","Tue 9::00am-6:00pm, Wed-Fri 9:00am-8:00pm, Sat 9:00am-7:00pm, Sun 10:00am-6:00pm",,,,,,,,,,,,,,,,,,
Steel & Lacquer,415-503-1210,From website (up to date),Yes,,Soma,"14 10th St, San Francisco, CA 94103","Tue 2:00pm-8:30pm, Wed-Thu 8:30am-9:30pm, Fri 8:30am-8:00pm, Sat 9:00am-6:30pm                ",,,,,,,,,,,,,,,,,,
Hairetics Salon,415-503-1424,From website (up to date),Yes,,Soma,"219 7th St, San Francisco, CA 94103","Tue-Sat 10:00am-7:00pm	",,,,,,,,,,,,,,,,,,
Choice Brow Threading,415-504-5905,From website (up to date),Yes,,Soma,"1005 Market St, San Francisco, CA 94103","Mon-Fri 10:30am-7:00pm, Sat 11:00am-6:00pm",,,,,,,,,,,,,,,,,,
Ronit April V,415-516-3497,From website (up to date),Yes,,Potrero Hill,"1317 18th St, San Francisco, CA 94107","Mon-Tue 10:00am-6:30pm, Fri 10:00am-5:00pm",,,,,,,,,,,,,,,,,,
The Bling Bar Nail Salon,415-524-6556 ,From website (up to date),Yes,Owner Daya; Tester - DM on insta for pic,Mission,"3186 23rd St, San Francisco, CA 94110",Mon-Sat 9:00am-6:00pm,,,,,,,,,,,,,,,,,,
Locals Barbershop,415-525-3194,From website (up to date),Yes,,Lower Nob Hill,"1188 Polk St, San Francisco, CA 94109","Tue-Fri 9:00am-7:00pm, Sat 10:00pm-7:00pm",,,,,,,,,,,,,,,,,,
Hair Caffe Workshop,415-525-4678,From website (up to date),Yes,,Lower Pac Heights,"2176 Sutter St, San Francisco, CA 94115","Mon-Sat11:00am-8:00pm, Sat 10:00am-8:00pm, Sun 10:00am-5:00pm                ",,,,,,,,,,,,,,,,,,
The Refinery Grooming Club,415-525-4751,From website (up to date),Yes,,Mission,"2589 Mission St, San Francisco, CA 94110","TueThu 10:00am-8:00pm, Fri-Sat 9:00am-7:00pm, Sun 11:00am-6:00pm        ",,,,,,,,,,,,,,,,,,
Joli Bijou Salon,415-525-4970 ,From website (up to date),Yes,,Pacific Heights,"2550 Sacramento St, San Francisco, CA 94115 ","Tue-Sat 10:00am-7:00pm, Sun 10:00am-6:00pm                ",,,,,,,,,,,,,,,,,,
Polished Nest,415-543-0993 ,From website (up to date),Yes,,Mission Bay,"470 3rd St, San Francisco, CA 94107 ","Tue-Fri 11:00am-7:00pm, Sat-Sun 10:00am-6:00pm	",,,,,,,,,,,,,,,,,,
Eyebrow Plus,415-543-2769,From website (up to date),Yes,,Soma,"865 Market St, San Francisco, CA 94103","Mon-Sat 10:00am-8:30pm, Sun 11:00am-7:00pm        ",,,,,,,,,,,,,,,,,,
Hair Candy SF,415-550-8238,From website (up to date),Yes,,Mission,"1380 Valencia St, San Francisco, CA 94110","Tue-Wed 10:00am - 6:00pm, Fri-Sat 10:00am - 6:00pm",,,,,,,,,,,,,,,,,,
Jasmine Beauty Spa,415-550-8738,From website (up to date),Yes,*Jasmine Beauty Spa,Mission,"3085 24th St, Ste 203, San Francisco, CA 94110",Mon-Sun 1:00pm-8:00pm,,,,,,,,,,,,,,,,,,
Daddy's Barbershop,415-552-5101,From website (up to date),Yes,,Castro,"4102 19th St, San Francisco, CA 94114","Tue 11:00am-5:00pm, Wed-Thu 11:00am-7:00pm, Fri-Sat 9:00am-7:00pm, Sun 11:00am-5:00pm",,,,,,,,,,,,,,,,,,
Earthbody,415-552-7200,From website (up to date),Yes,,Hayes Valley,"534 Laguna St, San Francisco, CA 94102","Tue 10:00am-5:30pm, Wed 10:00am-4:45pm, Thu 10:00am-5:30pm, Fri 9:00am-5:30pm, Sat 9:00am-4:00pm",,,,,,,,,,,,,,,,,,
Pretty Parlor,415-556-2883,From website (up to date),Yes,,Mission,"483 Guerrero St, San Francisco, CA 94110","Tue 11:00am-8:00pm, Wed-Fri 10:00am-8:00pm, Sat-Sun 10:00am-6:00pm",,,,,,,,,,,,,,,,,,
M Spa,415-556-9100,From website (up to date),Yes,,Castro,"2187 Market St San Francisco, CA 94114","Mon-Fri 11:00am-8:00pm, Sat 10:00am-8:00pm, Sun 11:00am-7:00pm",,,,,,,,,,,,,,,,,,
Jan Massage,415-563-0100,From website (up to date),Yes,,Lower Pac Heights,"1610 Post St, Ste 103, San Francisco, CA 94115",Mon-Sun 11:00am-8:00pm,,,,,,,,,,,,,,,,,,
e Salon,415-563-5655,From website (up to date),Yes,,Cow Hollow,"2288 Union St, San Francisco, CA 94123","Mon-Fri 10:00am-8:00pm, Sat 9:00am-6:00pm",,,,,,,,,,,,,,,,,,
Hollywood Eyebrow Threading,415-564-7777,From website (up to date),No,Menu from google maps,Stonestown,"3251 20th Ave, Ste 137A, San Francisco, CA 94132","Mon-Sat 10:00am-9:00pm, Sun 11:00am-6:00pm",,,,,,,,,,,,,,,,,,
Jun's Beauty Salon,415-564-8982,From website (up to date),Yes,,Inner Sunset,"1373 7th Ave, San Francisco, CA 94122","Mon-Fri 10:00am-7:00pm, Sat-Sun 9:00am-6:00pm",,,,,,,,,,,,,,,,,,
Buddha Bliss Therapeutic Massage,415-565-9634,From website (up to date),Yes,,Lower Nob Hill,"873 Sutter St, Ste B, San Francisco, CA 94109","Mon-Fri 10:00am-8:30pm, Sat-Sun 10:00am-7:00pm",,,,,,,,,,,,,,,,,,
Lavande Nail Spa,415-566-5333 ,From website (up to date),Yes,,Cole Valley,"113 Carl St, San Francisco, CA 94117 ","Mon-Sat 10:30am-7:00pm, Sun 10:00am-6:00pm",,,,,,,,,,,,,,,,,,
Super Nails & Spa,415-566-8585 ,From website (up to date),Yes,,Stonestown,"3251 20th Ave, Ste 234, San Francisco, CA 94132 ","Mon-Sat 10:00am-9:00pm, Sun 12:00pm-6:00pm        ",,,,,,,,,,,,,,,,,,
White Daisy Nail Spa,415-566-8609 ,From website (up to date),Yes,,West Portal,"309 West Portal Ave, San Francisco, CA 94127","Mon-Sat 9:00am-7:00pm, Sun 9:30am-6:00pm",,,,,,,,,,,,,,,,,,
Nail Today,415-567-8722 ,From website (up to date),Yes,,Cow Hollow,"2147 Union St, San Francisco, CA 94123 ","Mon-Sat 9:30am-7:30pm, Sun10:00am-7:00pm",,,,,,,,,,,,,,,,,,
Pearl Spa & Sauna,415-580-7142,From website (up to date),Yes,,Lower Pac Heights,"1656 Post St, San Francisco, CA 94115",Mon-Sun 8:00am-9:00pm,,,,,,,,,,,,,,,,,,
Qua The Spa at SOMA GRAND,415-598-8686,From website (up to date),Yes,,Soma,"1162 Mission St, San Francisco, CA 94103",Tue-Sun 10:00am-7:00pm,,,,,,,,,,,,,,,,,,
MaiThai Massage and Bodywork,415-601-2649,From website (up to date),Yes,,Lower Pac Heights,"1706 Steiner St, San Francisco, CA 94115","Mon 10:00am-8:00pm, Tue 10:00am-7:00pm, Wed 3:00pm-7:00pm, Thu 10:00am-7:00pm, Fri-Sat 10:00am-8:00pm, Sun 10:00am-5:00pm",,,,,,,,,,,,,,,,,,
Synergy Mind Body Wellness,415-602-1109,From website (up to date),Yes,,Inner Richmond,"399 Arguello Blvd, San Francisco, CA 94118",Mon-Sun 10:00am-9:00pm,,,,,,,,,,,,,,,,,,
Zip Zap Hair,415-621-1671,From website (up to date),Yes,,Lower Haight,"245 Fillmore St, San Francisco, CA 94117","
Mon-Fri 11:00am-7:00pm, Sat 10:00am-6:00pm, Sun 11:00am-6:00pm	        ",,,,,,,,,,,,,,,,,,
Fellow Barber,415-621-9000,From website (up to date),Yes,,Mission,"696 Valencia St, San Francisco, CA 94110","Mon-Fri 9:00am-9:00pm, Sat 9:00am-7:00pm, Sun 9:00am-6:00pm	",,,,,,,,,,,,,,,,,,
Code Salon,415-624-8340,From website (up to date),Yes,,Soma,"370 4th St, Fl 2, San Francisco CA 94107","Tue-Fri 10:00am-8:00pm, Sat 9:00am-6:00pm",,,,,,,,,,,,,,,,,,
Bare,415-625-8400,From website (up to date),Yes,,Marina,"1810 Union St, San Francisco, CA 94123",Mon-Sun 10:00am-9:00pm,,,,,,,,,,,,,,,,,,
Fix Studios,415-626-6228,From website (up to date),Yes,,Mission,"228 Valencia St, San Francisco, CA 94103","Mon-Thu 11:00am-7:00pm , Fri-Sat 10:00am-5:00pm	      ",,,,,,,,,,,,,,,,,,
Salon Baobao,415-626-6806,From website (up to date),Yes,,Castro,"2041 Market St, San Francisco, CA 94114","Tue-Fri 10::00am-7::00pm, Sat 9:00am-6:00pm        ",,,,,,,,,,,,,,,,,,
Bryan Roberts Salon & Color Bar,415-626-7700,From website (up to date),Yes,,Castro,"561 Castro St, San Francisco, CA 94114","Tue-Thu 12:00pm-8:00pm, Fri 11:00am-7:00pm, Sat 9:00am-6:00pm, Sun 10:00am-4:00pm",,,,,,,,,,,,,,,,,,
Tiptoes Nail Spa,415-626-8637 ,From website (up to date),Yes,,Potrero Hill,"300 De Haro St, Ste 336, San Francisco, CA 94103 ","Mon 10:30am-7:00pm, Tue-Sat 10:00am-7:00pm, Sun 10:00am-6:30pm",,,,,,,,,,,,,,,,,,
Suchada Thai Massage - Embarcadero,415-644-0808,From website (up to date),Yes,,South Beach,"38 Bryant St, San Francisco, CA 94105",Mon-Sun10:00am-8:00pm,,,,,,,,,,,,,,,,,,
San Francisco Barber Shop,415-655-3484,From website (up to date),Yes,,Mission,"3166 16th St, San Francisco, CA 94103",Mon-Sun 10:00am-9:00pm,,,,,,,,,,,,,,,,,,
Arrow Salon,415-658-7469,From website (up to date),Yes,,Mission,"1041 Guerrero St, San Francisco, CA 94110","Tue 10:00am-5:00pm, Fri 10:00am-7:00pm, Sat 9:00am-5:00pm",,,,,,,,,,,,,,,,,,
Nirvana Beauty & Brows,415-658-7486,From website (up to date),Yes,,Fidi,"7 Columbus Ave, San Francisco, CA 94111","Mon-Fri 10:00am-6:30pm , Sat 10:00am-6:00pm , Sun 11:00am-5:00pm        ",,,,,,,,,,,,,,,,,,
People's Barber & Shop,415-658-7799,From website (up to date),Yes,,South Beach,"133 Townsend St, San Francisco, CA 94107","Mon-Fri 9:00am-8:00pm, Sat 9:00am-5:00pm",,,,,,,,,,,,,,,,,,
Mike's Barbershop,415-660-5031,From website (up to date),Yes,,Lower Haight,"505 Haight St, San Francisco, CA 94117","Mon-Fri 11:00am-7:00pm, Sat 9:00am-3:00pm, Sun 10:00am-3:00pm",,,,,,,,,,,,,,,,,,
Star East Hair Salon,415-666-0777,From website (up to date),Yes,,Outer Richmond,"3101 Clement St, San Francisco, CA 94121","Mon-Sat 10:00am-7:00pm	",,,,,,,,,,,,,,,,,,
Healthy living Spa,415-668-0368,From website (up to date),Yes,,Inner Richmond,"369 3rd Ave, San Francisco, CA 94118",Mon-Sun 10:00am-9:00pm,,,,,,,,,,,,,,,,,,
Lashfully,415-673-3240,From website (up to date),Yes,,Marina,"1954 Union St, San Francisco, CA 94123","Tue-Fri 11:00am-7:00pm, Sat 10:00am-6:00pm, Sun 11:00am-5:00pm",,,,,,,,,,,,,,,,,,
Studio Soothe,415-674-7511,From website (up to date),Yes,,NoPa,"1883 Hayes St, San Francisco, CA 94117","Mon 12:00pm-8:00pm, Tue-Sat 11:00am-8:00pm, Sun 11:00am-5:00pm",,,,,,,,,,,,,,,,,,
G Salon,415-682-8019,From website (up to date),Yes,,Cow Hollow,"1381A 9th Ave, San Francisco, CA 94122","Mon-Fri 10:00am-8:00pm, Sat 9:00am-6:00pm        ",,,,,,,,,,,,,,,,,,
Sutro Lab,415-691-1056,From website (up to date),Yes,,Nob Hill,"1402 California St, San Francisco, CA 94109","Mon-Fri 11:00am-7:00pm, Sat 11:00am-6:00pm        ",,,,,,,,,,,,,,,,,,
Sweeties Salon,415-702-5103 ,From website (up to date),Yes,,Telegraph Hill,"1455 Powell St, Ste 103, San Francisco, CA 94133 ","Mon 10:30am-7:30pm, Wed-Sun 10:30am-7:30pm",,,,,,,,,,,,,,,,,,
Richmond Serenity Spa,415-702-6468,From website (up to date),Yes,,Outer Richmond,"3443 Balboa St, San Francisco, CA 94121",Mon-Sun 10:30am-8:00pm,,,,,,,,,,,,,,,,,,
Strictly Therapeutic,415-724-7642,From website (up to date),Yes,,Inner Sunset,"1475 9th Ave, San Francisco, CA 94122","Tue-Fri 8:00am-10:00pm, Wed 1:00pm-8:00pm",,,,,,,,,,,,,,,,,,
Timothy Scott,415-730-3561,From website (up to date),Yes,Owner: Timothy Scott - left voicemail,Nob Hill,"1555 California St, San Francisco, CA 94109","Wed-Fri 8:00am-8:00pm, Thu 12:00pm-8:00pm, Sat 9:00am-5:00pm",,,,,,,,,,,,,,,,,,
Kinship Salon & Barber,415-735-9300,From website (up to date),Yes,,Inner Richmond,"253 Clement St, San Francisco, CA 94118","Mon-Fri 10:00am-8:00pm, Sat-Sun 10:00am-6:00pm",,,,,,,,,,,,,,,,,,
Oxygen Massage Therapy Mission,415-738-7708,From website (up to date),Yes,,Bernal Heights,"14 Precita Ave, San Francisco, CA 94110","Mon-Sat 9:00am-9:00pm, Sun 10:00am-7:00pm        ",,,,,,,,,,,,,,,,,,
Blade Runners Hair Studio,415-751-1723,From website (up to date),Yes,,The Haight,"1792 Haight St, San Francisco, CA 94117","Tue 12:00am-9:00pm, Wed 12:00am-8:00pm, Thu 12:00am-9:00pm, Fri 12:00am-8:00pm, Sat 10:00am-6:00pm",,,,,,,,,,,,,,,,,,
Mane Attraction,415-753-5500,From website (up to date),Yes,,Cole Valley,"103 Carl St, San Francisco, CA 94117","Mon 11:00am-6:00pm, Tue-Fri 10:00am-6:00pm, Sat 10:00am-5:00pm, Sun 11:00am-4:00pm",,,,,,,,,,,,,,,,,,
Eyebrowcare,415-757-0881,From website (up to date),Yes,,Mission,"3401 Cesar Chavez, San Francisco, CA 94110","Mon-Sat 10:00am-7:00pm	",,,,,,,,,,,,,,,,,,
EZ Threads,415-758-8344,From website (up to date),Yes,,Fidi,"211 Sutter St, Ste #703, San Francisco, CA 94108","Mon-Fri 11:00am-6:30pm, Sat 11:00am-5:00pm		",,,,,,,,,,,,,,,,,,
Hana Skin Care,415-763-9202,From website (up to date),Yes,,Lower Pac Heights,"1610 Post St, Ste 100, San Francisco, CA 94115","Tue-Sat 9:00am-7:00pm , Sun 11:00am-6:00pm        ",,,,,,,,,,,,,,,,,,
Imperial Spa,415-771-1114,From website (up to date),Yes,,Western Addition,"1875 Geary Blvd, San Francisco, CA 94115",Mon-Sun 8:00am-10:00pm,,,,,,,,,,,,,,,,,,
Cocoon Urban Day Spa,415-777-0100 ,From website (up to date),Yes,,Soma,"330 1st St, Fl 2, San Francisco, CA 94105 ","Mon 10:00am-6:00pm , Tue 10:00am-8:00pm, Sat-Sun 10:00am-6:00pm	      ",,,,,,,,,,,,,,,,,,
Polish Nail & Beauty Spa,415-780-1912 ,From website (up to date),Yes,,Inner Richmond,"301 Cornwall St, San Francisco, CA 94118 ","
Mon-Sun 10:00am-7:00pm",,,,,,,,,,,,,,,,,,
Park Parlor HairStyling,415-780-1935,From website (up to date),Yes,,Inner Sunset,"1239 A 9th Ave, San Francisco, CA 94122","Tue-Wed 11:00am-7:00pm , Fri 11:00am-7:00pm, Sat-Sun 9:00am-6:00pm	, ",,,,,,,,,,,,,,,,,,
La Petite Nail Shop,415-796-2863 ,From website (up to date),Yes,,Potrero Hill,"601 Kansas St, San Francisco, CA 94107 ","Mon 11:00am-7:00pm , Tue 10:00am-7:00pm, Wed 11:00am-7:00pm, Thu-Sun 10:00am-7:00pm",,,,,,,,,,,,,,,,,,
SF Nail Bar,415-796-3447 ,From website (up to date),Yes,,Castro,"2275 Market St, Unit B, San Francisco, CA 94114 ","Tue-Fri 11:00am-7:00pm , Sat-Sun 10:00am-7:00pm",,,,,,,,,,,,,,,,,,
Atelier Emmanuel,415-800-7572,From website (up to date),Yes,,Union Square,"9 Claude Ln, San Francisco, CA 94108","Tue-Wed 9:00am-7:00pm, Thu-Fri 9:00am-8:00pm, Sat 9:00am-6:00pm",,,,,,,,,,,,,,,,,,
Charles W Thomas,415-805-3403,From website (up to date),Yes,,Presidio Heights,"3571 Sacramento St, San Francisco, CA 94118",Tue-Sat 9:00am-6:00pm,,,,,,,,,,,,,,,,,,
Dogpatch Barber and Shave South,415-814-1117,From website (up to date),Yes,,Dogpatch,"2632 3rd St, San Francisco, CA 94107","Tue-Fri10:00am-7:00pm, Sat 9:00am-3:00pm",,,,,,,,,,,,,,,,,,
May's Beauty Skin Care,415-816-9389,From website (up to date),Yes,,Inner Richmond,"4308 Geary Blvd Ste 201, San Francisco, CA 94118",Mon-Fri 8:30am-5:30pm,,,,,,,,,,,,,,,,,,
20th Salon & Barber,415-824-1335,From website (up to date),Yes,Owner: Jeremy ,Mission,"2737 20th St, San Francisco, CA 94110",Mon-Sun 10:00am-7:00pm,,,,,,,,,,,,,,,,,,
Damia Salon (Stylist: Stephanie Eastman),415-824-1707,From website (up to date),Yes,,Noe Valley,"1504 Church St, San Francisco, CA 94131","Tue-Fri 11:00am-7:00pm, Sat 10:00am-6:00pm",,,,,,,,,,,,,,,,,,
Joyful Massage Center,415-828-2567,From website (up to date),Yes,,Union Square,"447 Sutter St, San Francisco, CA 94108","
Mon-Sun 10:00am-10:00pm        ",,,,,,,,,,,,,,,,,,
Cut To Contrast Barbershop,415-841-1050,From website (up to date),Yes,Google maps,Ingleside Terraces,"1907 Ocean Ave, San Francisco, CA 94127","Mon 10:00am-5:00pm, Tue-Wed-Fri 9:00am-6:30pm, Thurs 9:00am-7:00pm, Sat 9:00am-6:00pm",,,,,,,,,,,,,,,,,,
Bebe Skin Care & Threading,415-845-5615,From website (up to date),Yes,,Japantown,"1731 Buchanan St, San Francisco, CA 94115","Wed-Fri 11:00am-6:30pm, Sat 9:30am-5:00pm, Sun 9:00am-4:00pm",,,,,,,,,,,,,,,,,,
EZ Brow & Beauty,415-849-6080,From website (up to date),Yes,,Japantown,"1820 Fillmore St, San Francisco, CA 94115",Tue-Sun 11:00am-6:00pm        ,,,,,,,,,,,,,,,,,,
Freedom Barber SF,415-851-4965,From website (up to date),Yes,,Fidi,"520 Montgomery St, Ste #107, San Francisco, CA 94111",Tue-Fri 10:00am-7:00pm,,,,,,,,,,,,,,,,,,
Mama Lounge SF,415-857-3228,From website (up to date),Yes,,Lower Pac Heights,"2001 Pine St, San Francisco, CA 94115","Mon-Thu 12:00pm-7:00pm, Fri 11:00am-6:00pm, Sat 10:00am-2:30pm",,,,,,,,,,,,,,,,,,
Edo Salon,415-861-0131,From website (up to date),Yes,,Lower Haight,"601 Haight St, San Francisco, CA 94117","Sun-Fri 10:00am-8:00pm, Sat 10:00am-7:00pm",,,,,,,,,,,,,,,,,,
Hector Estrada Salon,415-861-0142,From website (up to date),Yes,,Hayes Valley,"142 Fillmore St, San Francisco, CA 94117","Wed-Fri 12:00pm-8:00pm, Sat-Sun 11:00am-7:00pm",,,,,,,,,,,,,,,,,,
John Francis Spa,415-861-3000,From website (up to date),Yes,,Castro,"4200 18th, St #101, San Francisco, CA 94114","Tue 11:00am-6:00pm, Wed 12:00am-6:00pm, Thu 11:00am-6:00pm, Fri 12:00am-6:00pm, Sat 11:00am-5:00pm",,,,,,,,,,,,,,,,,,
Hand Job Spa,415-863-2243 ,From website (up to date),Yes,,Castro,"565 Castro St, San Francisco, CA 94114 ","Mon-Sat 10:00am-8:00pm, Sun 11:00am-7:00pm	        ",,,,,,,,,,,,,,,,,,
Veer & Wander,415-864-3012,From website (up to date),Yes,,Soma,"6 Brady St, San Francisco, CA 94103","Tue-Fri 10:00am-8:00pm, Sat 9:00am-6:00pm",,,,,,,,,,,,,,,,,,
ORO Duboce,415-872-6172,From website (up to date),Yes,,Duboce Triangle,"435A Duboce Ave, San Francisco, CA 94117","Tue-Fri 11:00am-7:00pm, Sat 10:00am-5:00pm, Sun 11:00am-6:00pm	",,,,,,,,,,,,,,,,,,
Fresh Blades Barbershop,415-872-9342,From website (up to date),Yes,,Nob Hill,"1346 Polk St, San Francisco, CA 94109","Mon 12:00pm-8:00pm, Tue-Sat 10:00am-8:00pm, Sun 12:00pm-5:00pm	    ",,,,,,,,,,,,,,,,,,
Hook & Scissor,415-872-9585,From website (up to date),Yes,,Soma,"303 2nd St d, San Francisco, CA 94107","Mon-Fri 10:00am-7:00pm	",,,,,,,,,,,,,,,,,,
Siam Orchid Traditional Thai Massage,415-872-9645,From website (up to date),Yes,,Civic Center,"39 Polk St, San Francisco, CA 94102",Mon-Sun 10:00am-10:00pm        ,,,,,,,,,,,,,,,,,,
JoJe Nail Spa,415-872-9887 ,From website (up to date),Yes,,Mission,"1003 Guerrero St, San Francisco, CA 94110 ","Mon-Sat 10:00am-7:30pm , Sun 10:00am-7:00pm        ",,,,,,,,,,,,,,,,,,
Ingenious Salon,415-876-4643,From website (up to date),Yes,,Inner Richmond,"389 Arguello Blvd, San Francisco, CA 94118","Tue 9:30am-5:00pm, Wed 12:00pm-8:00pm, Thu-Sat 9:30am-8:00pm                ",,,,,,,,,,,,,,,,,,
Q Spa,415-885-1272 ,From website (up to date),Yes,,NoPa,"604 Divisadero St, San Francisco, CA 94117 ","Mon-Fri 11:00am-7:30pm, Sat 10:00am-7:00pm, Sun 10:00am-6:00pm",,,,,,,,,,,,,,,,,,
Silk Day Spa,415-885-3277 ,From website (up to date),Yes,,Lower Pac Heights,"1425 Franklin St, San Francisco, CA 94109 ","
Mon-Fri 9:00am-7:30pm, Sat 9:00am-7:00pm, Sun 10:00am-6:00pm",,,,,,,,,,,,,,,,,,
Wanderlust Salon,415-913-7331,From website (up to date),Yes,,Marina,"2250 Union St, San Francisco, CA 94123","Tue-Fri 11:00am-7:00pm, Sat 10:00am-6:00pm",,,,,,,,,,,,,,,,,,
The Barbershop,415-913-7562,From website (up to date),Yes,,Marina,"2030 Union St, San Francisco, CA 94123","Mon-Fri 9:00am-9:00pm, Sat 9:00am-7:00pm, Sun 9:00am-6:00pm        ",,,,,,,,,,,,,,,,,,
Nepenji Japan Center Beauty Clinic,415-921-0135,From website (up to date),Yes,,Japantown,"1825 Post St, Ste # 160, San Francisco, CA 94115","Mon-Tue 10:00am-7:00pm, Thur-Sun 10:00am-7:00pm",,,,,,,,,,,,,,,,,,
SKG Salon,415-922-3449,From website (up to date),Yes,,Hayes Valley,"193 Franklin St, San Francisco, CA 94102","Mon-Wed 10:00am-6:00pm, Tue 10:00am/5:30pm-3:00pm /7:30pm , Thu-Fri 10:00am-7:00pm, Sat 10:00am-5:00pm              ",,,,,,,,,,,,,,,,,,
Kabuki Springs & Spa,415-922-6000,From website (up to date),Yes,,Japantown,"1750 Geary Blvd, San Francisco, CA 94115",Mon-Sun 10:00am-10:00pm,,,,,,,,,,,,,,,,,,
Sydney Nail Spa,415-928-1268 ,From website (up to date),Yes,,Marina,"2758 Octavia St, San Francisco, CA 94123 ","Mon-Fri 10:00am-7:30pm, Sat-Sun 9:30am-7:00pm",,,,,,,,,,,,,,,,,,
KT Nails,415-928-1698 ,From website (up to date),Yes,,Nob Hill,"1722 Polk St, San Francisco, CA 94109 ",Mon-Sun 10:00am-7:30pm        ,,,,,,,,,,,,,,,,,,
Renaissance Salon,415-931-7091,From website (up to date),Yes,,Pacific Heights,"2600 Sacramento St, San Francisco, CA 94115","Tue-Fri 10:00am-7:00pm, Sat 10:00am-6:00pm",,,,,,,,,,,,,,,,,,
La Biang Thai Massage,415-931-7692,From website (up to date),Yes,,Nob Hill,"1301 Polk St, San Francisco, CA 94109",Mon-Sun 10:00am-8:00pm,,,,,,,,,,,,,,,,,,
Jungle Red,415-934-9755,From website (up to date),Yes,,Castro,"4233 18th St, San Francisco, CA 94114","Tue 10:00am-7:00pm, Wed 10:00am-6:00pm, Thu 11:00am-7:00pm, Fri 10:00am-7:00pm, Sat 10:00am-6:00pm",,,,,,,,,,,,,,,,,,
Thi Spa & Nails,415-939-8689 ,From website (up to date),Yes,,Soma,"811 Mission St, San Francisco, CA 94103 ","Mon-Sat 10:00am-7:30pm, Sun 10:00am-7:00pm",,,,,,,,,,,,,,,,,,
Golia Beauty Center,415-956-1089,From website (up to date),Yes,,Chinatown,"737 Grant Ave, San Francisco, CA 94108,",Mon-Sun 10:00am-10:00pm        ,,,,,,,,,,,,,,,,,,
Salon DNA,415-956-1909,From website (up to date),Yes,,Union Square,"555 Sutter St, Ste #200, San Francisco, CA 94102","Tue-Sun 10:00am-7:00pm	",,,,,,,,,,,,,,,,,,
Spa J'Adore,415-987-0999,From website (up to date),Yes,,Union Square,"490 Post St, Ste #1701, San Francisco, CA 94102","
Mon-Sun 9:00am-8:00pm",,,,,,,,,,,,,,,,,,
Hidden Beauty,510-589-4175,From website (up to date),No,Google maps,South San Francisco,"101 B Hickey Blvd, South San Francisco, CA 94080","Tue 10:00am-5:30pm, Wed 10:00am-4:45pm, Thu 10:00am-5:30pm, Fri 9:00am-5:30pm, Sat 9:00am-4:00pm",,,,,,,,,,,,,,,,,,
People's Barbershop - Oakland,510-788-4302,From website (up to date),Yes,,Oakland,"2337 Broadway #101, Oakland, CA 94607","Mon-Sat 9:00am-8:00pm, Sun 9:00am-7:00pm",,,,,,,,,,,,,,,,,,
Keter Salon,510-849-0306,From website (up to date),Yes,,West Berkeley,"2030 Fourth St, Berkeley, CA 94710","Mon 8:00am-3:00pm, Tue-Fri 8:00am-9:00pm, Sat-Sun 9:00am-5:00pm",,,,,,,,,,,,,,,,,,
Eyebrow Shapers,650-771-1362,From website (up to date),Yes,,Mission,"2300 16th St, San Francisco, CA 94103","Mon 11:30am-7:00pm, Tue-Wed 10:00am-6:00pm, Thu-Fri 10:00am-7::00pm, Sat-Sun 10:00am-5:00pm               ",,,,,,,,,,,,,,,,,,
Kyle's Barbershop,707-363-2719,From website (up to date),Yes,,Fidi,"660 Market St, Ste #223, San Francisco, CA 94104","Mon-Tue 8:00am-6:30pm, Thu-Fri 8:00am-6:30pm",,,,,,,,,,,,,,,,,,
Salt Salon,714-465-9037,From website (up to date),Yes,,NoPa,"1881 Hayes St, San Francisco, CA 94117","Tue-Fri 10:00am-8:00pm, Sat 9:00am-8:00pm",,,,,,,,,,,,,,,,,,
QueenP Threading Salon,832-373-8462,From website (up to date),Yes,,Fidi,"660 Market St, Ste #215, San Francisco, CA 94104","Mon 12:00pm-7:00pm , Tue-Thu 11:00am-7:00pm , Fri 11:00am-6:00pm, Sat 12:00pm-5:00pm                             ",,,,,,,,,,,,,,,,,,
Patina Skin & Wax,916-847-7758,From website (up to date),Yes,,Inner Richmond,"4000 California St, San Francisco, CA 94118","Tue-Thu 11:00am-7:00pm , Fri 11:00am-6:00pm, Sat 10:00am-4:00pm	",,,,,,,,,,,,,,,,,,
SF Nail Spa,415-564-5581 ,From website (up to date)*,Yes,Google maps,Outer Sunset,"1324 Noriega St, San Francisco, CA 94122 ","Tue-Sat 10:00am-7:00pm, Sun 10:00am-6:00pm",,,,,,,,,,,,,,,,,,
Old Mission Barbershop,415-678-5434,From website (up to date)*,Yes,Owner texted me picture,Mission,"2485 Mission St, San Francisco, CA 94110","Tue-Fri 9:00am-7:00pm, Sat 9:00am-6:00pm",,,,,,,,,,,,,,,,,,
Green Spa & Nail,415-702-6704 ,Menu pic from April 2017,No,Owner to call back,Inner Sunset,"347 Judah St, San Francisco, CA 94122 ","Mon-Sat 10:00am-7:30pm, Sun 10:00am-7:00pm",,,,,,,,,,,,,,,,,,
Sugarcoat,415-441-1868 ,Menu pic from April 2018,No,Call back for owner,Lower Nob Hill,"619 Post St, San Francisco, CA 94109 ","Mon-Sat 10:00am-7:30pm, Sun 10:00am-7:00pm",,,,,,,,,,,,,,,,,,
Relax Nails,415-255-9188 ,Menu pic from April 2019,Yes,,The Haight,"1340 Haight St, San Francisco, CA 94117 ","Mon-Sat 10:00am-7:30pm, Sun 10:00am-7:00pm",,,,,,,,,,,,,,,,,,
Soubella Nails Spa,415-346-0100 ,Menu pic from Aug 2018,Yes,,Pacific Heights,"2824 California St, San Francisco, CA 94115 ",Tue-Sun 10:00am-7:00pm,,,,,,,,,,,,,,,,,,
Pearly Nails,415-567-2866 ,Menu pic from Aug 2018,Yes,,Pacific Heights,"2105 Van Ness Ave, San Francisco, CA 94109 ",Wed-Mon 10:00am-7:00pm,,,,,,,,,,,,,,,,,,
Doan's Nail,415-788-9778 ,Menu pic from Aug 2018,No,Call back for owner,Union Square,"500 Sutter St, Ste 812, San Francisco, CA 94102 ",Mon-Sat 10:00am-7:00pm,,,,,,,,,,,,,,,,,,
Sovan's Eyebrows Threading,410-585-5187,Menu pic from Aug 2019,Yes,Owner: Rashela ,Fidi,"520 Montgomery St, Ste M01, San Francisco, CA 94111","Mon-Fri 10:00am-7:00pm, Sat-Sun 12:00pm-5:00pm",,,,,,,,,,,,,,,,,,
Rainbow Nail Spa - Mission,415-241-0878 ,Menu pic from Aug 2019,Yes,,Mission,"1845 Market St, San Francisco, CA 94103 ",Mon-Sun 10:00am-7:00pm        ,,,,,,,,,,,,,,,,,,
Daisy Nails Salon,415-252-7276 ,Menu pic from Aug 2019,Yes,,Mission,"388 Guerrero St, San Francisco, CA 94103 ","Mon-Sat 10:00am-7:30pm, Sun 10:00am-6:00pm                ",,,,,,,,,,,,,,,,,,
Rose Threading Salon,510-634-5550,Menu pic from August 2018,No,lamsalroshani402@gmail.com - OWNER - Tester,Mission,"3054 24th St, San Francisco, CA 94110",Tues-Sat 11:00am-7:00pm,,,,,,,,,,,,,,,,,,
Four Seasons Nail & Spa,415-282-2531 ,Menu pic from Dec 2018,No,GO IN PERSON,Bernal Heights,"451B Cortland Ave, San Francisco, CA 94110 ","Mon-Sat 9:30am-7:30pm, Sun 9:30am-6:30pm",,,,,,,,,,,,,,,,,,
Fingertips Nail Salon,415-567-2092 ,Menu pic from Feb 2018,No,,Lower Pac Heights,"1309 Sutter St, San Francisco, CA 94109 ",Mon-Sat 9:30am-7:30pm,,,,,,,,,,,,,,,,,,
Gentle Nails Salon,415-702-6559 ,Menu pic from Feb 2019,No,,Inner Sunset,"1414 9th Ave, San Francisco, CA 94122 ",Mon-Sat 10:00am-7:30pm,,,,,,,,,,,,,,,,,,
Nate's Barbershop,415-573-6445,Menu pic from February  2019,Yes,,Oceanview,"203 Broad St, San Francisco, CA 94112","Mon-Wed 6:15am-6:00pm, Thu-Fri 6:15am-7:00pm, Sat 7:00am-2:00pm",,,,,,,,,,,,,,,,,,
Massage for Relax,415-399-1988,Menu pic from February 2017,No,CALL,Nob Hill,"917 Pacific Ave, San Francisco, CA 94133","Mon-Sun 8:00am-8:00pm	",,,,,,,,,,,,,,,,,,
Body-Soul Massage,415-606-0114,Menu pic from February 2019,No,,Inner Richmond,"17th Ave And Geary Blvd, San Francisco, CA 94121","Mon-Thu 8:00am-6:00pm, Wed 12:00pm-4:00pm, Fri 8:00am-4:00pm, Sat 10:00am-4:00pm                ",,,,,,,,,,,,,,,,,,
New Zen Spa,415-292-6988 ,Menu pic from July 2019,Yes,,Marina,"1933 Union St, San Francisco, CA 94123 ","Tue-Fri 10:00am-7:30pm, Sat-Sun 9:30am-7:00pm",,,,,,,,,,,,,,,,,,
Anjalee Thai Massage,415-351-1900,Menu pic from July 2019,Yes,,Nob Hill,"1617 Polk St, San Francisco, CA 94109","
Mon-Sun 10:00am-8:00pm",,,,,,,,,,,,,,,,,,
Just Cuts,415-441-3765,Menu pic from July 2019,Yes,,Marina,"1301 Chestnut St, San Francisco, CA 94123","
Mon-Sat 9:30am-6:30pm, Sun 10:00am-6:00pm",,,,,,,,,,,,,,,,,,
Threading by USHA,415-447-7748,Menu pic from July 2019,Yes,Owner Vikesh; Tester,Cow Hollow,"1757 Union St, Salon Macias, San Francisco, CA 94123","Tue-Fri 11:00am-7:00pm, Sat 10:00am-6:00pm, Sun 10:00am-5:00pm",,,,,,,,,,,,,,,,,,
Mandy's Massage,415-530-7069,Menu pic from July 2019,Yes,,Parkside,"830 Taraval St, Ste #100, San Francisco, CA 94116","Mon-Sat 10:30am-7:00pm, Sun 1:00pm-7:00pm",,,,,,,,,,,,,,,,,,
Mac Nail Spa,415-567-0162 ,Menu pic from July 2019,Yes,,NoPa,"783 Divisadero St, San Francisco, CA 94117 ","
Mon-Sun 10:30am-7:30pm	",,,,,,,,,,,,,,,,,,
Nail Arts,415-664-5728 ,Menu pic from July 2019,Yes,Owner Jennifer - ask to send photo also,Inner Sunset,"1116 Irving St, San Francisco, CA 94122 ",Wed-Mon 9:30am-7:30pm,,,,,,,,,,,,,,,,,,
Delightful Massage,415-673-1068,Menu pic from July 2019,Yes,,Nob Hill,"1538 Polk St, San Francisco, CA 94109",Mon-Sun 10:00am-10:00pm,,,,,,,,,,,,,,,,,,
Luxury Spa,415-702-6350,Menu pic from July 2019,No,,Inner Richmond,"405 Balboa St San Francisco, CA 94118","Mon-Sat 9:30am-7:00pm, Sun 10:00am-7:00pm",,,,,,,,,,,,,,,,,,
Harry's Hair Studio,415-775-7885,Menu pic from July 2019,Yes,,Nob Hill,"2059 Polk St, San Francisco, CA 94109",Mon-Sat 10:00am-6:30pm,,,,,,,,,,,,,,,,,,
Ahmet's Barber & Hair Styling,415-788-1919,Menu pic from July 2019,Yes,,Fidi,"201 Sacramento St, San Francisco, CA 94111","Mon-Fri 9:00am-6:30pm, Sat 9:30am-5:00pm	",,,,,,,,,,,,,,,,,,
Massage Your Body,415-794-4449,Menu pic from July 2019,Yes,Tester,Visitacion Valley,"22 Teddy Ave, San Francisco, CA 94134","Mon-Fri 4:00pm-9:00pm, Sat 5:00pm-9:00pm, Sun 12:00pm-7:00pm",,,,,,,,,,,,,,,,,,
Urban Beauty Spa,415-795-3439 ,Menu pic from July 2019,Yes,,Fidi,"130 Bush St, Fl 4, San Francisco, CA 94104 ","Mon-Fri 9:30am-7:00pm, Sat 10:00-3:00pm",,,,,,,,,,,,,,,,,,
Mani Pedi Spa,415-872-9686,Menu pic from July 2019,Yes,,Nob Hill,"1545 Polk St, San Francisco, CA 94109","Mon-Sat 10:00am-7:30pm, Sun 10:00am-7:00pm",,,,,,,,,,,,,,,,,,
Ibrows by Yoz,415-902-8316,Menu pic from July 2019,Yes,Tester,Crocker-Amazon,"5465 Mission St, San Francisco, CA 94112","Wed-Fri 2:00pm-8:00pm, Sat 10:00am-5:00pm",,,,,,,,,,,,,,,,,,
City Beauty Salon,415-928-9725,Menu pic from July 2019,Yes,,Nob Hill,"1610 Polk St, San Francisco, CA 94109",Mon-Sun 9:30am-7:30pm,,,,,,,,,,,,,,,,,,
Precision Hair Design,415-931-1077,Menu pic from July 2019,Yes,,Nob Hill,"1622 Polk St, San Francisco, CA 94122","
Mon-Sat 10:00am-7:00pm, Sun 10:00am-6:00pm",,,,,,,,,,,,,,,,,,
Merry Manicures,415-931-9079,Menu pic from July 2019,Yes,,Nob Hill,"2030 Polk St, San Francisco, CA 94109","
Mon-Fri 10:00am-8:00pm, Sat 9:00am-8:00pm, Sun 10:00am-8:00pm",,,,,,,,,,,,,,,,,,
Eyebrow Queen Salon,415-969-0004,Menu pic from July 2019,Yes,,Mission,"3196 24th St, San Fraqncisco, CA 94110","Mon-Fri 10:00am-7:00pm, Sat 10:00am-6:00pm, Sun 11:00am-6:00pm",,,,,,,,,,,,,,,,,,
Lucky Nails,415-981-5321,Menu pic from July 2019,Yes,,Fidi,"#A, 55 Sutter St, San Francisco, CA 94104","Mon-Fri 9:00am-7:00pm, Sat 9:00am-5:00pm",,,,,,,,,,,,,,,,,,
Top Coat,650-303-5355,Menu pic from July 2019,Yes,,Marina,"1520 Union St, San Francisco, CA 94123","Mon-Fri 11:00am-8:00pm, Sat 10:00am-7:30pm, Sun 10:00am-7:00pm        ",,,,,,,,,,,,,,,,,,
Queen Bee Nail Salon,415-252-8092 ,Menu pic from July 2019*,Yes,,Duboce Triangle,"2380 Market St, San Francisco, CA 94114",Mon-Sun 10:00am-7:00pm,,,,,,,,,,,,,,,,,,
B Brow Lounge,415-374-7031,Menu pic from July 2019*,Yes,,Marina,"1945 Union St, San Francisco, CA 94123","Tue-Sat 11:00am-7:00pm, Sun 11:00am-6:00pm",,,,,,,,,,,,,,,,,,
7 Nail Spa,415-587-7969 ,Menu pic from July 2019*,Yes,,Excelsior,"4907 Mission St, Ste A, San Francisco, CA 94112",Mon-Sun 9:30am-7:30pm,,,,,,,,,,,,,,,,,,
Gelous Nails,415-643-5592 ,Menu pic from July 2019*,No,,Noe Valley,"3915 24th St, Ste A, San Francisco, CA 94114 ","Mon-Sat 9:30am-7:30pm, Sun 10:00am-7:00pm",,,,,,,,,,,,,,,,,,
Lotus Nail Salon,415-716-1600 ,Menu pic from July 2019*,Yes,,Fidi,"11 Maiden Ln, San Francisco, CA 94108 ","Mon-Sat 10:00am-7:30pm, Sun 10:30am-7:00pm        ",,,,,,,,,,,,,,,,,,
Vierra & Friends,415-665-9335,Menu pic from June  2018,Yes,,Cole Valley,"85 Carl St, San Francisco, CA 94117",Mon-Sun 8:00am-9:00pm,,,,,,,,,,,,,,,,,,
Sunset Nails,415-566-9888 ,Menu pic from June 2018,No,,Outer Sunset,"1810 Irving St, San Francisco, CA 94122 ","Mon-Sat 10:00am-7:00pm, Sun 10:00am-6:00pm",,,,,,,,,,,,,,,,,,
Diane Nails Care,415-621-1220 ,Menu pic from June 2018,No,,Lower Haight,"681 Haight St, San Francisco, CA 94117 ","Mon-Fri 10:30am-8:00pm, Sat 10:00am-7:30pm, Sun 10:00am-7:00pm",,,,,,,,,,,,,,,,,,
It's M3 Time Nail Salon,415-824-1887 ,Menu pic from June 2018,Yes,,Mission,"3278 21st St, Ste A, San Francisco, CA 94110 ","Mon-Fri 10:00am-7:30pm, Sat 10:00am-7:00pm, Sun 11:00am-6:30pm",,,,,,,,,,,,,,,,,,
Kayo Hair Salon,415-831-2222,Menu pic from June 2018,No,,Outer Richmond,"2211 Clement St, San Francisco, CA 94121",Thu-Tue 10:00am-7:00pm,,,,,,,,,,,,,,,,,,
Sensi Luxury Nails & Spa,415-665-6245 ,Menu pic from March 2014,No,,Inner Sunset,"338 Judah St, San Francisco, CA 94122 ","Tue-Thu 11:00am-7:30pm, Fri-Sun 10:30am-7:00pm",,,,,,,,,,,,,,,,,,
Deluxe Foot Massage,415-715-0200,Menu pic from March 2019,No,,Excelsior,"11 Silliman St, San Francisco, CA 94134",Mon-Sun 10:30am-9:30pm,,,,,,,,,,,,,,,,,,
Fine Line Barbershop,415-587-3744,Menu pic from May  2015,No,,Outer Mission,"1796A San Jose Ave, San Francisco CA 94112","Tue-Thu 10:00am-7:00pm, Fri-Sat 9:00am-4:00pm",,,,,,,,,,,,,,,,,,
Hair Shaper,415-979-9772,Menu pic from May  2017,Yes,,Soma,"101 Spear St, Ste A2, San Francisco, CA 94105","Mon-Fri 9:00am-7:00pm, Sat 10:00am-6:00pm",,,,,,,,,,,,,,,,,,
Shear Image Salon,415-752-0397,Menu pic from May 2017,No,,Laurel Heights,"3520 Geary Blvd, San Francisco, CA 94118",Mon-Sat 10:30am-7:00pm,,,,,,,,,,,,,,,,,,
Nels Beauty Salon,415-987-6357 ,Menu pic from May 2018,Yes,,NoPa,"921 Divisadero St, San Francisco, CA 94115 ",Mon-Sun 10:30am-7:30pm,,,,,,,,,,,,,,,,,,
Elegant Nails Salon,415-441-7177 ,Menu pic from May 2019,No,,Cow Hollow,"1688 Lombard St, Ste A, San Francisco, CA 94123 ",Mon-Sun 9:30am-7:30pm,,,,,,,,,,,,,,,,,,
Amazing Look,415-469-8269,Menu pic from May 2019,Yes,,Outer Mission,"719 Monterey Blvd, San Francisco, CA 94127","Mon-Sat 9:00am-7:00pm, Sun 10:00am-6:00pm	",,,,,,,,,,,,,,,,,,
Spectrum Nails Spa,415-483-5028 ,Menu pic from May 2019,Yes,,Inner Richmond,"4438 California St, San Francisco, CA 94118 ","Mon-Sat 10:00am-7:00pm, Sun 10:00am-6:30pm",,,,,,,,,,,,,,,,,,
Nailtastic Salon,415-494-5691 ,Menu pic from May 2019,Yes,,Excelsior,"4739 Mission St, San Francisco, CA 94112 ",Mon-Sat 10:00am-7:00pm,,,,,,,,,,,,,,,,,,
Perfect Cut Hair Salon,415-664-4855,Menu pic from Nov 2015,No,,Outer Sunset,"3808 Noriega St , San Francisco, CA 94122",Tue-Sun 10:00am-7:00pm,,,,,,,,,,,,,,,,,,
Mani-Pedi Beauty Spa,415-285-1339 ,Menu pic from Nov 2017,No,,Noe Valley,"4106 24th St, San Francisco, CA 94114 ","Mon-Sat 10:00am-7:30pm, Sun 10:00am-7:00pm",,,,,,,,,,,,,,,,,,
Poppy & Finch,415-786-9470,Menu pic from Nov 2018,Yes,,Noe Valley,"1515 Church St, San Francisco, CA 94131",Tue-Sun 10:00am-7:00pm,,,,,,,,,,,,,,,,,,
Healthy Massage,415-239-2188,Menu pic from November 2017,Yes,no good english,Crocker-Amazon,"1150 Geneva Ave, San Francisco, CA 94112","Mon 11:00am-9:30pm, Wed-Fri 11:00am-9:30pm, Sat-Sun 10:00am-9:30pm",,,,,,,,,,,,,,,,,,
Richmond Nail Salon,415-876-3888 ,Menu pic from Oct 2016,No,,Outer Richmond,"5856 Geary Blvd, San Francisco, CA 94121 ","
Mon-Sun 10:00am-7:00pm",,,,,,,,,,,,,,,,,,
Forever Nails by Kim,415-682-5528 ,Menu pic from Oct 2017,No,,Parkside,"601 Taraval St, San Francisco, CA 94116 ",Thu-Tue 9am-7pm,,,,,,,,,,,,,,,,,,
Oliviana Nail Spa,415-529-1023 ,Menu pic from Oct 2018,Yes,GO IN PERSON,Bayview-Hunters Point,"4343 3rd St, San Francisco, CA 94124 ",Mon-Sun 9:00am-9:00pm,,,,,,,,,,,,,,,,,,
Boniva Nail Spa,415-829-2188 ,Menu pic from Oct 2018,Yes,,Marina,"1929 Lombard St, San Francisco, CA 94123 ","Tue-Sat 10:00am-7:00pm, Sun 10:00am-6:00pm	",,,,,,,,,,,,,,,,,,
Rosy Heels,415-861-4889 ,Menu pic from Oct 2018,Yes,,Soma,"180 7th St, Ste 101, San Francisco, CA 94103",Mon-Sat 9:30am-7:00pm,,,,,,,,,,,,,,,,,,
Nali Nails & Spa,415-872-9000 ,Menu pic from Oct 2018,No,,Japantown,"1971 Sutter St, San Francisco, CA 94115 ","Mon-Sat 9:30am-7:30pm, Sun 10:00am-7:00pm",,,,,,,,,,,,,,,,,,
The Nail Room,415-422-0688 ,Menu pic from October   2015,No,,Inner Richmond,"4205 Geary Blvd, San Francisco, CA 94118","Mon-Fri 10:30am-7:00pm, Sat-Sun 10:00am-7:00pm",,,,,,,,,,,,,,,,,,
The Shop Barbershop,415-655-9126,Menu pic from October   2015,Yes,,Mission,"2639 24th St, San Francisco, CA 94110","Tue-Fri 9:00am-7:00pm, Sat 9:00am-5:30pm",,,,,,,,,,,,,,,,,,
Royal Thai Spa,415-500-4321,Menu pic from October 2013,Yes,,Fisherman's Wharf,"685 N Point St, San Francisco, CA 94133","Mon-Thu 10:00am-9:00pm, Fri 10:00am-10:00pm",,,,,,,,,,,,,,,,,,
Perfect Foot Massage,415-587-2288,Menu pic from October 2017,No,,Parkside,"1936 Ocean Ave, San Francisco, CA 94127",Mon-Sun 11:00am-10:00pm,,,,,,,,,,,,,,,,,,
Wendy's Body Care,415-751-2000,Menu pic from October 2017,No,,Outer Richmond,"3412 Balboa St, San Francisco, CA 94121",Mon-Sun 10:00am-9:00pm,,,,,,,,,,,,,,,,,,
Pampered Hands Salon,415-777-4263 ,Menu pic from Sep 2014,Yes,,Soma,"180 Howard St, Ste G-3, San Francisco, CA 94105 ","Mon-Fri 9:00am-7:00pm, Sat 10:00am-5:00pm",,,,,,,,,,,,,,,,,,
Creative Nail Care,415- 861-8100 ,N/A,Yes,Owner supposed to call (never did),Hayes Valley,"191 Franklin St, San Francisco, CA 94102 ","Mon-Sat 10:00am-7:00pm	",,,,,,,,,,,,,,,,,,
Sujie Brows Salon,415-234-8257,N/A,No,,Mission,"2088 Mission St, San Francisco, CA 94110","Mon-Fri 11:00am-7:00pm, Sat 11:00am-6:00pm                ",,,,,,,,,,,,,,,,,,
Silky Touch Nail Salon,415-255-8527 ,N/A,No,,Lower Haight,"544 Haight St, San Francisco, CA 94117 ",Mon-Sun 10:00am-8:00pm,,,,,,,,,,,,,,,,,,
San Francisco Beauty Lounge,415-312-9901 ,N/A,No,GO IN PERSON,Union Square,"870 Market St, Ste 816, San Francisco, CA 94102","Tue-Fri 10:00am-8:00pm, Wed 3:00pm-7:00pm , Sat 10:00am-7:00pm",,,,,,,,,,,,,,,,,,
Hong Kong Mona Hair Studio,415-335-8576,N/A,No,Supposed to follow up (never did),Inner Richmond,"307 4th Ave, San Francisco, CA 94118",Mon-Sun 10:00am-7:00pm,,,,,,,,,,,,,,,,,,
Artistic Nails & Spa,415-345-1235 ,N/A,Yes,Owner supposed to call (never did),Lower Pac Heights,"1826 Divisadero St, San Francisco, CA 94115","Mon-Fri 9:30am-7:30pm, Sat 9:30am-7::00pm, Sun	10:00am-7:00pm",,,,,,,,,,,,,,,,,,
Neva's Beauty,415-346-2238 ,N/A,Yes,On google maps,Lower Nob Hill,"2467 Lombard St, San Francisco, CA 94123 ","Mon-Sat 10:00am-7:00pm, Sun 10:00am-6:00pm	",,,,,,,,,,,,,,,,,,
Tina's Nails,415-346-5725 ,N/A,No,,Lower Nob Hill,"931 Bush St, San Francisco, CA 94109"," Mon-Sat 10:00am-7:30pm, Sun 10:00am-6:00pm               ",,,,,,,,,,,,,,,,,,
The Final Touch 2,415-351-2088,N/A,Yes,Said she will text me pics but didn,Lower Pac Heights,"514 Presidio Ave, San Francisco, CA 94115 ",Mon-Sat 9:00am-7:00pm        ,,,,,,,,,,,,,,,,,,
Glamour Beauty Salon,415-362-2007 ,N/A,No,Call for owner Dang - text 4159881169 and she will show daughter,Fidi,"205 Jackson St, San Francisco, CA 94111","Mon-Sat 10:00am-7:00pm	",,,,,,,,,,,,,,,,,,
Nail Care For You,415-362-3347 ,N/A,No,Call back for owner,North Beach,"1507 Grant Ave, San Francisco, CA 94133 ","Mon-Fri 10:00am-7:00pm , Sat 9:30am-7:00pm, Sun 10:00am-7:00pm       ",,,,,,,,,,,,,,,,,,
Nora Spa & Salon,415-369-9028 ,N/A,No,Call back for owner,Soma,"351 3rd St, San Francisco, CA 94107","Mon-Fri 10:00am-7:30pm, Sat 9:30am-7:00pm, Sun 10:00am-7:00pm        ",,,,,,,,,,,,,,,,,,
Good Looks Salon,415-391-4045 ,N/A,No,Kaley to text it to me,Fidi,"520 Montgomery St, Ste 104, San Francisco, CA 94111 ","Mon-Fri 9:30am-7:30pm, Sat 11:00am-3:00pm",,,,,,,,,,,,,,,,,,
Divisadero Nails,415-440-9999 ,N/A,No,Call back for owner,Lower Pac Heights,"1858 Divisadero St, San Francisco, CA 94115 ",Mon-Sun 9:30am-7:30pm,,,,,,,,,,,,,,,,,,
Alexander G,415-445-9373,N/A,Yes,Going to email me pricing menu and pic,Fidi,"333 Bush St, Ste #104, San Francisco, CA 94104","
Mon 9:00am-6:00pm, Tue-Wed 9:00am-7:00pm, Thu-Fri 9:00am-8:00pm, Sat 7:30am-6:00pm        ",,,,,,,,,,,,,,,,,,
New French Nails,415-495-0111 ,N/A,No,Call back for owner,Fidi,"425 Battery St, Ste D, San Francisco, CA 94111 ","Mon-Sat 9:30am-7::00pm , Sun 10:00am-6:00pm",,,,,,,,,,,,,,,,,,
Sunset Barber Service,415-564-4744,N/A,Yes,,Inner Sunset,"1374 9th Ave, San Francisco, CA 94122","Tue-Fri  8:00am-6:00pm, Sat 7:00am-4:00pm        ",,,,,,,,,,,,,,,,,,
Linda Ocean Nails,415-584-8666 ,N/A,No,Call owner back,Mount Davidson Manor,"1910 Ocean Ave, San Francisco, CA 94127 ","Mon-Sat 10:00am-8:00pm	",,,,,,,,,,,,,,,,,,
Ingleside Barber Shop,415-584-8997,N/A,No,Hung up thought I was solicitor,Ingleside Terraces,"393 Ashton Ave, San Francisco, CA 94112","Tue-Fri 9:00am-8:00pm, Sat 8:00am-5:00pm, Sun 8:00am-12:00pm        ",,,,,,,,,,,,,,,,,,
Tint Nail Spa,415-638-6370 ,N/A,Yes,,Nob Hill,"1262 Mason St, San Francisco, CA 94108 ",Mon-Sun 10:00am-7:00pm        ,,,,,,,,,,,,,,,,,,
Debonair Barber & Shave Parlor,415-655-3461,N/A,Yes,,The Haight,"1342 Haight St, San Francisco, CA 94117","Mon-Sat 11:00am-7:00pm, Sun 11:00am-5:00pm",,,,,,,,,,,,,,,,,,
Hue Hair Salon,415-655-9372,N/A,No,,Japantown,"1712 Fillmore St, San Francisco, CA 94115","Tue-sun 10:00am-7:00pm, Sat 9:00am-6:00pm",,,,,,,,,,,,,,,,,,
Zen Beauty Spa,415-661-6852 ,N/A,Yes,GO IN PERSON,West Portal,"221 W Portal Ave, San Francisco, CA 94127","Mon-Sun 9:00am-7:00pm	",,,,,,,,,,,,,,,,,,
Fabulous Nails Spa,415-668-3699 ,N/A,No,Owner supposed to call (never did),Outer Richmond,"2099 Clement St, San Francisco, CA 94121 ","Mon-Sat 10:00am-7:00pm, Sun 10:00am-6:30pm	",,,,,,,,,,,,,,,,,,
Sutro Gold,415-668-4050,N/A,No,,Inner Richmond,"4050 Geary Blvd, San Francisco, CA 94118","Mon-Sat 12:00pm-8:00pm , Tue-Fri 3:00pm-8:00pm               ",,,,,,,,,,,,,,,,,,
Nail Pretty,415-673-9818 ,N/A,No,Call back for owner,Presidio Heights,"3315 Sacramento St, San Francisco, CA 94118","Mon-Fri 9:30am-7:30pm , Sat-Sun 9:00am-7:00pm	",,,,,,,,,,,,,,,,,,
SHE-SHE Nail Salon,415-681-3559 ,N/A,No,GO IN PERSON,West Portal,"167 W Portal Ave, San Francisco, CA 94127 ","Mon-Sun 9:00am-7:30pm	",,,,,,,,,,,,,,,,,,
Shear Irish,415-682-8803,N/A,No,Owner supposed to call,Parkside,"2393 16th Ave, San Francisco, CA 94116","Tue-Fri 10:00am-7:00pm, Sat 10:00am-5:00pm        ",,,,,,,,,,,,,,,,,,
Modern Nail Bar,415-695-7472 ,N/A,No,Call back for owner,Dogpatch,"803 22nd St, San Francisco, CA 94107 ","Mon-Fri 10:00am-8:00pm , Sat 9:00am-8:00pm       ",,,,,,,,,,,,,,,,,,
The Avenues Spa,415-702-6735 ,N/A,Yes,,Inner Richmond,"3929 California St, San Francisco, CA 94118 ","Mon-Fri 10:00am-7:00pm , Sat-Sun 10:00am-6:00pm        ",,,,,,,,,,,,,,,,,,
T & T Nails,415-750-0287 ,N/A,No,,Inner Richmond,"405 Arguello Blvd, San Francisco, CA 94118 ",Mon-Sat 10:00am-7:00pm        ,,,,,,,,,,,,,,,,,,
A Businessman's Haircut,415-788-4936,N/A,Yes,Thinks I'm a solicitor,Fidi,"44 Montgomery, Ste #30, San Francisco, CA 94104",Mon-Tue-Thu-Fri 8:30am-7:30pm,,,,,,,,,,,,,,,,,,
New Beauty Hair Salon,415-885-4355,N/A,Yes,,Nob Hill,"1709 Polk St, San Francisco, CA 94109","Mon-Sat 10:00am-6:30pm	",,,,,,,,,,,,,,,,,,
Care Me Threading Salon,415-900-9120,N/A,No,CALL,Nob Hill,"1031 Hyde St, San Francisco, CA 94109","Tue-Thu-Sat-Sun 10:30am-7:00pm, Fri 2:00pm-7:00pm",,,,,,,,,,,,,,,,,,
Noe Valley Nails,415-920-8923 ,N/A,No,,Noe Valley,"1484 Church St, San Francisco, CA 94131 ","Mon-Fri 9:00am-7:30pm, Sat 9::00am-7:00pm, Sun 10:00am-7:00pm        ",,,,,,,,,,,,,,,,,,
Sally's Salon,415-929-6980,N/A,Yes,Call back for owner,Lower Pac Heights,"1680 Post St, San Francisco, CA 94115",Tue-Sat 10:00am-6:00pm,,,,,,,,,,,,,,,,,,
Union Nails,415-931-0414 ,N/A,No,Husband can send pic by text she doesn't know how- gave her my number,Nob Hill,"1601 Pacific Ave, San Francisco, CA 94109","Mon-Sun 9:00am-8:00pm	",,,,,,,,,,,,,,,,,,
Juicy Beauty Lounge,415-931-8881 ,N/A,No,,Lower Nob Hill,"1080 Sutter St, Ste 1, San Francisco, CA 94109 ","Mon-Fri 10:00am-7:30pm, Sat 9:30am-5:00pm",,,,,,,,,,,,,,,,,,
Trio Nails,415-931-9261 ,N/A,Yes,,Lower Pac Heights,"1832 Buchanan St, Ste B, San Francisco, CA 94115 ","Mon-Sat 10:00am-7:00pm, Sun 10:00am-6:00pm        ",,,,,,,,,,,,,,,,,,
New Age Nails North Beach,415-956-8807 ,N/A,Yes,lady didn't seem to care or want to tell owner - perhaps email owner,North Beach,"1543 Grant Ave, San Francisco, CA 94133 ","Mon-Sat 10:00am-7:30pm, Sun 10:00am-6:30pm	",,,,,,,,,,,,,,,,,,
Kaori Hair Salon,415-990-1375,N/A,No,Not interested - go in person,Japantown,"1680 Post St, Ste #C, San Francisco, CA 94115","Mon-Fri 11:00am-8:00pm, Sat-Sun10:00am-7:00pm",,,,,,,,,,,,,,,,,,
Rejuve Wellness Center & Spa,415-993-2232,N/A,Yes,,Inner Sunset,"421 Post St, Fl 14, San Francisco, CA 94102",Tue-Sat 10:00am-6:00pm,,,,,,,,,,,,,,,,,,
Rani Threads Magic,510-648-1163,N/A,No,,Mission,"2435 Mission St, San Francisco, CA 94110","Mon-Sat 11:00am-6:30pm , Sun 11:00am-5:00pm	      ",,,,,,,,,,,,,,,,,,
Sasa Eyebrows Threading,510-944-2489,N/A,Yes,Supposed to text pics (never did),Mission,"2359 Mission St, San Francisco, CA 94110","Mon-Fri 11:00am-7:00pm  , Sat 11:00am-6:30pm        ",,,,,,,,,,,,,,,,,,
Taylor Williams Massage,831-234-6517,N/A,No,CALL,Visitacion Valley,"19 Tucker Ave, San Francisco, CA 94134",Mon-Fri 7:00am-2:00pm,,,,,,,,,,,,,,,,,,
Razo's Barber Shop,415-494-5932,N/A ,Yes,Tester,Excelsior,"4477 Mission St, San Francisco, CA 94112","Mon 9:00am-8:00pm, Tue-Sat 9:00am-8:30pm , Sun 9:00am-7:00pm              ",,,,,,,,,,,,,,,,,,
17 Jewels Salon,,,,,,,,,,,,,,,,,,,,,,,,,
505 8th Ave Beauty Salon,,,,,,,,,,,,,,,,,,,,,,,,,
AB Beauty Salon,,,,,,,,,,,,,,,,,,,,,,,,,
Accent On Beauty,,,,,,,,,,,,,,,,,,,,,,,,,
Access Beauty Salon,,,,,,,,,,,,,,,,,,,,,,,,,
Acute Collective,,,,,,,,,,,,,,,,,,,,,,,,,
Addison Salon,,,,,,,,,,,,,,,,,,,,,,,,,
Addy's Hair Salon,,,,,,,,,,,,,,,,,,,,,,,,,
Adel Mashraqi,,,,,,,,,,,,,,,,,,,,,,,,,
Adrian Elwell,,,,,,,,,,,,,,,,,,,,,,,,,
Adrian Enriquez,,,,,,,,,,,,,,,,,,,,,,,,,
ADY Barber and Beauty Shop,,,,,,,,,,,,,,,,,,,,,,,,,
African Beauty Supply and Salon,,,,,,,,,,,,,,,,,,,,,,,,,
Aida Salon,,,,,,,,,,,,,,,,,,,,,,,,,
Akimi Hair Gallery,,,,,,,,,,,,,,,,,,,,,,,,,
Albanese Hair Salon,,,,,,,,,,,,,,,,,,,,,,,,,
Alcheme Salon,,,,,,,,,,,,,,,,,,,,,,,,,
Alex Chases Salon,,,,,,,,,,,,,,,,,,,,,,,,,
Alex Talon - Hair Studio,,,,,,,,,,,,,,,,,,,,,,,,,
Ali Moss - J. Roland Salon,,,,,,,,,,,,,,,,,,,,,,,,,
Allen Fu Hair Studio,,,,,,,,,,,,,,,,,,,,,,,,,
Amber Marie,,,,,,,,,,,,,,,,,,,,,,,,,
American Beauty Salon,,,,,,,,,,,,,,,,,,,,,,,,,
Amiri Salon,,,,,,,,,,,,,,,,,,,,,,,,,
Amore's Hair Salon,,,,,,,,,,,,,,,,,,,,,,,,,
Ana's Dreams Hair Salon,,,,,,,,,,,,,,,,,,,,,,,,,
Androgyny Cuts,,,,,,,,,,,,,,,,,,,,,,,,,
Andromeda Quan,,,,,,,,,,,,,,,,,,,,,,,,,
Andy's Nail Spa,,,,,,,,,,,,,,,,,,,,,,,,,
Angelica's Hair Salon,,,,,,,,,,,,,,,,,,,,,,,,,
Angie & Martha's Hair Salon,,,,,,,,,,,,,,,,,,,,,,,,,
Angie Martinez Stylist,,,,,,,,,,,,,,,,,,,,,,,,,
Ann's For Hair,,,,,,,,,,,,,,,,,,,,,,,,,
Antonio Cabral,,,,,,,,,,,,,,,,,,,,,,,,,
AP Luxe Salon,,,,,,,,,,,,,,,,,,,,,,,,,
Archer Salon,,,,,,,,,,,,,,,,,,,,,,,,,
Art Hair Salon,,,,,,,,,,,,,,,,,,,,,,,,,
Artist Hair Salon,,,,,,,,,,,,,,,,,,,,,,,,,
Artistry Hair and Beauty Works,,,,,,,,,,,,,,,,,,,,,,,,,
Arty,,,,,,,,,,,,,,,,,,,,,,,,,
Arzo Hair Culture,,,,,,,,,,,,,,,,,,,,,,,,,
Ashira Salon,,,,,,,,,,,,,,,,,,,,,,,,,
Ashley Zimmerman Hair Stylist,,,,,,,,,,,,,,,,,,,,,,,,,
Au Top Coiffure,,,,,,,,,,,,,,,,,,,,,,,,,
Avani Salon & Spa,,,,,,,,,,,,,,,,,,,,,,,,,
Backstage Salon,,,,,,,,,,,,,,,,,,,,,,,,,
Bambiana for Long Hair,,,,,,,,,,,,,,,,,,,,,,,,,
Bamboo,,,,,,,,,,,,,,,,,,,,,,,,,
Barberella Hair Lounge,,,,,,,,,,,,,,,,,,,,,,,,,
Barnets Salon,,,,,,,,,,,,,,,,,,,,,,,,,
Barrow Salon,,,,,,,,,,,,,,,,,,,,,,,,,
Battleborn Hair Designs,,,,,,,,,,,,,,,,,,,,,,,,,
Be Salon,,,,,,,,,,,,,,,,,,,,,,,,,
Beach Beauty Salon,,,,,,,,,,,,,,,,,,,,,,,,,
Beauty by MH,,,,,,,,,,,,,,,,,,,,,,,,,
Beauty Fix Studio,,,,,,,,,,,,,,,,,,,,,,,,,
Beauty Lounge,,,,,,,,,,,,,,,,,,,,,,,,,
Beauty Salon,,,,,,,,,,,,,,,,,,,,,,,,,
Beauty Style Exchange,,,,,,,,,,,,,,,,,,,,,,,,,
Bella Tu,,,,,,,,,,,,,,,,,,,,,,,,,
Belli Capelli Aromatherapy Salon & Day Spa,,,,,,,,,,,,,,,,,,,,,,,,,
BeRadiant Salon Suites,,,,,,,,,,,,,,,,,,,,,,,,,
Berenice Hair Salon,,,,,,,,,,,,,,,,,,,,,,,,,
Berlinsf,,,,,,,,,,,,,,,,,,,,,,,,,
Bibbo Salon,,,,,,,,,,,,,,,,,,,,,,,,,
BIBO Salon,,,,,,,,,,,,,,,,,,,,,,,,,
Bijoux Salon,,,,,,,,,,,,,,,,,,,,,,,,,
Bink Salon,,,,,,,,,,,,,,,,,,,,,,,,,
Birds Of A Feather Salon,,,,,,,,,,,,,,,,,,,,,,,,,
Blackbird Salon,,,,,,,,,,,,,,,,,,,,,,,,,
Blade & Bone,,,,,,,,,,,,,,,,,,,,,,,,,
Bliss Hair Salon,,,,,,,,,,,,,,,,,,,,,,,,,
Bliss Hair Salon,,,,,,,,,,,,,,,,,,,,,,,,,
Blissful Hair Salon,,,,,,,,,,,,,,,,,,,,,,,,,
Blond Bungalow,,,,,,,,,,,,,,,,,,,,,,,,,
Bloom Blow Dry Bar,,,,,,,,,,,,,,,,,,,,,,,,,
Blossom Beauty Salon & Spa,,,,,,,,,,,,,,,,,,,,,,,,,
Blossom Salon Spa,,,,,,,,,,,,,,,,,,,,,,,,,
Blowology Blowdry Bar,,,,,,,,,,,,,,,,,,,,,,,,,
"Body, Soul and Spirit Salon",,,,,,,,,,,,,,,,,,,,,,,,,
Bonjo's,,,,,,,,,,,,,,,,,,,,,,,,,
Bradley Crane Hair,,,,,,,,,,,,,,,,,,,,,,,,,
Brand Benjamin Salon,,,,,,,,,,,,,,,,,,,,,,,,,
Bruce Ross & Company Salon,,,,,,,,,,,,,,,,,,,,,,,,,
Bruno Hair Design,,,,,,,,,,,,,,,,,,,,,,,,,
Bubble Pop Electric Salon,,,,,,,,,,,,,,,,,,,,,,,,,
Cameron James Salon,,,,,,,,,,,,,,,,,,,,,,,,,
Carisma Beauty Salon,,,,,,,,,,,,,,,,,,,,,,,,,
Carla Malia,,,,,,,,,,,,,,,,,,,,,,,,,
Carolina's Hair Heaven,,,,,,,,,,,,,,,,,,,,,,,,,
Cass Leung,,,,,,,,,,,,,,,,,,,,,,,,,
Cheryl Chakler Salon,,,,,,,,,,,,,,,,,,,,,,,,,
Chic Salon,,,,,,,,,,,,,,,,,,,,,,,,,
Chit Ma Ma Salon,,,,,,,,,,,,,,,,,,,,,,,,,
Chop Shop,,,,,,,,,,,,,,,,,,,,,,,,,
ChopSooEee,,,,,,,,,,,,,,,,,,,,,,,,,
Christopher Salon,,,,,,,,,,,,,,,,,,,,,,,,,
Cindy Hair Salon,,,,,,,,,,,,,,,,,,,,,,,,,
Cindy Lin,,,,,,,,,,,,,,,,,,,,,,,,,
Cindy's Hair Studio,,,,,,,,,,,,,,,,,,,,,,,,,
Cinta Aveda Institute,,,,,,,,,,,,,,,,,,,,,,,,,
Cinta Salon,,,,,,,,,,,,,,,,,,,,,,,,,
Citrine Salon,,,,,,,,,,,,,,,,,,,,,,,,,
City Hair Cuts,,,,,,,,,,,,,,,,,,,,,,,,,
Classy Creations,,,,,,,,,,,,,,,,,,,,,,,,,
Clean Looks,,,,,,,,,,,,,,,,,,,,,,,,,
Clifford Style,,,,,,,,,,,,,,,,,,,,,,,,,
Cloak & Dagger Salon,,,,,,,,,,,,,,,,,,,,,,,,,
COH The Culture of Hair,,,,,,,,,,,,,,,,,,,,,,,,,
Color by Mia,,,,,,,,,,,,,,,,,,,,,,,,,
Contempo Hair Design,,,,,,,,,,,,,,,,,,,,,,,,,
Cooper Alley & Barber Lane,,,,,,,,,,,,,,,,,,,,,,,,,
Crime Lab,,,,,,,,,,,,,,,,,,,,,,,,,
Cristina Langham,,,,,,,,,,,,,,,,,,,,,,,,,
Crown Salon,,,,,,,,,,,,,,,,,,,,,,,,,
Crystal Nail,,,,,,,,,,,,,,,,,,,,,,,,,
Cut'N Curl,,,,,,,,,,,,,,,,,,,,,,,,,
Cynthia Black Hair Design,,,,,,,,,,,,,,,,,,,,,,,,,
D Salon,,,,,,,,,,,,,,,,,,,,,,,,,
Dara Roberts Hair Design,,,,,,,,,,,,,,,,,,,,,,,,,
David James,,,,,,,,,,,,,,,,,,,,,,,,,
Dax and Lindsay's Therman Reconditioning,,,,,,,,,,,,,,,,,,,,,,,,,
Days Chan,,,,,,,,,,,,,,,,,,,,,,,,,
de'Arti salon,,,,,,,,,,,,,,,,,,,,,,,,,
Dekko,,,,,,,,,,,,,,,,,,,,,,,,,
Designer Hair Salon,,,,,,,,,,,,,,,,,,,,,,,,,
Dessy Hair,,,,,,,,,,,,,,,,,,,,,,,,,
Dicicco,,,,,,,,,,,,,,,,,,,,,,,,,
Dior's Salon,,,,,,,,,,,,,,,,,,,,,,,,,
diPietro Todd Salon,,,,,,,,,,,,,,,,,,,,,,,,,
Diva International,,,,,,,,,,,,,,,,,,,,,,,,,
Divine's Hair Collective,,,,,,,,,,,,,,,,,,,,,,,,,
Dolci Salon,,,,,,,,,,,,,,,,,,,,,,,,,
Dolled & Dapper Salon,,,,,,,,,,,,,,,,,,,,,,,,,
Dorian at John Allans Premiere Club,,,,,,,,,,,,,,,,,,,,,,,,,
Dreamers And Make Believers Salon,,,,,,,,,,,,,,,,,,,,,,,,,
DUO for Hair,,,,,,,,,,,,,,,,,,,,,,,,,
E Shine Beauty Salon,,,,,,,,,,,,,,,,,,,,,,,,,
Echos Hair Design,,,,,,,,,,,,,,,,,,,,,,,,,
Eclipse Salon,,,,,,,,,,,,,,,,,,,,,,,,,
Eduardo Lazo,,,,,,,,,,,,,,,,,,,,,,,,,
Eight Thirty Seven,,,,,,,,,,,,,,,,,,,,,,,,,
Elaine Beauty Salon ,,,,,,,,,,,,,,,,,,,,,,,,,
Elan Hair Salon,,,,,,,,,,,,,,,,,,,,,,,,,
Elements Salon,,,,,,,,,,,,,,,,,,,,,,,,,
Elenie For Hair,,,,,,,,,,,,,,,,,,,,,,,,,
Elite Off Union,,,,,,,,,,,,,,,,,,,,,,,,,
Elixir Salon,,,,,,,,,,,,,,,,,,,,,,,,,
EMANstyle,,,,,,,,,,,,,,,,,,,,,,,,,
Enrique V For Hair,,,,,,,,,,,,,,,,,,,,,,,,,
Enzi Hair,,,,,,,,,,,,,,,,,,,,,,,,,
Episode Salon & Spa,,,,,,,,,,,,,,,,,,,,,,,,,
Erica Kious,,,,,,,,,,,,,,,,,,,,,,,,,
Ernesto Meneses,,,,,,,,,,,,,,,,,,,,,,,,,
Ernesto's Hair Salon,,,,,,,,,,,,,,,,,,,,,,,,,
eSalon Color Studio,,,,,,,,,,,,,,,,,,,,,,,,,
Every 6 Weeks,,,,,,,,,,,,,,,,,,,,,,,,,
Excalibur Fine Men's Salon,,,,,,,,,,,,,,,,,,,,,,,,,
eXpression Hair Design,,,,,,,,,,,,,,,,,,,,,,,,,
Face It Salon & Spa,,,,,,,,,,,,,,,,,,,,,,,,,
FaceWest,,,,,,,,,,,,,,,,,,,,,,,,,
Fahrenheit ,,,,,,,,,,,,,,,,,,,,,,,,,
Fame Hair Design,,,,,,,,,,,,,,,,,,,,,,,,,
Fashion Cuts & Perms,,,,,,,,,,,,,,,,,,,,,,,,,
Fe Olivar,,,,,,,,,,,,,,,,,,,,,,,,,
Fekaso Hair Salon,,,,,,,,,,,,,,,,,,,,,,,,,
Fernanda's Hair Salon II,,,,,,,,,,,,,,,,,,,,,,,,,
Firefly Salon,,,,,,,,,,,,,,,,,,,,,,,,,
Firehorse,,,,,,,,,,,,,,,,,,,,,,,,,
Florette Salon and Shop,,,,,,,,,,,,,,,,,,,,,,,,,
Focus Hair Studio,,,,,,,,,,,,,,,,,,,,,,,,,
Fox & Doll Makeup & Hair,,,,,,,,,,,,,,,,,,,,,,,,,
Fox + Stone Salon,,,,,,,,,,,,,,,,,,,,,,,,,
Fox and Belle Salon,,,,,,,,,,,,,,,,,,,,,,,,,
Franklin Beauty Salon,,,,,,,,,,,,,,,,,,,,,,,,,
Friendly Cuts,,,,,,,,,,,,,,,,,,,,,,,,,
Fringe Salon,,,,,,,,,,,,,,,,,,,,,,,,,
FUTURE Vanity/Novelty,,,,,,,,,,,,,,,,,,,,,,,,,
G&J Beauty Salon,,,,,,,,,,,,,,,,,,,,,,,,,
Gacela alon,,,,,,,,,,,,,,,,,,,,,,,,,
Galleria Hair Design,,,,,,,,,,,,,,,,,,,,,,,,,
Geary Salon,,,,,,,,,,,,,,,,,,,,,,,,,
Geomantic Salon SF,,,,,,,,,,,,,,,,,,,,,,,,,
Gib Bolton Penthouse 1606,,,,,,,,,,,,,,,,,,,,,,,,,
Gildardo Enrique,,,,,,,,,,,,,,,,,,,,,,,,,
Gina Leigh Hair Studio,,,,,,,,,,,,,,,,,,,,,,,,,
Ginger Rubio,,,,,,,,,,,,,,,,,,,,,,,,,
Glama-Rama!,,,,,,,,,,,,,,,,,,,,,,,,,
Glam-Up,,,,,,,,,,,,,,,,,,,,,,,,,
Glenn Gustafik,,,,,,,,,,,,,,,,,,,,,,,,,
Glory Hair,,,,,,,,,,,,,,,,,,,,,,,,,
Gloss n' Glam,,,,,,,,,,,,,,,,,,,,,,,,,
Glyph Salon ,,,,,,,,,,,,,,,,,,,,,,,,,
Golden Nails Salon,,,,,,,,,,,,,,,,,,,,,,,,,
Golden Phoenix Hair Design,,,,,,,,,,,,,,,,,,,,,,,,,
Goldfinch Salon,,,,,,,,,,,,,,,,,,,,,,,,,
Good Hair Day Salon,,,,,,,,,,,,,,,,,,,,,,,,,
Grasplan,,,,,,,,,,,,,,,,,,,,,,,,,
Great Clips,,,,,,,,,,,,,,,,,,,,,,,,,
Great Cuts on Geary,,,,,,,,,,,,,,,,,,,,,,,,,
Green Beauty Nails & Spa,,,,,,,,,,,,,,,,,,,,,,,,,
Green Twig Salon,,,,,,,,,,,,,,,,,,,,,,,,,
Grey Salon,,,,,,,,,,,,,,,,,,,,,,,,,
H F Salon San Francisco,,,,,,,,,,,,,,,,,,,,,,,,,
H Polish Nails,,,,,,,,,,,,,,,,,,,,,,,,,
H&Q Beauty Salon,,,,,,,,,,,,,,,,,,,,,,,,,
Haight Salon,,,,,,,,,,,,,,,,,,,,,,,,,
Hair Arist Aurora Theresa,,,,,,,,,,,,,,,,,,,,,,,,,
Hair by Elena,,,,,,,,,,,,,,,,,,,,,,,,,
Hair by Eva,,,,,,,,,,,,,,,,,,,,,,,,,
Hair by Hector,,,,,,,,,,,,,,,,,,,,,,,,,
Hair by Jan'nise,,,,,,,,,,,,,,,,,,,,,,,,,
Hair by Lance Shannon,,,,,,,,,,,,,,,,,,,,,,,,,
Hair by Rosa ,,,,,,,,,,,,,,,,,,,,,,,,,
Hair by the Sea,,,,,,,,,,,,,,,,,,,,,,,,,
Hair Collective,,,,,,,,,,,,,,,,,,,,,,,,,
Hair Design by Marc,,,,,,,,,,,,,,,,,,,,,,,,,
Hair Deux,,,,,,,,,,,,,,,,,,,,,,,,,
Hair Dimension,,,,,,,,,,,,,,,,,,,,,,,,,
Hair Doktors Salon,,,,,,,,,,,,,,,,,,,,,,,,,
Hair In Design,,,,,,,,,,,,,,,,,,,,,,,,,
Hair Loft SF ,,,,,,,,,,,,,,,,,,,,,,,,,
Hair of the Gods by Geno Valle,,,,,,,,,,,,,,,,,,,,,,,,,
Hair On Hyde,,,,,,,,,,,,,,,,,,,,,,,,,
Hair Play,,,,,,,,,,,,,,,,,,,,,,,,,
Hair Science Salon,,,,,,,,,,,,,,,,,,,,,,,,,
Hair To Dye For,,,,,,,,,,,,,,,,,,,,,,,,,
Hair Touch,,,,,,,,,,,,,,,,,,,,,,,,,
Hair View Salon,,,,,,,,,,,,,,,,,,,,,,,,,
Hair With Class,,,,,,,,,,,,,,,,,,,,,,,,,
Hairdoo Voodoo,,,,,,,,,,,,,,,,,,,,,,,,,
Hairspace,,,,,,,,,,,,,,,,,,,,,,,,,
Hamaholic Studio,,,,,,,,,,,,,,,,,,,,,,,,,
HARE HAIR SALON,,,,,,,,,,,,,,,,,,,,,,,,,
Harper Paige Salon,,,,,,,,,,,,,,,,,,,,,,,,,
Head & Soul Salon,,,,,,,,,,,,,,,,,,,,,,,,,
Headlights Hair Studio,,,,,,,,,,,,,,,,,,,,,,,,,
Hearten Salon,,,,,,,,,,,,,,,,,,,,,,,,,
Heartzilla Salon,,,,,,,,,,,,,,,,,,,,,,,,,
Heroes & Hairoines,,,,,,,,,,,,,,,,,,,,,,,,,
Home,,,,,,,,,,,,,,,,,,,,,,,,,
Hong Kong Hair & Nail Beauty Salon,,,,,,,,,,,,,,,,,,,,,,,,,
Hong Kong Hair Design 2,,,,,,,,,,,,,,,,,,,,,,,,,
Hong Kong Modern Hair Salon,,,,,,,,,,,,,,,,,,,,,,,,,
Hong Kong Sara Hair Design,,,,,,,,,,,,,,,,,,,,,,,,,
Hoxton Tom Salon,,,,,,,,,,,,,,,,,,,,,,,,,
Hype Salon and Studio,,,,,,,,,,,,,,,,,,,,,,,,,
ID Hair & Beauty,,,,,,,,,,,,,,,,,,,,,,,,,
iHairbrook Brazilian Blowout,,,,,,,,,,,,,,,,,,,,,,,,,
Iky Hair Design,,,,,,,,,,,,,,,,,,,,,,,,,
Ilya's Hair Future,,,,,,,,,,,,,,,,,,,,,,,,,
Image Beauty Salon,,,,,,,,,,,,,,,,,,,,,,,,,
Image Hair Tech Beauty Salon,,,,,,,,,,,,,,,,,,,,,,,,,
In Style Hair Salon,,,,,,,,,,,,,,,,,,,,,,,,,
Ingenious Organic concept salon,,,,,,,,,,,,,,,,,,,,,,,,,
Ink Salon,,,,,,,,,,,,,,,,,,,,,,,,,
Instaglam Hair Studio,,,,,,,,,,,,,,,,,,,,,,,,,
Intava Salon,,,,,,,,,,,,,,,,,,,,,,,,,
International Beauty Salon,,,,,,,,,,,,,,,,,,,,,,,,,
iSalon,,,,,,,,,,,,,,,,,,,,,,,,,
J & D Hair Studio,,,,,,,,,,,,,,,,,,,,,,,,,
J Hair Studio,,,,,,,,,,,,,,,,,,,,,,,,,
J. Brooker Studio,,,,,,,,,,,,,,,,,,,,,,,,,
J. Roland Salon,,,,,,,,,,,,,,,,,,,,,,,,,
Jackson Place Salon,,,,,,,,,,,,,,,,,,,,,,,,,
Jacob Moss,,,,,,,,,,,,,,,,,,,,,,,,,
James Colgan Potrero Hill,,,,,,,,,,,,,,,,,,,,,,,,,
James Colgan Union Square,,,,,,,,,,,,,,,,,,,,,,,,,
Jason Richard Hairstylist,,,,,,,,,,,,,,,,,,,,,,,,,
Jazz'z Blow Dry Bar,,,,,,,,,,,,,,,,,,,,,,,,,
Jehr Schiavo Haute Coiffure,,,,,,,,,,,,,,,,,,,,,,,,,
Jennie Altman,,,,,,,,,,,,,,,,,,,,,,,,,
Jenni's Hair Design,,,,,,,,,,,,,,,,,,,,,,,,,
Jenny Kwon,,,,,,,,,,,,,,,,,,,,,,,,,
Jenny's Hair Salon,,,,,,,,,,,,,,,,,,,,,,,,,
Jewells Jones,,,,,,,,,,,,,,,,,,,,,,,,,
JJ Hair Design,,,,,,,,,,,,,,,,,,,,,,,,,
Joe Hamer Salon,,,,,,,,,,,,,,,,,,,,,,,,,
John Cameron Salon,,,,,,,,,,,,,,,,,,,,,,,,,
John Panelli Hair,,,,,,,,,,,,,,,,,,,,,,,,,
John Paul Strand,,,,,,,,,,,,,,,,,,,,,,,,,
John Velasquez Salon,,,,,,,,,,,,,,,,,,,,,,,,,
Johnny Bueno Studio,,,,,,,,,,,,,,,,,,,,,,,,,
Jordan Vida DevaCurl,,,,,,,,,,,,,,,,,,,,,,,,,
Joseph Cozza Salon,,,,,,,,,,,,,,,,,,,,,,,,,
JosephAlex Salon,,,,,,,,,,,,,,,,,,,,,,,,,
J's Beauty Salon,,,,,,,,,,,,,,,,,,,,,,,,,
Juni Salon,,,,,,,,,,,,,,,,,,,,,,,,,
Just Cuts Hair Care,,,,,,,,,,,,,,,,,,,,,,,,,
Kabuki Hair & Skin Care,,,,,,,,,,,,,,,,,,,,,,,,,
Kat Kern Hair Design,,,,,,,,,,,,,,,,,,,,,,,,,
Katrina Roman Hairstyles,,,,,,,,,,,,,,,,,,,,,,,,,
KaYea Hair & Makeup,,,,,,,,,,,,,,,,,,,,,,,,,
Ken's Hair Design,,,,,,,,,,,,,,,,,,,,,,,,,
Kim For Hair,,,,,,,,,,,,,,,,,,,,,,,,,
Kim's Precision Haircuts,,,,,,,,,,,,,,,,,,,,,,,,,
King Nails,,,,,,,,,,,,,,,,,,,,,,,,,
Kitone Hair Works,,,,,,,,,,,,,,,,,,,,,,,,,
Kolor & Studio,,,,,,,,,,,,,,,,,,,,,,,,,
Korina Stratton,,,,,,,,,,,,,,,,,,,,,,,,,
Kra,,,,,,,,,,,,,,,,,,,,,,,,,
Krave Hair & Beauty,,,,,,,,,,,,,,,,,,,,,,,,,
Kris Gagnon Hair,,,,,,,,,,,,,,,,,,,,,,,,,
L N J Salon,,,,,,,,,,,,,,,,,,,,,,,,,
La Fleur Hair & Nail Spa,,,,,,,,,,,,,,,,,,,,,,,,,
La Tour Salon,,,,,,,,,,,,,,,,,,,,,,,,,
L'amor Salon,,,,,,,,,,,,,,,,,,,,,,,,,
Laura Mae Haggard,,,,,,,,,,,,,,,,,,,,,,,,,
Laura's Beauty & Barber Shop,,,,,,,,,,,,,,,,,,,,,,,,,
Laurel Beauty Lab,,,,,,,,,,,,,,,,,,,,,,,,,
Lavish Hair and Makeup Studio,,,,,,,,,,,,,,,,,,,,,,,,,
Lee Hong Hair Styling,,,,,,,,,,,,,,,,,,,,,,,,,
L'Elegance Hair Braiding,,,,,,,,,,,,,,,,,,,,,,,,,
Let's Beauty Hair Design,,,,,,,,,,,,,,,,,,,,,,,,,
Lilyan's Beauty Salon,,,,,,,,,,,,,,,,,,,,,,,,,
Linda's Hair Cut,,,,,,,,,,,,,,,,,,,,,,,,,
Ling's Salon,,,,,,,,,,,,,,,,,,,,,,,,,
Lisa For Hair,,,,,,,,,,,,,,,,,,,,,,,,,
Lisa Weaver - Firehorse Salon,,,,,,,,,,,,,,,,,,,,,,,,,
Lisa's Beauty Salon,,,,,,,,,,,,,,,,,,,,,,,,,
Lisa's Hair Design,,,,,,,,,,,,,,,,,,,,,,,,,
Lisa's Lash Spot,,,,,,,,,,,,,,,,,,,,,,,,,
Liso Salon,,,,,,,,,,,,,,,,,,,,,,,,,
Lombard Beauty Salon,,,,,,,,,,,,,,,,,,,,,,,,,
Long Overdue,,,,,,,,,,,,,,,,,,,,,,,,,
Lotte Beauty Salon,,,,,,,,,,,,,,,,,,,,,,,,,
L'Shear Hair Design ,,,,,,,,,,,,,,,,,,,,,,,,,
Lulu's Salon,,,,,,,,,,,,,,,,,,,,,,,,,
Luna's Barber & Beauty,,,,,,,,,,,,,,,,,,,,,,,,,
Lux Hair Salon,,,,,,,,,,,,,,,,,,,,,,,,,
Lux Salon,,,,,,,,,,,,,,,,,,,,,,,,,
Lyon Street Salon,,,,,,,,,,,,,,,,,,,,,,,,,
M Hyde,,,,,,,,,,,,,,,,,,,,,,,,,
M Squared,,,,,,,,,,,,,,,,,,,,,,,,,
Ma'at XXIII Beauty Studio,,,,,,,,,,,,,,,,,,,,,,,,,
Madison Reed Color Bar - Hayes Valley,,,,,,,,,,,,,,,,,,,,,,,,,
Madison Reed Color Bar - Mission,,,,,,,,,,,,,,,,,,,,,,,,,
MaduSalon,,,,,,,,,,,,,,,,,,,,,,,,,
Magic Design,,,,,,,,,,,,,,,,,,,,,,,,,
Magnolia Avenue Salon,,,,,,,,,,,,,,,,,,,,,,,,,
Mai Ling Hair Design,,,,,,,,,,,,,,,,,,,,,,,,,
Makers Make Parlor,,,,,,,,,,,,,,,,,,,,,,,,,
Maneframe,,,,,,,,,,,,,,,,,,,,,,,,,
Maria Lee Makeup and Hair,,,,,,,,,,,,,,,,,,,,,,,,,
Marina Hair Salon,,,,,,,,,,,,,,,,,,,,,,,,,
Marion Pernoux Ensoma,,,,,,,,,,,,,,,,,,,,,,,,,
Marlon Ramos Brazilian Blowout and Keratin Specialist,,,,,,,,,,,,,,,,,,,,,,,,,
Mary's Beauty Salon & Barber Shop,,,,,,,,,,,,,,,,,,,,,,,,,
Marzia Salon,,,,,,,,,,,,,,,,,,,,,,,,,
Maverick West Salon,,,,,,,,,,,,,,,,,,,,,,,,,
May Sarda Salon,,,,,,,,,,,,,,,,,,,,,,,,,
May's Hair Design,,,,,,,,,,,,,,,,,,,,,,,,,
MC23 Salon,,,,,,,,,,,,,,,,,,,,,,,,,
Meghan Lunn,,,,,,,,,,,,,,,,,,,,,,,,,
Melissa Hair Studio,,,,,,,,,,,,,,,,,,,,,,,,,
Mena Mead,,,,,,,,,,,,,,,,,,,,,,,,,
Metamorphosis Salon,,,,,,,,,,,,,,,,,,,,,,,,,
MG Hair & Beauty Salon,,,,,,,,,,,,,,,,,,,,,,,,,
Mia's Beauty Spa,,,,,,,,,,,,,,,,,,,,,,,,,
Michael Roberts Haircutters,,,,,,,,,,,,,,,,,,,,,,,,,
Michelle's Hair Studio,,,,,,,,,,,,,,,,,,,,,,,,,
Mii Dii Hair Salon,,,,,,,,,,,,,,,,,,,,,,,,,
Milvali Salon and Cosmetics,,,,,,,,,,,,,,,,,,,,,,,,,
Mimi at ML Hair Studio,,,,,,,,,,,,,,,,,,,,,,,,,
Mimi Salon,,,,,,,,,,,,,,,,,,,,,,,,,
Ming Yuet Stylist,,,,,,,,,,,,,,,,,,,,,,,,,
Ming's Hair Studio,,,,,,,,,,,,,,,,,,,,,,,,,
Minna Nails,,,,,,,,,,,,,,,,,,,,,,,,,
Mireya Segura,,,,,,,,,,,,,,,,,,,,,,,,,
Mister Hyde,,,,,,,,,,,,,,,,,,,,,,,,,
Miu Miu Hair Salon,,,,,,,,,,,,,,,,,,,,,,,,,
MJ Salon & Spa,,,,,,,,,,,,,,,,,,,,,,,,,
ML Hair Studio,,,,,,,,,,,,,,,,,,,,,,,,,
Modern Design Salon,,,,,,,,,,,,,,,,,,,,,,,,,
Moe's Barber and Beauty,,,,,,,,,,,,,,,,,,,,,,,,,
Monalisa Hair Salon,,,,,,,,,,,,,,,,,,,,,,,,,
Monterey Salon,,,,,,,,,,,,,,,,,,,,,,,,,
Morphic,,,,,,,,,,,,,,,,,,,,,,,,,
Moxi,,,,,,,,,,,,,,,,,,,,,,,,,
Moxie Parlour,,,,,,,,,,,,,,,,,,,,,,,,,
My Do Hair Design,,,,,,,,,,,,,,,,,,,,,,,,,
Nails By Nancy,,,,,,,,,,,,,,,,,,,,,,,,,
Nalitha Salon,,,,,,,,,,,,,,,,,,,,,,,,,
Nancy Heath Hair,,,,,,,,,,,,,,,,,,,,,,,,,
Natural Beauty Salon,,,,,,,,,,,,,,,,,,,,,,,,,
Nefertiti's Hair & Spa,,,,,,,,,,,,,,,,,,,,,,,,,
Nelson Hair Salon,,,,,,,,,,,,,,,,,,,,,,,,,
Neon Shade Hair Fashion,,,,,,,,,,,,,,,,,,,,,,,,,
Netta Warren at Unicorn Salon & Art Studio,,,,,,,,,,,,,,,,,,,,,,,,,
New Looks Salon,,,,,,,,,,,,,,,,,,,,,,,,,
New Starting Hair & Beauty,,,,,,,,,,,,,,,,,,,,,,,,,
Next Station Hair Design,,,,,,,,,,,,,,,,,,,,,,,,,
Ney Borges,,,,,,,,,,,,,,,,,,,,,,,,,
Ngoc Nguyen,,,,,,,,,,,,,,,,,,,,,,,,,
Ngoce Hairstyles,,,,,,,,,,,,,,,,,,,,,,,,,
Nice Cuts,,,,,,,,,,,,,,,,,,,,,,,,,
Nice Studio,,,,,,,,,,,,,,,,,,,,,,,,,
Nikko Cuts You,,,,,,,,,,,,,,,,,,,,,,,,,
Ninelus Salon,,,,,,,,,,,,,,,,,,,,,,,,,
Nob Hill Hair,,,,,,,,,,,,,,,,,,,,,,,,,
Noe Valley Salon,,,,,,,,,,,,,,,,,,,,,,,,,
Nora Romick Hair,,,,,,,,,,,,,,,,,,,,,,,,,
O Salon,,,,,,,,,,,,,,,,,,,,,,,,,
Ocean Hair Design,,,,,,,,,,,,,,,,,,,,,,,,,
Ocean Wave Hair Salon,,,,,,,,,,,,,,,,,,,,,,,,,
Ohana Hair Studio,,,,,,,,,,,,,,,,,,,,,,,,,
Omar & Christian Hair Salon 22nd Street,,,,,,,,,,,,,,,,,,,,,,,,,
One Stop Beauty Supply and Salon,,,,,,,,,,,,,,,,,,,,,,,,,
One Twenty for Hair,,,,,,,,,,,,,,,,,,,,,,,,,
One Up Salon,,,,,,,,,,,,,,,,,,,,,,,,,
Orange,,,,,,,,,,,,,,,,,,,,,,,,,
Organic Shimmer Blowouts and Bronze,,,,,,,,,,,,,,,,,,,,,,,,,
ORO Downtown,,,,,,,,,,,,,,,,,,,,,,,,,
Overland One Hair Studio,,,,,,,,,,,,,,,,,,,,,,,,,
Ovo Designs,,,,,,,,,,,,,,,,,,,,,,,,,
Oyu Salon,,,,,,,,,,,,,,,,,,,,,,,,,
P & R Beauty Salon,,,,,,,,,,,,,,,,,,,,,,,,,
Partners For Hair,,,,,,,,,,,,,,,,,,,,,,,,,
Pastel Hair Salon,,,,,,,,,,,,,,,,,,,,,,,,,
Patrick Richards Salon,,,,,,,,,,,,,,,,,,,,,,,,,
Paul Laxton,,,,,,,,,,,,,,,,,,,,,,,,,
Paul's Hair Design,,,,,,,,,,,,,,,,,,,,,,,,,
People Hair & Nail Spa,,,,,,,,,,,,,,,,,,,,,,,,,
Pepe Mode,,,,,,,,,,,,,,,,,,,,,,,,,
Peppermint Cuts,,,,,,,,,,,,,,,,,,,,,,,,,
Peter Pan Hair Design,,,,,,,,,,,,,,,,,,,,,,,,,
Philip Duman,,,,,,,,,,,,,,,,,,,,,,,,,
Pink House,,,,,,,,,,,,,,,,,,,,,,,,,
Pirate Salon,,,,,,,,,,,,,,,,,,,,,,,,,
Plush Nails Spa,,,,,,,,,,,,,,,,,,,,,,,,,
Pony Studios,,,,,,,,,,,,,,,,,,,,,,,,,
Population Salon - Mission,,,,,,,,,,,,,,,,,,,,,,,,,
PoSH Salon & Blow Dry Boutique,,,,,,,,,,,,,,,,,,,,,,,,,
PREP,,,,,,,,,,,,,,,,,,,,,,,,,
Primp,,,,,,,,,,,,,,,,,,,,,,,,,
Prism Hair Studio,,,,,,,,,,,,,,,,,,,,,,,,,
Private I Salon,,,,,,,,,,,,,,,,,,,,,,,,,
Progressive Cuts,,,,,,,,,,,,,,,,,,,,,,,,,
Project XO Salon,,,,,,,,,,,,,,,,,,,,,,,,,
Queen's Beauty House,,,,,,,,,,,,,,,,,,,,,,,,,
Quince Spa,,,,,,,,,,,,,,,,,,,,,,,,,
Rainbow Beauty Salon,,,,,,,,,,,,,,,,,,,,,,,,,
Rare Byrd Salon,,,,,,,,,,,,,,,,,,,,,,,,,
Raven & Rose,,,,,,,,,,,,,,,,,,,,,,,,,
Red Union Salon,,,,,,,,,,,,,,,,,,,,,,,,,
Regis Salon,,,,,,,,,,,,,,,,,,,,,,,,,
Retreat,,,,,,,,,,,,,,,,,,,,,,,,,
Rever Hairstyling,,,,,,,,,,,,,,,,,,,,,,,,,
Revery ,,,,,,,,,,,,,,,,,,,,,,,,,
Right Style Salon,,,,,,,,,,,,,,,,,,,,,,,,,
Ringolevio Hair Salon,,,,,,,,,,,,,,,,,,,,,,,,,
Rival Salon,,,,,,,,,,,,,,,,,,,,,,,,,
Robert Anthony Salon,,,,,,,,,,,,,,,,,,,,,,,,,
Robert James Color,,,,,,,,,,,,,,,,,,,,,,,,,
Ron Pernell Hair Studio,,,,,,,,,,,,,,,,,,,,,,,,,
Rose Hair Design,,,,,,,,,,,,,,,,,,,,,,,,,
Rumours Hair & Nail Salon,,,,,,,,,,,,,,,,,,,,,,,,,
Ruth Hair Salon,,,,,,,,,,,,,,,,,,,,,,,,,
S & E Style Cut,,,,,,,,,,,,,,,,,,,,,,,,,
S & P Fashion Design Hair Studio,,,,,,,,,,,,,,,,,,,,,,,,,
Salana,,,,,,,,,,,,,,,,,,,,,,,,,
Salon 1500,,,,,,,,,,,,,,,,,,,,,,,,,
Salon 1670,,,,,,,,,,,,,,,,,,,,,,,,,
Salon 815,,,,,,,,,,,,,,,,,,,,,,,,,
Salon 936 Hair Design,,,,,,,,,,,,,,,,,,,,,,,,,
Salon A7,,,,,,,,,,,,,,,,,,,,,,,,,
Salon Belle Linda,,,,,,,,,,,,,,,,,,,,,,,,,
Salon Camilla,,,,,,,,,,,,,,,,,,,,,,,,,
Salon D,,,,,,,,,,,,,,,,,,,,,,,,,
Salon Darya,,,,,,,,,,,,,,,,,,,,,,,,,
Salon De Annie,,,,,,,,,,,,,,,,,,,,,,,,,
Salon de Bar,,,,,,,,,,,,,,,,,,,,,,,,,
Salon De Hong Kong,,,,,,,,,,,,,,,,,,,,,,,,,
Salon Devie & Spa,,,,,,,,,,,,,,,,,,,,,,,,,
Salon Flux ,,,,,,,,,,,,,,,,,,,,,,,,,
Salon J ,,,,,,,,,,,,,,,,,,,,,,,,,
Salon KaoVey,,,,,,,,,,,,,,,,,,,,,,,,,
Salon Louis,,,,,,,,,,,,,,,,,,,,,,,,,
Salon Macias,,,,,,,,,,,,,,,,,,,,,,,,,
Salon Mia Bella,,,,,,,,,,,,,,,,,,,,,,,,,
Salon Mio Mio,,,,,,,,,,,,,,,,,,,,,,,,,
Salon Nine ,,,,,,,,,,,,,,,,,,,,,,,,,
Salon One,,,,,,,,,,,,,,,,,,,,,,,,,
Salon Republic,,,,,,,,,,,,,,,,,,,,,,,,,
Salon Revel,,,,,,,,,,,,,,,,,,,,,,,,,
Salon Reyes,,,,,,,,,,,,,,,,,,,,,,,,,
Salon Six,,,,,,,,,,,,,,,,,,,,,,,,,
Salon Village,,,,,,,,,,,,,,,,,,,,,,,,,
SamHill Salon,,,,,,,,,,,,,,,,,,,,,,,,,
Samitra Salon,,,,,,,,,,,,,,,,,,,,,,,,,
San Bruno Beauty Studio,,,,,,,,,,,,,,,,,,,,,,,,,
San Francisco Institute of Esthetics and Cosmetology,,,,,,,,,,,,,,,,,,,,,,,,,
Saon 828,,,,,,,,,,,,,,,,,,,,,,,,,
Sassy Salon,,,,,,,,,,,,,,,,,,,,,,,,,
Saviours Salon,,,,,,,,,,,,,,,,,,,,,,,,,
Savvy Hair Salon,,,,,,,,,,,,,,,,,,,,,,,,,
Schnitt Salon,,,,,,,,,,,,,,,,,,,,,,,,,
Scott Smith,,,,,,,,,,,,,,,,,,,,,,,,,
Sculpture Salon,,,,,,,,,,,,,,,,,,,,,,,,,
Sean Madeline Hair Design,,,,,,,,,,,,,,,,,,,,,,,,,
Shag Hair Salon,,,,,,,,,,,,,,,,,,,,,,,,,
Shanghai Beauty Salon,,,,,,,,,,,,,,,,,,,,,,,,,
Shear Bliss,,,,,,,,,,,,,,,,,,,,,,,,,
Shear Delight,,,,,,,,,,,,,,,,,,,,,,,,,
Sherry Salon,,,,,,,,,,,,,,,,,,,,,,,,,
Shine Hair Styles,,,,,,,,,,,,,,,,,,,,,,,,,
Shi's Hair Studio,,,,,,,,,,,,,,,,,,,,,,,,,
Showroom 383 Salon,,,,,,,,,,,,,,,,,,,,,,,,,
Simple Cut and Spa,,,,,,,,,,,,,,,,,,,,,,,,,
Simply Cuts,,,,,,,,,,,,,,,,,,,,,,,,,
Simply Unique Nails,,,,,,,,,,,,,,,,,,,,,,,,,
Sisters Salon and Spa,,,,,,,,,,,,,,,,,,,,,,,,,
Sixth Avenue Salon,,,,,,,,,,,,,,,,,,,,,,,,,
Skin Sessions,,,,,,,,,,,,,,,,,,,,,,,,,
Smoke & Mirrors,,,,,,,,,,,,,,,,,,,,,,,,,
Snip2Curl,,,,,,,,,,,,,,,,,,,,,,,,,
SnipSnip,,,,,,,,,,,,,,,,,,,,,,,,,
Sohei Hair Design Studio at Glam Up Hair Salon,,,,,,,,,,,,,,,,,,,,,,,,,
Soho Hair Salon,,,,,,,,,,,,,,,,,,,,,,,,,
Sole Salon and Spa,,,,,,,,,,,,,,,,,,,,,,,,,
Sonya Awwad Luxe Beauty,,,,,,,,,,,,,,,,,,,,,,,,,
Sonya's House of Styles,,,,,,,,,,,,,,,,,,,,,,,,,
Sophia Robinson,,,,,,,,,,,,,,,,,,,,,,,,,
Sophia's Beauty Lounge,,,,,,,,,,,,,,,,,,,,,,,,,
Sophistafunk,,,,,,,,,,,,,,,,,,,,,,,,,
Sorry I Broke Your Heart,,,,,,,,,,,,,,,,,,,,,,,,,
Soul Scissors Hair Design,,,,,,,,,,,,,,,,,,,,,,,,,
Spa Day,,,,,,,,,,,,,,,,,,,,,,,,,
Spaghetti Ravioli Hair Salon,,,,,,,,,,,,,,,,,,,,,,,,,
Spencer and Company,,,,,,,,,,,,,,,,,,,,,,,,,
Spoke & Weal,,,,,,,,,,,,,,,,,,,,,,,,,
Spunk Salon,,,,,,,,,,,,,,,,,,,,,,,,,
Stacy's Hair Studio,,,,,,,,,,,,,,,,,,,,,,,,,
Stanley Weissberg at Up Hair Salon,,,,,,,,,,,,,,,,,,,,,,,,,
Stem Salon,,,,,,,,,,,,,,,,,,,,,,,,,
Stephanie Eastman ,,,,,,,,,,,,,,,,,,,,,,,,,
Structure Hair Design,,,,,,,,,,,,,,,,,,,,,,,,,
Studio 323,,,,,,,,,,,,,,,,,,,,,,,,,
Studio 7 Hair Loft,,,,,,,,,,,,,,,,,,,,,,,,,
Studio B - Patrick Evan Salon,,,,,,,,,,,,,,,,,,,,,,,,,
Studio BBR,,,,,,,,,,,,,,,,,,,,,,,,,
Studio Eugene,,,,,,,,,,,,,,,,,,,,,,,,,
Studio Hix,,,,,,,,,,,,,,,,,,,,,,,,,
Studio M Salon,,,,,,,,,,,,,,,,,,,,,,,,,
Studio Redz Hair Salon,,,,,,,,,,,,,,,,,,,,,,,,,
Studio Salon,,,,,,,,,,,,,,,,,,,,,,,,,
Style by J,,,,,,,,,,,,,,,,,,,,,,,,,
Style by Lana,,,,,,,,,,,,,,,,,,,,,,,,,
Suad International Hair Design,,,,,,,,,,,,,,,,,,,,,,,,,
Sunesy Hair Design,,,,,,,,,,,,,,,,,,,,,,,,,
Sunset Beauty Care,,,,,,,,,,,,,,,,,,,,,,,,,
Sunset Lash & Hair Gallery,,,,,,,,,,,,,,,,,,,,,,,,,
Surreal You Hair Design,,,,,,,,,,,,,,,,,,,,,,,,,
Su's Hair Salon,,,,,,,,,,,,,,,,,,,,,,,,,
Sweet Asylum,,,,,,,,,,,,,,,,,,,,,,,,,
Tandeline Salon,,,,,,,,,,,,,,,,,,,,,,,,,
Tania Goulart,,,,,,,,,,,,,,,,,,,,,,,,,
Taylor / Monroe,,,,,,,,,,,,,,,,,,,,,,,,,
Tee Pham,,,,,,,,,,,,,,,,,,,,,,,,,
Teresa Rice,,,,,,,,,,,,,,,,,,,,,,,,,
The Beauty Network,,,,,,,,,,,,,,,,,,,,,,,,,
The Castro Day Spa,,,,,,,,,,,,,,,,,,,,,,,,,
The Color Design Salon,,,,,,,,,,,,,,,,,,,,,,,,,
The Park Salon,,,,,,,,,,,,,,,,,,,,,,,,,
The Plum Organic Beauty,,,,,,,,,,,,,,,,,,,,,,,,,
The Red Fox Salon & Barber,,,,,,,,,,,,,,,,,,,,,,,,,
The Spot,,,,,,,,,,,,,,,,,,,,,,,,,
The Strand,,,,,,,,,,,,,,,,,,,,,,,,,
This Magic Life,,,,,,,,,,,,,,,,,,,,,,,,,
TJ Pintacura Hair,,,,,,,,,,,,,,,,,,,,,,,,,
Tnails,,,,,,,,,,,,,,,,,,,,,,,,,
Tom's Beautiful Hair,,,,,,,,,,,,,,,,,,,,,,,,,
Tonie's,,,,,,,,,,,,,,,,,,,,,,,,,
Tony's Hair Studio,,,,,,,,,,,,,,,,,,,,,,,,,
Top Cuts,,,,,,,,,,,,,,,,,,,,,,,,,
Topiary Salon,,,,,,,,,,,,,,,,,,,,,,,,,
Touch of Love Wellness,,,,,,,,,,,,,,,,,,,,,,,,,
Tracy Mazza Hairstyling,,,,,,,,,,,,,,,,,,,,,,,,,
Trademark Salon,,,,,,,,,,,,,,,,,,,,,,,,,
Trasees Design,,,,,,,,,,,,,,,,,,,,,,,,,
Treat Salon,,,,,,,,,,,,,,,,,,,,,,,,,
Trend 2000 Hair Design,,,,,,,,,,,,,,,,,,,,,,,,,
Triple Twist Makeup & Hair Design,,,,,,,,,,,,,,,,,,,,,,,,,
TS Hair Design,,,,,,,,,,,,,,,,,,,,,,,,,
Tulip Salon,,,,,,,,,,,,,,,,,,,,,,,,,
Twenty 89 Hair Design,,,,,,,,,,,,,,,,,,,,,,,,,
Twin Star Hair & Beauty,,,,,,,,,,,,,,,,,,,,,,,,,
Tyler's Barbershop,,,,,,,,,,,,,,,,,,,,,,,,,
Ulta Beauty,,,,,,,,,,,,,,,,,,,,,,,,,
Under Your Hat Salon,,,,,,,,,,,,,,,,,,,,,,,,,
Uniq Salon,,,,,,,,,,,,,,,,,,,,,,,,,
United Beauty Salon,,,,,,,,,,,,,,,,,,,,,,,,,
Unlimited Hair Care,,,,,,,,,,,,,,,,,,,,,,,,,
Untangled Salon,,,,,,,,,,,,,,,,,,,,,,,,,
Up Hair,,,,,,,,,,,,,,,,,,,,,,,,,
Urban Soul Salon,,,,,,,,,,,,,,,,,,,,,,,,,
V Studio Salons,,,,,,,,,,,,,,,,,,,,,,,,,
Vaner Batista,,,,,,,,,,,,,,,,,,,,,,,,,
Versailles Hair Salon,,,,,,,,,,,,,,,,,,,,,,,,,
Viange,,,,,,,,,,,,,,,,,,,,,,,,,
Victoria's Nail Studio,,,,,,,,,,,,,,,,,,,,,,,,,
Victor's Hair Salon,,,,,,,,,,,,,,,,,,,,,,,,,
Visual Impromptu,,,,,,,,,,,,,,,,,,,,,,,,,
Vladimir's Beauty Salon,,,,,,,,,,,,,,,,,,,,,,,,,
W2 Salon,,,,,,,,,,,,,,,,,,,,,,,,,
Wavi Sabi Beauty,,,,,,,,,,,,,,,,,,,,,,,,,
Wednesdae,,,,,,,,,,,,,,,,,,,,,,,,,
Wendy Beauty Salon,,,,,,,,,,,,,,,,,,,,,,,,,
"Werk Salon, Inc",,,,,,,,,,,,,,,,,,,,,,,,,
Wicked Salon,,,,,,,,,,,,,,,,,,,,,,,,,
Wild Heart Beauty,,,,,,,,,,,,,,,,,,,,,,,,,
Winc Studio,,,,,,,,,,,,,,,,,,,,,,,,,
Win's Hair Design,,,,,,,,,,,,,,,,,,,,,,,,,
Wood Salon,,,,,,,,,,,,,,,,,,,,,,,,,
Xcelerate Salon,,,,,,,,,,,,,,,,,,,,,,,,,
Yamamoto International Hair Design,,,,,,,,,,,,,,,,,,,,,,,,,
Yan Yan Beauty Salon,,,,,,,,,,,,,,,,,,,,,,,,,
Yelly Brandon,,,,,,,,,,,,,,,,,,,,,,,,,
Yo Yo Salon,,,,,,,,,,,,,,,,,,,,,,,,,
Your Moda Salon,,,,,,,,,,,,,,,,,,,,,,,,,
Yvonne Hair Salon,,,,,,,,,,,,,,,,,,,,,,,,,
Z Touch Salon,,,,,,,,,,,,,,,,,,,,,,,,,
Zhen Mei Hair Salon,,,,,,,,,,,,,,,,,,,,,,,,,
Zindagi Salon,,,,,,,,,,,,,,,,,,,,,,,,,
Zippy's Hair Studio,,,,,,,,,,,,,,,,,,,,,,,,,
Zone Hair Design,,,,,,,,,,,,,,,,,,,,,,,,,