Business,Phone Number,Service Pricing Tracker,Photo Tracker,Notes,District,Address,Business Hours,,,,,,,,,,,,,,,,,,
Joyful Massage Center,415-828-2567,From website (up to date),No,,Union Square,"447 Sutter St, San Francisco, CA 94108",Mon-Sun 10am - 10pm,,,,,,,,,,,,,,,,,,
The Barbershop,415-913-7562,From website (up to date),Yes,,Marina,"2030 Union St, San Francisco, CA 94123","Mon-Fri 9am - 9pm, Sat 9am - 7pm, Sun 9am - 6pm	",,,,,,,,,,,,,,,,,,
The Bling Bar Nail Salon,415-524-6556 ,From website (up to date),No,Owner Daya; Tester - DM on insta for pic,Mission,"3186 23rd St, San Francisco, CA 94110",Mon-Sat 9am - 6pm,,,,,,,,,,,,,,,,,,
Mac Nail Spa,415-567-0162 ,Menu pic from July 2019,Yes,,NoPa,"783 Divisadero St, San Francisco, CA 94117 ","
Mon-Sun 10:30am - 7:30pm	",,,,,,,,,,,,,,,,,,
Richmond Nail Salon,415-876-3888 ,Menu pic from Oct 2016,No,,Outer Richmond,"5856 Geary Blvd, San Francisco, CA 94121 ","
Mon-Sun 10am - 7pm",,,,,,,,,,,,,,,,,,
20th Salon & Barber,415-824-1335,From website (up to date),No,Owner: Jeremy - call Sat 8/3,Mission,"2737 20th St, San Francisco, CA 94110",Mon-Sun 10am - 7pm,,,,,,,,,,,,,,,,,,
Archimedes Banya,415-206-9000,From website (up to date),Yes,,Bayview-Hunters Point,"748 Innes Ave, San Francisco, CA 94124","Mon-Wed-Fri 12pm - 12am,Tue 6pm - 12am,Sat 10am - 12am",,,,,,,,,,,,,,,,,,
Arrow Salon,415-658-7469,From website (up to date),No,,Mission,"1041 Guerrero St, San Francisco, CA 94110",,,,,,,,,,,,,,,,,,,
B Parlor,415-255-8554,From website (up to date),Yes,Owner: Filomena; filomena@bparlor.com ,Lower Haight,"782 Haight St, San Francisco, CA 94117","Tue-Thu 11am - 8pm,Fri-Sat 9am - 9pm,Sun 11am - 7pm",,,,,,,,,,,,,,,,,,
Bare,415-625-8400,From website (up to date),Yes,,Marina,"1810 Union St, San Francisco, CA 94123",Mon-Sun 10am - 9pm,,,,,,,,,,,,,,,,,,
Bateau Hair Salon,415-495-1912,From website (up to date),Yes,,Embarcadero,"2 Townsend St, Ste 4B, San Francisco, CA 94107","Tue-Fri 11am - 7pm,Sat 10am - 5pm",,,,,,,,,,,,,,,,,,
Dogpatch Barber and Shave South,415-814-1117,From website (up to date),Yes,,Dogpatch,"2632 3rd St, San Francisco, CA 94107","Tue-Fri10am - 7pm, Sat 9am - 3pm",,,,,,,,,,,,,,,,,,
Fellow Barber - Market,415-344-0443,From website (up to date),Yes,,SoMa,"973 Market St, San Francisco, CA 94103","
Mon-Sat9am - 8pm, Sun 9am - 5pm",,,,,,,,,,,,,,,,,,
Follicle Hair Salon,415-402-5277,From website (up to date),Yes,,Lower Nob Hill,"798 Sutter St, San Francisco, CA 94109","Tue 12pm - 7pm, Wed-Fri10am - 8pm,Sat 9am-5pm",,,,,,,,,,,,,,,,,,
Joe's Barbershop,415-255-9096,From website (up to date),Yes,,Duboce Triangle,"2150 Market St, San Francisco, CA 94114","Mon-Fri11am - 7pm, Sat 9am - 5pm,  Sun 10am - 5pm",,,,,,,,,,,,,,,,,,
Lashfully,415-673-3240,From website (up to date),Yes,,Marina,"1954 Union St, San Francisco, CA 94123","Tue-Fri 11am - 7pm, Sat 10am - 6pm, Sun 11am - 5pm",,,,,,,,,,,,,,,,,,
People's Barbershop - Oakland,510-788-4302,From website (up to date),Yes,,,"2337 Broadway #101, Oakland, CA 94607","Mon-Sat 9am-8pm, Sun 9am-7pm",,,,,,,,,,,,,,,,,,
People's Barbershop - Polk St,415-292-4099,From website (up to date),Yes,,Lower Nob Hill,"1259 Polk St, San Francisco, CA 94109","
Mon-Sat9am - 9pm, Sun 9am - 8pm",,,,,,,,,,,,,,,,,,
Renaissance Salon,415-931-7091,From website (up to date),Yes,,Pacific Heights,"2600 Sacramento St, San Francisco, CA 94115","Tue-Fri 10am - 7 pm, Sat 10am - 6pm",,,,,,,,,,,,,,,,,,
Revamp Salon - Mission,415-431-8267,From website (up to date),No,,Mission,"3167 16th St, San Francisco, CA 94103","Tue-Fri11am - 8pm, Sat 10am - 6pm, Sun 10am - 6pm",,,,,,,,,,,,,,,,,,
Richmond Serenity Spa,415-702-6468,From website (up to date),Yes,,Outer Richmond,"3443 Balboa St, San Francisco, CA 94121",Mon-Sun 10:30am - 8pm,,,,,,,,,,,,,,,,,,
Ronit April V,415-516-3497,From website (up to date),Yes,,Potrero Hill,"1317 18th St, San Francisco, CA 94107","Mon-Tue 10am - 6:30pm, Fri 10am - 5pm",,,,,,,,,,,,,,,,,,
Salon Baobao,415-626-6806,From website (up to date),Yes,,Castro,"2041 Market St, San Francisco, CA 94114","Tue-Fri 10:00 am - 7:00 pm, Sat 9am - 6pm        ",,,,,,,,,,,,,,,,,,
Salon DNA,415-956-1909,From website (up to date),Yes,,Union Square,"555 Sutter St, Ste #200, San Francisco, CA 94102","Tue-Sun 10am - 7pm	",,,,,,,,,,,,,,,,,,
Salt Salon,714-465-9037,From website (up to date),Yes,,,"410 Main St, Ste #104, Huntington Beach, CA 92648",,,,,,,,,,,,,,,,,,,
San Francisco Barber Shop,415-655-3484,From website (up to date),Yes,,Mission,"3166 16th St, San Francisco, CA 94103",Mon-Sun10am - 9pm,,,,,,,,,,,,,,,,,,
Secret Agent Salon,415-440-5247,From website (up to date),Yes,,Lower Pacific Heights,"2843 California St, San Francisco, CA 94115","Tue-Fri 9am - 6pm, Wed 9am - 7 pm, Thu 11am - 6pm, Sat 9am - 5pm",,,,,,,,,,,,,,,,,,
SenSpa,415-441-1777,From website (up to date),Yes,,Presidio,"1161 Gorgas Ave, San Francisco, CA 94129","Mon-Sun10am - 8pm	",,,,,,,,,,,,,,,,,,
Serenity Wellness Spa,415-441-1061,From website (up to date),Yes,,Marina,"2087 Union St, Ste #2, San Francisco, CA 94123","Mon-Sun 11am - 8pm, Tue-Thu 9am - 8pm, Fri-Sat9am - 7pm",,,,,,,,,,,,,,,,,,
Siam Orchid Traditional Thai Massage,415-872-9645,From website (up to date),Yes,,Civic Center,"39 Polk St, San Francisco, CA 94102","Mon-Sun10am - 10pm	",,,,,,,,,,,,,,,,,,
SKG Salon,415-922-3449,From website (up to date),No,,Hayes Valley,"193 Franklin St, San Francisco, CA 94102","Mon-Wed 10am - 6pm, Tue 10am/5:30pm - 3pm /7:30pm , Thu-Fri 10am - 7pm, Sat 10am - 5pm              ",,,,,,,,,,,,,,,,,,
Spa J'Adore,415-987-0999,From website (up to date),Yes,,Union Square,"490 Post St, Ste #1701, San Francisco, CA 94102","
Mon-Sun 9am - 8pm",,,,,,,,,,,,,,,,,,
Star East Hair Salon,415-666-0777,From website (up to date),No,,Outer Richmond,"3101 Clement St, San Francisco, CA 94121","Mon-Sat 10am - 7pm	",,,,,,,,,,,,,,,,,,
Steel & Lacquer,415-503-1210,From website (up to date),Yes,,SoMa,"14 10th St, San Francisco, CA 94103","Tue 2pm - 8:30 pm, Wed-Thu 8:30 am - 9:30 pm, Fri 8:30 am - 8pm, Sat 9am - 6:30 pm                ",,,,,,,,,,,,,,,,,,
Strictly Therapeutic,415-724-7642,From website (up to date),No,,Inner Sunset,"1475 9th Ave, San Francisco, CA 94122","Tue-Fri 8am - 10pm, Wed 1pm - 8pm",,,,,,,,,,,,,,,,,,
Studio Soothe,415-674-7511,From website (up to date),Yes,,NoPa,"1883 Hayes St, San Francisco, CA 94117","Mon 12pm - 8pm, Tue-Sat 11am - 8pm, Sun 11am - 5pm",,,,,,,,,,,,,,,,,,
Sublime Salon,415-440-4920,From website (up to date),No,,Presidio Heights,"3354 A, Sacramento St, San Francisco, CA 94118","Tue-Fri 11am - 7pm, Sat 9:30 am - 6pm",,,,,,,,,,,,,,,,,,
Suchada Thai Massage - Embarcadero,415-644-0808,From website (up to date),Yes,,South Beach,"38 Bryant St, San Francisco, CA 94105",Mon-Sun10am - 8pm,,,,,,,,,,,,,,,,,,
Sutro Lab,415-691-1056,From website (up to date),No,,Nob Hill,"1402 California St, San Francisco, CA 94109","Mon-Fri 11am - 7pm, Sat 11am - 6pm        ",,,,,,,,,,,,,,,,,,
Synergy Mind Body Wellness,415-602-1109,From website (up to date),No,,Inner Richmond,"399 Arguello Blvd, San Francisco, CA 94118",Mon-Sun 10am - 9pm,,,,,,,,,,,,,,,,,,
Tailored Salon,415-501-9205,From website (up to date),Yes,,Financial District,"266 Sutter St 2nd Floor, San Francisco, CA 94108","Tue 9:00 am - 6pm, Wed-Fri 9am - 8pm, Sat 9am - 7pm, Sun 10am - 6pm",,,,,,,,,,,,,,,,,,
Taylor/Monroe,415-252-9723,From website (up to date),Yes,,Hayes Valley,"448 Grove St, San Francisco, CA 94102","Tue 11am - 8pm, Wed-Fri 10:30 am - 8pm, Sat 9:30 am - 7pm, Sun 11am - 7pm        ",,,,,,,,,,,,,,,,,,
The Pretty Pretty Collective,415-282-2002,From website (up to date),Yes,,Mission,"3290 22nd St, San Francisco, CA 94110","
Mon 1pm - 9pm, Tue-Fri 12pm - 9pm, Sat-Sun 10am - 6pm                ",,,,,,,,,,,,,,,,,,
The Refinery Grooming Club,415-525-4751,From website (up to date),Yes,,Mission,"2589 Mission St, San Francisco, CA 94110","TueThu 10am - 8pm, Fri-Sat 9am - 7pm, Sun 11am - 6pm        ",,,,,,,,,,,,,,,,,,
The Woodbridge,415-441-1362,From website (up to date),Yes,,Marina,"2072 Chestnut St, San Francisco, CA 94123","Mon-Sun 10am - 8pm, Wed 8am - 9pm",,,,,,,,,,,,,,,,,,
Timothy Scott,415-730-3561,From website (up to date),No,,Nob Hill,"1555 California St, San Francisco, CA 94109","Wed-Fri 8am - 8pm, Thu 12pm - 8pm, Sat 9am - 5pm",,,,,,,,,,,,,,,,,,
TRx CBD Massage,415-429-6456,From website (up to date),Yes,,SoMa,"250 Clara St, Ste #8, San Francisco, CA 94107",Mon-Sun10am - 10pm,,,,,,,,,,,,,,,,,,
Urban Oasis,415-424-8462,From website (up to date),Yes,,Mission,"2489 Mission St, Ste 35, San Francisco, CA 94110",,,,,,,,,,,,,,,,,,,
Veer & Wander,415-864-3012,From website (up to date),Yes,,SoMa,"6 Brady St, San Francisco, CA 94103","Tue-Fri 10am - 8pm, Sat 9am - 6pm",,,,,,,,,,,,,,,,,,
Wanderlust Salon,415-913-7331,From website (up to date),Yes,,Marina,"2250 Union St, San Francisco, CA 94123","Tue-Fri 11am - 7pm, Sat 10am - 6pm",,,,,,,,,,,,,,,,,,
Zip Zap Hair,415-621-1671,From website (up to date),Yes,,Lower Haight,"245 Fillmore St, San Francisco, CA 94117","
Mon-Fri 11am - 7pm, Sat 10am - 6pm, Sun 11am - 6pm	        ",,,,,,,,,,,,,,,,,,
Rose Threading Salon,510-634-5550,Menu pic from August 2018,No,lamsalroshani402@gmail.com - OWNER - Tester,,"3074 24th St, San Francisco, CA 94110",,,,,,,,,,,,,,,,,,,
Massage for Relax,415-399-1988,Menu pic from February 2017,No,,Nob Hill,"917 Pacific Ave, San Francisco, CA 94133","Mon-Sun8am - 8pm	",,,,,,,,,,,,,,,,,,
Body-Soul Massage,415-606-0114,Menu pic from February 2019,No,,Inner Richmond,"17th Ave And Geary Blvd, San Francisco, CA 94121","Mon-Thu 8am - 6pm, Wed 12pm - 4pm, Fri 8am - 4pm, Sat 10am - 4pm                ",,,,,,,,,,,,,,,,,,
Just Cuts,415-441-3765,Menu pic from July 2019,Yes,,Marina,"1301 Chestnut St, San Francisco, CA 94123","
Mon-Sat 9:30am - 6:30pm, Sun 10am - 6pm",,,,,,,,,,,,,,,,,,
Ahmet's Barber & Hair Styling,415-788-1919,Menu pic from July 2019,Yes,,Financial District,"201 Sacramento St, San Francisco, CA 94111","Mon-Fri 9am - 6:30 pm, Sat 9:30 am - 5pm	",,,,,,,,,,,,,,,,,,
Anjalee Thai Massage,415-351-1900,Menu pic from July 2019,Yes,,Nob Hill,"1617 Polk St, San Francisco, CA 94109","
Mon-Sun 10am - 8pm",,,,,,,,,,,,,,,,,,
City Beauty Salon,415-928-9725,Menu pic from July 2019,Yes,,Nob Hill,"1610 Polk St, San Francisco, CA 94109",Mon-Sun 9:30am - 7:30pm,,,,,,,,,,,,,,,,,,
Delightful Massage,415-673-1068,Menu pic from July 2019,Yes,,,"1747 Polk St, San Francisco, CA 94109",,,,,,,,,,,,,,,,,,,
Harry's Hair Studio,415-775-7885,Menu pic from July 2019,Yes,,Nob Hill,"2059 Polk St, San Francisco, CA 94109",Mon-Sat 10am - 6:30pm,,,,,,,,,,,,,,,,,,
Ibrows by Yoz,415-902-8316,Menu pic from July 2019,Yes,Tester,Crocker-Amazon,"5465 Mission St, San Francisco, CA 94112","Wed-Fri 2pm - 8pm, Sat 10am - 5pm",,,,,,,,,,,,,,,,,,
Lucky Nails,415-981-5321,Menu pic from July 2019,Yes,,Financial District,"#A, 55 Sutter St, San Francisco, CA 94104","Mon-Fri 9am - 7pm, Sat 9am - 5pm",,,,,,,,,,,,,,,,,,
Mani Pedi Spa,415-872-9686,Menu pic from July 2019,Yes,,Nob Hill,"1545 Polk St, San Francisco, CA 94109","Mon-Sat 10am - 7:30pm, Sun 10am - 7pm",,,,,,,,,,,,,,,,,,
Massage Your Body,415-794-4449,Menu pic from July 2019,Yes,Tester,Visitacion Valley,"22 Teddy Ave, San Francisco, CA 94134","Mon-Fri 4pm - 10pm, Sat 3pm - 10pm, Sun 12pm - 8pm",,,,,,,,,,,,,,,,,,
Merry Manicures,415-931-9079,Menu pic from July 2019,Yes,,Nob Hill,"2030 Polk St, San Francisco, CA 94109","
Mon-Fri 10am - 8pm, Sat 9am - 8pm, Sun 10am - 8pm",,,,,,,,,,,,,,,,,,
Precision Hair Design,415-931-1077,Menu pic from July 2019,Yes,,Nob Hill,"1622 Polk St, San Francisco, CA 94122","
Mon-Sat 10am - 7pm, Sun 10am - 6pm",,,,,,,,,,,,,,,,,,
Top Coat,650-303-5355,Menu pic from July 2019,Yes,,Marina,"1520 Union St, San Francisco, CA 94123","Mon-Fri 11am - 8pm, Sat 10am - 7:30 pm, Sun 10am - 7pm	",,,,,,,,,,,,,,,,,,
Vierra & Friends,415-665-9335,Menu pic from June  2018,Yes,,Cole Valley,"85 Carl St, San Francisco, CA 94117",Mon-Sun 8am - 9pm,,,,,,,,,,,,,,,,,,
Shear Image Salon,415-752-0397,Menu pic from May 2017,No,,Laurel Heights,"3520 Geary Blvd, San Francisco, CA 94118",Mon-Sat 10:30 am - 7pm,,,,,,,,,,,,,,,,,,
Amazing Look,415-469-8269,Menu pic from May 2019,No,,Outer Mission,"719 Monterey Blvd, San Francisco, CA 94127","Mon-Sat 9am - 7pm, Sun 10am - 6pm	",,,,,,,,,,,,,,,,,,
Perfect Cut Hair Salon,415-664-4855,Menu pic from Nov 2015,No,,Outer Sunset,"3808 Noriega St , San Francisco, CA 94122",Tue-Sun 10am - 7pm,,,,,,,,,,,,,,,,,,
Poppy & Finch,415-786-9470,Menu pic from Nov 2018,Yes,,Noe Valley,"1515 Church St, San Francisco, CA 94131",Tue-Sun 10 am - 7pm,,,,,,,,,,,,,,,,,,
The Shop Barbershop,415-655-9126,Menu pic from October   2015,Yes,,Mission,"2639 24th St, San Francisco, CA 94110","Tue-Fri 9am - 7pm, Sat 9am - 5:30pm",,,,,,,,,,,,,,,,,,
Royal Thai Spa,415-500-4321,Menu pic from October 2013,Yes,,Fisherman's Wharf,"685 N Point St, San Francisco, CA 94133","Mon-Thu 10 am - 9pm, Fri 10am - 10pm",,,,,,,,,,,,,,,,,,
Wendy's Body Care,415-751-2000,Menu pic from October 2017,No,,Outer Richmond,"3412 Balboa St, San Francisco, CA 94121",Mon-Sun 10am - 9pm,,,,,,,,,,,,,,,,,,
Super Nails & Spa,415-566-8585,From website (up to date),Yes,,Stonestown,"3251 20th Ave #234, San Francisco, CA 94132","Mon-Sat 10am - 9pm, Sun 12pm - 6pm	",,,,,,,,,,,,,,,,,,
Nail Arts,415-664-5728 ,Menu pic from July 2019,No,Owner Jennifer - ask to send photo also,Inner Sunset,"1116 Irving St, San Francisco, CA 94122 ","
Wed-Mon 9:30am - 7:30pm        ",,,,,,,,,,,,,,,,,,
New Zen Spa,415-292-6988 ,Menu pic from July 2019,Yes,,Marina,"1933 Union St, San Francisco, CA 94123 ","Tue-Fri 10am - 7:30 pm, Sat-Sun 9:30 am - 7pm",,,,,,,,,,,,,,,,,,
Urban Beauty Spa,415-795-3439 ,Menu pic from July 2019,Yes,,Financial District,"130 Bush St, Fl 4, San Francisco, CA 94104 ",,,,,,,,,,,,,,,,,,,
Old Mission Barbershop,415-678-5434,From website (up to date)*,Yes,Owner texted me picture,Mission,"2485 Mission St, San Francisco, CA 94110","Tue-Fri 9am - 7pm, Sat 9am - 6pm",,,,,,,,,,,,,,,,,,
Lotus Nail Salon,415-716-1600 ,Menu pic from July 2019*,Yes,,Financial District,"11 Maiden Ln, San Francisco, CA 94108 ","Mon-Sat 10am - 7:30pm, Sun 10:30am - 7pm        ",,,,,,,,,,,,,,,,,,
Queen Bee Nail Salon,415-252-8092 ,Menu pic from July 2019*,Yes,,Duboce Triangle,"2380 Market St, San Francisco, CA 94114",Mon-Sun 10am - 7pm,,,,,,,,,,,,,,,,,,
7 Nail Spa,415-587-7969 ,Menu pic from July 2019*,No,,Excelsior,"4907 Mission St, Ste A, San Francisco, CA 94112",,,,,,,,,,,,,,,,,,,
B Brow Lounge,415-374-7031,Menu pic from July 2019*,Yes,,Marina,"1945 Union St, San Francisco, CA 94123","Tue-Sat 11am - 7pm, Sun 11am - 6pm",,,,,,,,,,,,,,,,,,
J. Roland Salon,415-392-2969,N/A,Yes,roland@jrolandsalon.com,Financial District,"161 Sutter St, San Francisco, CA 94104","Mon 10am - 2pm, Tue-Sat 9am - 6pm        ",,,,,,,,,,,,,,,,,,
New Beauty Hair Salon,415-885-4355,N/A,Yes,,Nob Hill,"1709 Polk St, San Francisco, CA 94109","Mon-Sat 10 am - 6:30pm	",,,,,,,,,,,,,,,,,,
A Businessman's Haircut,415-788-4936,N/A,No,Thinks I'm a solicitor,Fidi,"44 Montgomery, Ste #30, San Francisco, CA 94104",Mon-Tue-Thu-Fri 8:30am - 7:30pm,,,,,,,,,,,,,,,,,,
Alexander G,415-445-9373,N/A,Yes,Going to email me pricing menu and pic,Fidi,"333 Bush St, Ste #104, San Francisco, CA 94104","
Mon 9am - 6pm, Tue-Wed 9am - 7pm,Thu-Fri 9am - 8pm, Sat 7:30am - 6pm        ",,,,,,,,,,,,,,,,,,
Angie & Martha's Hair Salon,415-359-9375,N/A,No,Not interested - happy with current custoners,Lower Nob Hill,"524 Geary St, San Francisco, CA 94102",Tue-Sat 9am - 6pm,,,,,,,,,,,,,,,,,,
Artistic Nails & Spa,415-345-1235 ,N/A,No,Owner supposed to call (never did),Lower Pac Heights,"1826 Divisadero St, San Francisco, CA 94115","Mon-Fri 9:30am - 7:30pm, Sat 9:30 am - 7:00 pm, Sun	10am - 7pm",,,,,,,,,,,,,,,,,,
Care Me Threading Salon,415-900-9120,N/A,No,,Nob Hill,"1031 Hyde St, San Francisco, CA 94109","Tue-Thu-Sat-Sun 10:30am - 7pm, Fri 2pm - 7pm",,,,,,,,,,,,,,,,,,
Creative Nail Care,415- 861-8100 ,N/A,No,Owner supposed to call (never did),Hayes Valley,"191 Franklin St, San Francisco, CA 94102 ","Mon-Sat 10am - 7pm	",,,,,,,,,,,,,,,,,,
Daisy Nails Salon,415-252-7276 ,N/A,No,Supposed to follow up (never did),Mission,"388 Guerrero St, San Francisco, CA 94103 ","Mon-Sat 10am - 7:30pm, Sun 10am - 6pm                ",,,,,,,,,,,,,,,,,,
Debonair Barber & Shave Parlor,415-655-3461,N/A,Yes,,The Haight,"1342 Haight St, San Francisco, CA 94117","Mon-Sat 11am - 7pm, Sun 11am - 5pm",,,,,,,,,,,,,,,,,,
Divisadero Nails,415-440-9999 ,N/A,No,Call back for owner,Lower Pac Heights,"1858 Divisadero St, San Francisco, CA 94115 ",Mon-Sun 9:30am - 7:30pm,,,,,,,,,,,,,,,,,,
Eyebrow Star,510-334-6054,N/A,No,,Mission,"2649 Mission, St A, San Francisco, CA 94110","Mon-Sat 10:30am - 7pm, Sun	11am - 5:30pm",,,,,,,,,,,,,,,,,,
Fabulous Nails Spa,415-668-3699 ,N/A,No,Owner supposed to call (never did),Outer Richmond,"2099 Clement St, San Francisco, CA 94121 ","Mon-Sat 10am - 7pm, Sun 10am - 6:30pm	",,,,,,,,,,,,,,,,,,
Glamour Beauty Salon,415-362-2007 ,N/A,No,Call for owner Dang,Fidi,"205 Jackson St, San Francisco, CA 94111","Mon-Sat 10am - 7pm	",,,,,,,,,,,,,,,,,,
Good Looks Salon,415-391-4045 ,N/A,No,,Fidi,"520 Montgomery St, Ste 104, San Francisco, CA 94111 ","Mon-Fri 9:30am - 7:30pm, Sat 11am - 3pm",,,,,,,,,,,,,,,,,,
Hollywood Eyebrow Threading,415-564-7777,N/A,No,,Stonestown,"3251 20th Ave, Ste 137A, San Francisco, CA 94132","Mon-Sat 10am - 9pm, Sun 11am - 6pm",,,,,,,,,,,,,,,,,,
Hong Kong Mona Hair Studio,415-335-8576,N/A,No,Supposed to follow up (never did),Inner Richmond,"307 4th Ave, San Francisco, CA 94118",Mon-Sun 10am - 7pm,,,,,,,,,,,,,,,,,,
Hue Hair Salon,415-655-9372,N/A,No,,Japantown,"1712 Fillmore St, San Francisco, CA 94115","Tue-sun 10am - 7pm, Sat 9am - 6pm",,,,,,,,,,,,,,,,,,
Ingleside Barber Shop,415-584-8997,N/A,No,Hung up thought I was solicitor,Ingleside Terraces,"393 Ashton Ave, San Francisco, CA 94112","Tue-Fri 9am - 8pm, Sat 8am - 5pm, Sun 8am - 12pm        ",,,,,,,,,,,,,,,,,,
Juicy Beauty Lounge,415-931-8881 ,N/A,No,,Lower Nob Hill,"1080 Sutter St, Ste 1, San Francisco, CA 94109 ","Mon-Fri 10 am - 7:30pm, Sat 9:30am - 5pm",,,,,,,,,,,,,,,,,,
Kaori Hair Salon,415-990-1375,N/A,No,Not interested - go in person,Japantown,"1680 Post St, Ste #C, San Francisco, CA 94115","Mon-Fri 11am - 8pm, Sat-Sun10am - 7pm",,,,,,,,,,,,,,,,,,
Linda Ocean Nails,415-584-8666 ,N/A,No,Call owner back,Mount Davidson Manor,"1910 Ocean Ave, San Francisco, CA 94127 ","Mon-Sat 10am - 8pm	",,,,,,,,,,,,,,,,,,
Modern Nail Bar,415-695-7472 ,N/A,No,Call back for owner,Dogpatch,"803 22nd St, San Francisco, CA 94107 ","Mon-Fri 10am - 8pm ,Sat 9am - 8pm       ",,,,,,,,,,,,,,,,,,
Nail Care For You,415-362-3347 ,N/A,No,Call back for owner,North Beach,"1507 Grant Ave, San Francisco, CA 94133 ","Mon-Fri 10am - 7pm ,Sat 9:30am - 7pm, Sun 10am - 7 pm       ",,,,,,,,,,,,,,,,,,
Nail Pretty,415-673-9818 ,N/A,No,Call back for owner,Presidio Heights,"3315 Sacramento St, San Francisco, CA 94118","Mon-Fri 9:30am - 7:30pm ,Sat-Sun 9am - 7pm	",,,,,,,,,,,,,,,,,,
Neva's Beauty,415-346-2238 ,N/A,Yes,Call mid Aug for updated pricing list,Lower Nob Hill,"2467 Lombard St, San Francisco, CA 94123 ","Mon-Sat 10am - 7pm,Sun 10am - 6pm	",,,,,,,,,,,,,,,,,,
New Age Nails North Beach,415-956-8807 ,N/A,Yes,lady didn't seem to care or want to tell owner - perhaps email owner,North Beach,"1543 Grant Ave, San Francisco, CA 94133 ","Mon-Sat 10am - 7:30 pm, Sun 10am - 6:30 pm	",,,,,,,,,,,,,,,,,,
New French Nails,415-495-0111 ,N/A,No,Call back for owner,Fidi,"425 Battery St, Ste D, San Francisco, CA 94111 ","Mon -Sat 9:30 am - 7:00 pm ,Sun 10am - 6pm",,,,,,,,,,,,,,,,,,
Noe Valley Nails,415-920-8923 ,N/A,No,,Noe Valley,"1484 Church St, San Francisco, CA 94131 ","Mon-Fri 9am - 7:30pm, Sat 9:am - 7pm, Sun 10am - 7pm        ",,,,,,,,,,,,,,,,,,
Nora Spa & Salon,415-369-9028 ,N/A,No,Call back for owner,Soma,"351 3rd St, San Francisco, CA 94107","Mon-Fri 10am - 7:30pm, Sat 9:30 am - 7pm, Sun 10 am - 7pm        ",,,,,,,,,,,,,,,,,,
QueenP Threading Salon,832-373-8462,N/A,Yes,,Financial District,"660 Market St, Ste #215, San Francisco, CA 94104","Mon 12pm - 7pm ,Tue-Thu 11am - 7pm ,Fri 11am - 6pm, Sat 12pm - 5pm                             ",,,,,,,,,,,,,,,,,,
Rainbow Nail Spa,415-241-0878 ,N/A,Yes,,Mission,"1845 Market St, San Francisco, CA 94103 ",Mon-Sun 10am - 7pm        ,,,,,,,,,,,,,,,,,,
Rani Threads Magic,510-648-1163,N/A,No,,Mission,"2435 Mission St, San Francisco, CA 94110","Mon-Sat 11am - 6:30pm , Sun 11am - 5pm	      ",,,,,,,,,,,,,,,,,,
Rejuve Beauty,415-993-2232,N/A,Yes,,Inner Sunset,"421 Post St, San Francisco, CA 94102",,,,,,,,,,,,,,,,,,,
Sally's Salon,415-929-6980,N/A,Yes,Call back for owner,Lower Pacific Heights,"1680 Post St, San Francisco, CA 94115",Tue-Sat 10am - 6pm,,,,,,,,,,,,,,,,,,
San Francisco Beauty Lounge,415-312-9901 ,N/A,No,,Union Square,"870 Market St, Ste 816, San Francisco, CA 94102","Tue-Fri 10am - 8pm, Wed 3pm - 7pm , Sat 10am - 7pm",,,,,,,,,,,,,,,,,,
Sasa Eyebrows Threading,510-944-2489,N/A,Yes,Supposed to text pics (never did),Mission,"2359 Mission St, San Francisco, CA 94110","Mon-Fri 11am - 7pm  , Sat 11am - 6:30 pm        ",,,,,,,,,,,,,,,,,,
Shear Irish,415-682-8803,N/A,No,Owner supposed to call,Parkside,"2393 16th Ave, San Francisco, CA 94116","Tue-Fri 10am - 7pm, Sat 10am - 5pm        ",,,,,,,,,,,,,,,,,,
SHE-SHE Nail Salon,415-681-3559 ,N/A,No,They don't get it - go in person,West Portal,"167 W Portal Ave, San Francisco, CA 94127 ","Mon-Sun 9am - 7:30 pm	",,,,,,,,,,,,,,,,,,
Silky Touch Nail Salon,415-255-8527 ,N/A,No,,Lower Haight,"544 Haight St, San Francisco, CA 94117 ",Mon-Sun 10am - 8pm,,,,,,,,,,,,,,,,,,
Sovan's Eyebrows Threading,410-585-5187,N/A,No,,Financial District,"520 Montgomery St, Ste M01, San Francisco, CA 94111","Mon-Fri 10am - 7pm	",,,,,,,,,,,,,,,,,,
Sujie Brows Salon,415-234-8257,N/A,No,,Mission,"2088 Mission St, San Francisco, CA 94110","Mon-Fri 11am - 7pm, Sat 11am - 6pm                ",,,,,,,,,,,,,,,,,,
Sunset Barber Service,415-564-4744,N/A,Yes,,Inner Sunset,"1374 9th Ave, San Francisco, CA 94122","Tue-Fri  8 am - 6pm,Sat 7am - 4pm        ",,,,,,,,,,,,,,,,,,
Sutro Gold,415-668-4050,N/A,No,,Inner Richmond,"4050 Geary Blvd, San Francisco, CA 94118","Mon-Sat 12pm - 8pm ,Tue-Fri 3pm - 8pm               ",,,,,,,,,,,,,,,,,,
T & T Nails,415-750-0287 ,N/A,No,,Inner Richmond,"405 Arguello Blvd, San Francisco, CA 94118 ",Mon-Sat 10am - 7pm        ,,,,,,,,,,,,,,,,,,
Taylor Williams Massage,831-234-6517,N/A,No,,Visitacion Valley,"19 Tucker Ave, Francisco, CA 94134",Mon-Fri 7am - 2pm,,,,,,,,,,,,,,,,,,
The Avenues Spa,415-702-6735 ,N/A,Yes,,Inner Richmond,"3929 California St, San Francisco, CA 94118 ","Mon-Fri 10am - 7pm , Sat-Sun 10am - 6pm        ",,,,,,,,,,,,,,,,,,
The Final Touch 2,415-351-2088 ,N/A,Yes,Said she will text me pics of menu and inside/outside salon (never did),Lower Pacific Heights,"514 Presidio Ave, San Francisco, CA 94115 ",Mon-Sat 9am - 7pm        ,,,,,,,,,,,,,,,,,,
Tina's Nails,415-346-5725 ,N/A,No,,Lower Nob Hill,"931 Bush St, San Francisco, CA 94109"," Mon-Sat 10am - 7:30pm, Sun 10am - 6pm               ",,,,,,,,,,,,,,,,,,
Tint Nail Spa,415-638-6370 ,N/A,Yes,,Nob Hill,"1262 Mason St, San Francisco, CA 94108 ",Mon-Sun 10am - 7pm        ,,,,,,,,,,,,,,,,,,
Trio Nails,415-931-9261 ,N/A,Yes,,Lower Pacific Heights,"1832 Buchanan St, Ste B, San Francisco, CA 94115 ","Mon-Sat 10am - 7pm,Sun 10am - 6pm        ",,,,,,,,,,,,,,,,,,
Union Nails,415-931-0414 ,N/A,No,Husband can send pic by text she doesn't know how- gave her my number,Nob Hill,"1601 Pacific Ave, San Francisco, CA 94109","Mon-Sun 9am - 8pm	",,,,,,,,,,,,,,,,,,
Zen Beauty Spa,415-661-6852 ,N/A,Yes,"working on updated pricing menu, call next week (week of 7/29) to ask again",West Portal,"221 W Portal Ave, San Francisco, CA 94127","Mon-Sun 9am - 7pm	",,,,,,,,,,,,,,,,,,
Razo's Barber Shop,415-494-5932,N/A ,Yes,Tester,Excelsior,"4477 Mission St, San Francisco, CA 94112","Mon 9am - 8pm, Tue-Sat 9am - 8:30pm ,Sun 9am - 7 pm              ",,,,,,,,,,,,,,,,,,
1512 Barber Shop,415-286-4371,From website (up to date),No,Call to ask for personal email again,Potrero Hill,"1532 20th St, San Francisco, CA 94107",,,,,,,,,,,,,,,,,,,
Cascade Nail & Spa,415-345-9188 ,From website (up to date),Yes,,Russian Hill,"2139 Polk St, Ste B, San Francisco, CA 94109 ",Mon-Sun 10am -10pm        ,,,,,,,,,,,,,,,,,,
Castro Nail Salon,415-252-1657 ,From website (up to date),Yes,,Castro,"431 Castro St, San Francisco, CA 94114 ",Mon-Sun 10am - 7pm,,,,,,,,,,,,,,,,,,
City Famous Nail Spa,415-346-4151 ,From website (up to date),No,,Cow Hollow,"2272 Lombard St, San Francisco, CA 94123 ",Mon-Sat 10am - 7pm,,,,,,,,,,,,,,,,,,
Cocoon Urban Day Spa,415-777-0100 ,From website (up to date),Yes,,SoMa,"330 1st St, Fl 2, San Francisco, CA 94105 ","Mon 10am - 6pm ,Tue 10am - 8pm, Sat-Sun 10am - 6pm	      ",,,,,,,,,,,,,,,,,,
Elite Salon,415-359-9082,From website (up to date),Yes,,Russian Hill,"1409 Green St, San Francisco, CA 94109","Mon-Fri 10am - 7pm, Sat-Sun 10am - 6pm	        ",,,,,,,,,,,,,,,,,,
Eyebrow Plus,415-543-2769,From website (up to date),No,,SoMa,"865 Market St, San Francisco, CA 94103","Mon-Sat 10am - 8:30pm, Sun 11am - 7pm        ",,,,,,,,,,,,,,,,,,
Eyebrow Shapers,650-771-1362,From website (up to date),Yes,,Mission,"2300 16th St, San Francisco, CA 94103","Mon11:30 am - 7pm,Tue-Wed10am - 6pm,Thu-Fri 10am - 7:pm,Sat-Sun 10am - 5pm               ",,,,,,,,,,,,,,,,,,
Eyebrowcare,415-757-0881,From website (up to date),No,,Mission,"3401 Cesar Chavez, San Francisco, CA 94110","Mon-Sat 10am - 7pm	",,,,,,,,,,,,,,,,,,
Eyebrows To Die For,415-346-9956,From website (up to date),No,,Cow Hollow,"2660 Gough St, Ste 204 San Francisco, CA 94123","Tue-Wed 10am - 7pm,Thu-Fri 10am - 3pm",,,,,,,,,,,,,,,,,,
EZ Brow & Beauty,415-849-6080,From website (up to date),Yes,, Japantown,"1820 Fillmore St, San Francisco, CA 94115",Tue-Sun 11am - 6pm        ,,,,,,,,,,,,,,,,,,
EZ Threads,415-758-8344,From website (up to date),Yes,,Financial District,"211 Sutter St, Ste #703, San Francisco, CA 94108","Mon-Fri 11am - 6:30 pm, Sat 11am - 5pm		",,,,,,,,,,,,,,,,,,
Fellow Barber,415-621-9000,From website (up to date),No,,Mission,"696 Valencia St, San Francisco, CA 94110","MonFri 9am - 9pm,Sat 9am - 7pm,Sun 9am - 6pm	",,,,,,,,,,,,,,,,,,
Fix Studios,415-626-6228,From website (up to date),No,,Mission,"228 Valencia St, San Francisco, CA 94103","Mon-Thu 11am - 7pm , Fri-Sat 10am - 5pm	      ",,,,,,,,,,,,,,,,,,
Freedom Barber SF,415-851-4965,From website (up to date),Yes,,Financial District,"520 Montgomery St, Ste #107, San Francisco, CA 94111",Tue-Fri 10am - 7pm,,,,,,,,,,,,,,,,,,
Fresh Blades Barbershop,415-872-9342,From website (up to date),No,,Nob Hill,"1346 Polk St, San Francisco, CA 94109","Mon 12pm - 8pm, Tue-Sat 10am - 8pm ,  Sun 12pm - 5pm	    ",,,,,,,,,,,,,,,,,,
G Salon,415-682-8019,From website (up to date),No,,Cow Hollow,"1381A 9th Ave, San Francisco, CA 94122","Mon-Fri 10am - 8pm,Sat 9am - 6pm        ",,,,,,,,,,,,,,,,,,
Golia Beauty enter,415-956-1089,From website (up to date),No,,Chinatown,"737 Grant Ave, San Francisco, CA 94108,",Mon-Sun 10am - 10pm        ,,,,,,,,,,,,,,,,,,
Haight Street Nails,415-221-8928 ,From website (up to date),No,,The Haight,"1784 Haight St, San Francisco, CA 94117 ","Mon-Tue 10:30 am - 7pm, Wed-Sat 10:30am - 7:30pm,Sun 10:30am - 6:30pm                       ",,,,,,,,,,,,,,,,,,
Hair Caffe Workshop,415-525-4678,From website (up to date),Yes,,Lower Pacific Heights,"2176 Sutter St, San Francisco, CA 94115","Mon-Sat11am - 8pm,Sat 10am - 8pm,Sun 10am - 5pm                ",,,,,,,,,,,,,,,,,,
Hair Candy SF,415-550-8238,From website (up to date),No,,Mission,"1380 Valencia St, San Francisco, CA 94110",Tue-Sat 10am - 6pm,,,,,,,,,,,,,,,,,,
Hairetics Salon,415-503-1424,From website (up to date),Yes,,SoMa,"219 7th St, San Francisco, CA 94103","Tue-Sat 10am - 7pm	",,,,,,,,,,,,,,,,,,
Hana Skin Care,415-763-9202,From website (up to date),No,,Lower Pacific Heights,"1610 Post St, Ste 100, San Francisco, CA 94115","Tue-Sat 9am - 7pm ,Sun 11am - 6pm        ",,,,,,,,,,,,,,,,,,
Hand Job Spa,415-863-2243 ,From website (up to date),No,,Castro,"565 Castro St, San Francisco, CA 94114 ","Mon-Sat 10am - 8pm,Sun 11am - 7pm	        ",,,,,,,,,,,,,,,,,,
Healing Shiatsu,415-379-9739,From website (up to date),No,,Outer Richmond,"3735 Balboa St, San Francisco, CA 94121",Mon-Sun 10am - 9pm,,,,,,,,,,,,,,,,,,
Healthy living Spa,415-668-0368,From website (up to date),Yes,,Inner Richmond,"369 3rd Ave, San Francisco, CA 94118",Mon-Sun 10am - 9pm,,,,,,,,,,,,,,,,,,
Hector Estrada Salon,415-861-0142,From website (up to date),No,,Hayes Valley,"142 Fillmore St, San Francisco, CA 94117","Wed-Fri 12 pm - 8pm, Sat-Sun 11am - 7pm",,,,,,,,,,,,,,,,,,
Honeycomb Salon,415-401-0100,From website (up to date),Yes,,Noe Valley,"3915 24th St, Ste C, San Francisco, CA 94114","Tue 11am - 4pm, Wed-Fri 11am - 8pm,	Sun11am - 4pm      ",,,,,,,,,,,,,,,,,,
Hook & Scissor,415-872-9585,From website (up to date),Yes,,SoMa,"303 2nd St d, San Francisco, CA 94107","Mon-Fri 10am - 7pm	",,,,,,,,,,,,,,,,,,
Imperial Spa,415-771-1114,From website (up to date),Yes,,Western Addition,"1875 Geary Blvd, San Francisco, CA 94115",Mon-Sun 8am - 10pm,,,,,,,,,,,,,,,,,,
Ingenious Salon,415-876-4643,From website (up to date),No,,Inner Richmond,"389 Arguello Blvd, San Francisco, CA 94118","Tue 9:30am - 5pm,Wed 12pm - 8pm,Thu-Sat 9:30am - 8pm                ",,,,,,,,,,,,,,,,,,
Iyara Traditional Thai Massage,415-379-1111,From website (up to date),Yes,,Inner Richmond,"4328 Geary Blvd, San Francisco, CA 94118",Mon-Sun 11am - 8pm,,,,,,,,,,,,,,,,,,
Jan Massage,415-563-0100,From website (up to date),Yes,, Lower Pacific Heights,"1610 Post St, Ste 103, San Francisco, CA 94115",Mon-Sun 11am - 8pm,,,,,,,,,,,,,,,,,,
JoJe Nail Spa,415-872-9887 ,From website (up to date),No,,Mission,"1003 Guerrero St, San Francisco, CA 94110 ","Mon-Sat 10am - 7:30pm ,Sun 10am -7pm        ",,,,,,,,,,,,,,,,,,
Joli Bijou Salon,415-525-4970 ,From website (up to date),Yes,,Pacific Heights,"2550 Sacramento St, San Francisco, CA 94115 ","Tue-Sat 10am - 7pm,Sun 10am - 6pm                ",,,,,,,,,,,,,,,,,,
KT Nails,415-928-1698 ,From website (up to date),Yes,,Nob Hill,"1722 Polk St, San Francisco, CA 94109 ",Mon-Sun 10am - 7:30pm        ,,,,,,,,,,,,,,,,,,
La Petite Nail Shop,415-796-2863 ,From website (up to date),Yes,,Potrero Hill,"601 Kansas St, San Francisco, CA 94107 ","Mon 11am - 7pm ,Tue 10am - 7pm,Wed 11am - 7pm,Thu-Sun 10am - 7pm",,,,,,,,,,,,,,,,,,
Lux SF,415-255-4589 ,From website (up to date),Yes,,Hayes Valley,"490 Hayes St, San Francisco, CA 94102 ","Mon-Fri 10am - 9pm,Sat 10am - 7pm,Sun 10am - 9pm	                ,",,,,,,,,,,,,,,,,,,
Mimosa Nails,415-345-1203 ,From website (up to date),Yes,,Lower Pacific Heights,"1908 Divisadero St, San Francisco, CA 94115","Mon-Sun 10am - 7pm	",,,,,,,,,,,,,,,,,,
Mizu Spa,415-278-9988 ,From website (up to date),Yes,,Mission Bay,"1150 4th St, San Francisco, CA 94158","Tue-Sat 11am - 7pm        ,Sun        10am - 6pm        ",,,,,,,,,,,,,,,,,,
Nail Today,415-567-8722 ,From website (up to date),Yes,,Cow Hollow,"2147 Union St, San Francisco, CA 94123 ","Mon-Sat 9:30 am - 7:30 pm, Sun10am - 7pm",,,,,,,,,,,,,,,,,,
Nepenji Japan Center Beauty Clinic,415-921-0135,From website (up to date),No,,Japantown,"1825 Post St, Ste # 160, San Francisco, CA 94115","Mon-Sun 10am - 7pm	",,,,,,,,,,,,,,,,,,
Nirvana Beauty & Brows,415-658-7486,From website (up to date),Yes,,Financial District,"7 Columbus Ave, San Francisco, CA 94111","Mon-Fri 10am - 6:30pm ,Sat 10am - 6pm ,Sun 11am - 5pm        ",,,,,,,,,,,,,,,,,,
NOPA Bodyworks,415-225-6781,From website (up to date),Yes,,NoPa,"1743 Hayes St, San Francisco, CA 94117","Mon-Fri 6pm - 9pm, Sun 5pm - 9pm		",,,,,,,,,,,,,,,,,,
ORO Duboce,415-872-6172,From website (up to date),Yes,,Duboce Triangle,"435A Duboce Ave, San Francisco, CA 94117","Tue-Fri 11am - 7pm,Sat 10am - 5pm, Sun 11am - 6pm	",,,,,,,,,,,,,,,,,,
Oxygen Massage Therapy Mission,415-738-7708,From website (up to date),No,,Bernal Heights,"14 Precita Ave, San Francisco, CA 94110","Mon-Sat 9am - 9pm, Sun 10am - 7pm        ",,,,,,,,,,,,,,,,,,
Park Parlor HairStyling,415-780-1935,From website (up to date),No,,Inner Sunset,"1239 A 9th Ave, San Francisco, CA 94122","Tue-Wed 11am -7pm ,Fri 11am - 7pm,Sat-Sun 9am - 6pm	,",,,,,,,,,,,,,,,,,,
Patina Skin & Wax,916-847-7758,From website (up to date),Yes,,Inner Richmond,"4000 California St, San Francisco, CA 94118","Tue-Thu 11am - 7pm ,Fri 11am - 6pm,Sat 10am - 4 pm	",,,,,,,,,,,,,,,,,,
Patrick Evan Hair Salon,415-421-1111,From website (up to date),Yes,,Financial District,"55 Grant Ave, San Francisco, CA 94108",Mon-Sun 11am - 7pm        ,,,,,,,,,,,,,,,,,,
Pearl Spa & Sauna,415-580-7142,From website (up to date),Yes,,Lower Pacific Heights,"1656 Post St, San Francisco, CA 94115",Mon-Sun 8am - 9pm,,,,,,,,,,,,,,,,,,
Polish Nail & Beauty Spa,415-780-1912 ,From website (up to date),No,,Inner Richmond,"301 Cornwall St, San Francisco, CA 94118 ","
Mon-Sun 10am - 7pm",,,,,,,,,,,,,,,,,,
Polished Nest,415-543-0993 ,From website (up to date),Yes,,Mission Bay,"470 3rd St, San Francisco, CA 94107 ","Tue-Fri 11am - 7pm, Sat-Sun 10am - 6pm	",,,,,,,,,,,,,,,,,,
Q Spa,415-885-1272 ,From website (up to date),Yes,,NoPa,"604 Divisadero St, San Francisco, CA 94117 ","Mon-Fri 11am - 7:30pm, Sat 10am - 7pm, Sun 10am - 6pm",,,,,,,,,,,,,,,,,,
SF Nail Bar,415-796-3447 ,From website (up to date),Yes,,Castro,"2275 Market St, Unit B, San Francisco, CA 94114 ","Tue-Fri 11am - 7pm	,Sat-Sun 10am - 7pm",,,,,,,,,,,,,,,,,,
Silk Day Spa,415-885-3277 ,From website (up to date),Yes,,Lower Pacific Heights,"1425 Franklin St, San Francisco, CA 94109 ","
Mon-Fri 9am - 7:30pm, Sat 9am - 7pm, Sun 10am - 6pm",,,,,,,,,,,,,,,,,,
Simply Unique Nails,415-255-4772 ,From website (up to date),Yes,,Duboce Triangle,"734 14th St, San Francisco, CA 94114 ","Mon-Fri 10am - 8pm, Sat 10am - 7pm, Sun 11am - 6:30pm        ",,,,,,,,,,,,,,,,,,
Super Nails & Spa,415-566-8585 ,From website (up to date),No,,Stonestown,"3251 20th Ave, Ste 234, San Francisco, CA 94132 ","
Mon-Sat 10am - 9pm, Sun 12pm - 6pm",,,,,,,,,,,,,,,,,,
Sutter Nails,415-398-3939 ,From website (up to date),Yes,,Union Square,"539 Sutter St, San Francisco, CA 94102","
Mon-Sat 9:30am - 7:30pm, Sun 9:30am - 7pm",,,,,,,,,,,,,,,,,,
Sweeties Nail Salon,415-702-5103 ,From website (up to date),No,,Telegraph Hill,"1455 Powell St, Ste 103, San Francisco, CA 94133 ",Wed-Sun 10:30am - 7:30pm,,,,,,,,,,,,,,,,,,
Sydney Nail Spa,415-928-1268 ,From website (up to date),Yes,,Marina,"2758 Octavia St, San Francisco, CA 94123 ","Mon-Fri 10am - 7:30pm, Sat-Sun 9:30am - 7pm",,,,,,,,,,,,,,,,,,
Ten Zen Nail Spa,415-306-8868 ,From website (up to date),Yes,,Union Square,"207 Powell St, Fl 3, San Francisco, CA 94102 ",Tue-Sat 11am-7pm,,,,,,,,,,,,,,,,,,
The Upper Hand,415-359-7918 ,From website (up to date),No,,Noe Valley,"3836 24th St, San Francisco, CA 94114","Mon-Sat 10am-7pm, Sun 10am-6pm",,,,,,,,,,,,,,,,,,
Thi Spa & Nails - SOMA,415-939-8689 ,From website (up to date),Yes,,SoMa,"811 Mission St, San Francisco, CA 94103 ","Mon-Sat 10am-7:30pm, Sun 10am-7pm",,,,,,,,,,,,,,,,,,
Tiptoes Nail Spa,415-626-8637 ,From website (up to date),Yes,,Potrero Hill,"300 De Haro St, Ste 336, San Francisco, CA 94103 ","Mon 10:30am-7pm, Tue-Sat 10am-7pm, Sun 10am-6:30pm",,,,,,,,,,,,,,,,,,
Tootsie Toes,415-359-9844 ,From website (up to date),Yes,,Nob Hill,"1741 Polk St, San Francisco, CA 94109","Mon-Sat 10am-7:30pm, Sun 10am-7pm",,,,,,,,,,,,,,,,,,
Vanity Beauty Lounge,415-362-2242 ,From website (up to date),Yes,,Financial District,"3 Embarcadero Ctr, Lobby Level, Fl 2, San Francisco, CA 94111 ",Mon-Fri 10am-7pm,,,,,,,,,,,,,,,,,,
White Daisy Nail Spa,415-566-8609 ,From website (up to date),No,,West Portal,"309 West Portal Ave, San Francisco, CA 94127","Mon-Sat 9am-7pm, Sun 9:30am-6pm",,,,,,,,,,,,,,,,,,
ZaZa Nail and Wine Lounge,415-495-6292 ,From website (up to date),Yes,,South Beach,"543 2nd St, San Francisco, CA 94107","Mon 11am-7pm, Tue-Sat 10am-7pm, Sun 10am-6pm",,,,,,,,,,,,,,,,,,
Green Spa & Nail,415-702-6704 ,Menu pic from April 2017,No,Owner to call back,Inner Sunset,"347 Judah St, San Francisco, CA 94122 ","Mon-Sat 10am-7:30pm, Sun 10am-7pm",,,,,,,,,,,,,,,,,,
Sugarcoat,415-441-1868 ,Menu pic from April 2018,No,Call back for owner,Lower Nob Hill,"619 Post St, San Francisco, CA 94109 ","Mon-Sat 10am-7:30pm, Sun 10am-7pm",,,,,,,,,,,,,,,,,,
Hidden Beauty,510-589-4175,Menu pic from April 2019,No,,,"101 B Hickey Blvd, South San Francisco, CA 94080","Tue 10am-5:30pm, Wed 10am-4:45pm, Thu 10am-5:30pm, Fri 9am-5:30pm, Sat 9am-4pm",,,,,,,,,,,,,,,,,,
Doan's Nail,415-788-9778 ,Menu pic from Aug 2018,No,Call back for owner,Union Square,"500 Sutter St, Ste 812, San Francisco, CA 94102 ",Mon-Sat 10am-7pm,,,,,,,,,,,,,,,,,,
Pearly Nails,415-567-2866 ,Menu pic from Aug 2018,Yes,,Pacific Heights,"2105 Van Ness Ave, San Francisco, CA 94109 ",Wed-Mon 10am-7pm,,,,,,,,,,,,,,,,,,
Soubella Nails Spa,415-346-0100 ,Menu pic from Aug 2018,Yes,,Pacific Heights,"2824 California St, San Francisco, CA 94115 ",Tue-Sun 10am-7pm,,,,,,,,,,,,,,,,,,
Four Seasons Nails And Spa,415-282-2531 ,Menu pic from Dec 2018,No,Call back for owner - Vacation until Aug 15,Bernal Heights,"451B Cortland Ave, San Francisco, CA 94110 ","Mon-Sat 9:30am-7:30pm, Sun 9:30am-6:30pm",,,,,,,,,,,,,,,,,,
SF Nail Spa,415-564-5581 ,Menu pic from Dec 2018,Yes,,Outer Sunset,"1324 Noriega St, San Francisco, CA 94122 ","Tue-Sat 10am-7pm, Sun 10am-6pm",,,,,,,,,,,,,,,,,,
Fingertips Nail Salon,415-567-2092 ,Menu pic from Feb 2018,No,,Lower Pacific Heights,"1309 Sutter St, San Francisco, CA 94109 ",Mon-Sat 9:30am-7:30pm,,,,,,,,,,,,,,,,,,
Gentle Nails Salon,415-702-6559 ,Menu pic from Feb 2019,No,,Inner Sunset,"1414 9th Ave, San Francisco, CA 94122 ",Mon-Sat 10am-7:30pm,,,,,,,,,,,,,,,,,,
Nate's Barbershop,415-573-6445,Menu pic from February  2019,Yes,,Oceanview,"203 Broad St, San Francisco, CA 94112","Mon-Wed 6:15am-6pm, Thu-Fri 6:15am-7pm, Sat 7am-2pm",,,,,,,,,,,,,,,,,,
Threading by USHA,415-447-7748,Menu pic from July 2019,Yes,Owner Vikesh; Tester,Cow Hollow,"1757 Union St, Salon Macias, San Francisco, CA 94123","Tue-Fri 11am-7pm, Sat 10am-6pm, Sun 10am-5pm",,,,,,,,,,,,,,,,,,
Diane Nails Care,415-621-1220 ,Menu pic from June 2018,No,,Lower Haight,"681 Haight St, San Francisco, CA 94117 ","Mon-Fri 10:30am-8pm, Sat 10am-7:30pm, Sun 10am-7pm",,,,,,,,,,,,,,,,,,
It's M3 Time Nail Salon,415-824-1887 ,Menu pic from June 2018,Yes,,Mission,"3278 21st St, Ste A, San Francisco, CA 94110 ","Mon-Fri 10am-7:30pm, Sat 10am-7pm, Sun 11am-6:30pm",,,,,,,,,,,,,,,,,,
Sunset Nails,415-566-9888 ,Menu pic from June 2018,No,,Outer Sunset,"1810 Irving St, San Francisco, CA 94122 ","Mon-Sat 10am-7pm, Sun 10am-6pm",,,,,,,,,,,,,,,,,,
Sensi Luxury Nails & Spa,415-665-6245 ,Menu pic from March 2014,No,,Inner Sunset,"338 Judah St, San Francisco, CA 94122 ","Tue-Thu 11am-7:30pm, Fri-Sun 10:30am-7pm",,,,,,,,,,,,,,,,,,
Fine Line Barbershop,415-587-3744,Menu pic from May  2015,No,,Outer Mission,"1796A San Jose Ave, San Francisco CA 94112","Tue-Thu 10am-7pm, Fri-Sat 9am-4pm",,,,,,,,,,,,,,,,,,
Hair Shaper,415-979-9772,Menu pic from May  2017,Yes,,"Financial District, SoMa","101 Spear St, Ste A2, San Francisco, CA 94105","Mon-Fri 9am-7pm, Sat 10am-6pm",,,,,,,,,,,,,,,,,,
Gelous Nails,415-643-5592 ,Menu pic from May 2015,No,,Noe Valley,"3915 24th St, Ste A, San Francisco, CA 94114 ","Mon-Sat 9:30am-7:30pm, Sun 10am-7pm",,,,,,,,,,,,,,,,,,
Eyebrow Queen Salon,415-969-0004,Menu pic from May 2018,Yes,,Mission,"3196 24th St, San Fraqncisco, CA 94110","Mon-Fri 10am-7pm, Sat 10am-6pm, Sun 11am-6pm",,,,,,,,,,,,,,,,,,
Nels Beauty Salon,415-987-6357 ,Menu pic from May 2018,Yes,,NoPa,"921 Divisadero St, San Francisco, CA 94115 ",Mon-Sun 10:30am-7:30pm,,,,,,,,,,,,,,,,,,
Elegant Nails Salon,415-441-7177 ,Menu pic from May 2019,No,,Cow Hollow,"1688 Lombard St, Ste A, San Francisco, CA 94123 ",Mon-Sun 9:30am-7:30pm,,,,,,,,,,,,,,,,,,
Nailtastic Salon,415-494-5691 ,Menu pic from May 2019,No,,Excelsior,"4739 Mission St, San Francisco, CA 94112 ",Mon-Sat 10am-7pm,,,,,,,,,,,,,,,,,,
Spectrum Nails Spa,415-483-5028 ,Menu pic from May 2019,No,,Inner Richmond,"4438 California St, San Francisco, CA 94118 ","Mon-Sat 10am-7pm, Sun 10am-6:30pm",,,,,,,,,,,,,,,,,,
Mani-Pedi Beauty Spa,415-285-1339 ,Menu pic from Nov 2017,No,,Noe Valley,"4106 24th St, San Francisco, CA 94114 ","Mon-Sat 10am-7:30pm, Sun 10am-7pm",,,,,,,,,,,,,,,,,,
Healthy Massage,415-239-2188,Menu pic from November 2017,Yes,,Crocker-Amazon,"1150 Geneva Ave, San Francisco, CA 94112","Mon 11am-9:30pm, Wed-Fri 11am-9:30pm, Sat-Sun 10am-9:30pm",,,,,,,,,,,,,,,,,,
Forever Nails by Kim,415-682-5528 ,Menu pic from Oct 2017,No,,Parkside,"601 Taraval St, San Francisco, CA 94116 ",Thu-Tue 9am-7pm,,,,,,,,,,,,,,,,,,
Nali Nails & Spa,415-872-9000 ,Menu pic from Oct 2018,No,,"Lower Pacific Heights, Japantown","1971 Sutter St, San Francisco, CA 94115 ","Mon-Sat 9:30am-7:30pm, Sun 10am-7pm",,,,,,,,,,,,,,,,,,
Oliviana Nail Spa,415-29-1023 ,Menu pic from Oct 2018,Yes,,Bayview-Hunters Point,"4343 3rd St, San Francisco, CA 94124 ",Mon-Sun 9am-9pm,,,,,,,,,,,,,,,,,,
Rosy Heels,415-861-4889 ,Menu pic from Oct 2018,Yes,,SoMa,"180 7th St, Ste 101, San Francisco, CA 94103",Mon-Sat 9:30am-7pm,,,,,,,,,,,,,,,,,,
The Nail Room,415-422-0688 ,Menu pic from October   2015,No,,Inner Richmond,"4205 Geary Blvd, San Francisco, CA 94118","Mon-Fri 10:30am-7pm, Sat-Sun 10am-7pm",,,,,,,,,,,,,,,,,,
Pampered Hands Salon,415-777-4263 ,Menu pic from Sep 2014,Yes,,"Financial District, SoMa","180 Howard St, Ste G-3, San Francisco, CA 94105 ","Mon-Fri 9am-7pm, Sat 10am-5pm",,,,,,,,,,,,,,,,,,
People's Barber & Shop,415-658-7799, From website (up to date),No,,South Beach,"133 Townsend St, San Francisco, CA 94107","Mon-Fri 9am-8pm, Sat 9am-5pm",,,,,,,,,,,,,,,,,,
Lush Massage,510-698-9194,From webiste (up to date),Yes,,Mission,"2460 Mission St, Ste 104, San Francisco, CA 94110",Fri-Sat 10:30am-7pm,,,,,,,,,,,,,,,,,,
Arthur Sebastian,415-501-0338,From website (up to date),No,,Cow Hollow,"1996 Union St, San Francisco, CA 94123",Tue-Sat 10am-8pm,,,,,,,,,,,,,,,,,,
Atelier Emmanuel,415-800-7572,From website (up to date),Yes,,"Financial District, Union Square","9 Claude Ln, San Francisco, CA 94108","Tue-Wed 9am-7pm, Thu-Fri 9am-8pm, Sat 9am-6pm",,,,,,,,,,,,,,,,,,
Bebe Skin Care & Threading,415-845-5615,From website (up to date),No,,Japantown,"1731 Buchanan St, San Francisco, CA 94115","Wed-Fri 11am-6:30pm, Sat 9:30am-5pm, Sun 9am-4pm",,,,,,,,,,,,,,,,,,
Blade Runners Hair Studio,415-751-1723,From website (up to date),Yes,,"The Haight
","1792 Haight St, San Francisco, CA 94117","Tue 12am-9pm, Wed 12am-8pm, Thu 12am-9pm, Fri 12am-8pm, Sat 10am-6pm",,,,,,,,,,,,,,,,,,
Blades Co Barber Shop,415-306-3773,From website (up to date),Yes,Owner: Susan; info@blades.com,Financial District,"13 Columbus Ave, San Francisco, CA 94111","Mon-Fri 10am-7pm, Sat 9am-5pm",,,,,,,,,,,,,,,,,,
Brows n More,415-344-0009,From website (up to date),No,,"SoMa, Financial District","161 Fourth St, San Francisco, CA 94103","Mon-Sat 10am-8:30pm, Sun 11am-6pm",,,,,,,,,,,,,,,,,,
Bryan Roberts Salon & Color Bar,415-626-7700,From website (up to date),No,,Castro,"561 Castro St, San Francisco, CA 94114","Tue-Thu 12pm-8pm, Fri 11am-7pm, Sat 9am-6pm, Sun 10am-4pm",,,,,,,,,,,,,,,,,,
Buddha Bliss Therapeutic Massage*,415-565-9634,From website (up to date),Yes,,Lower Nob Hill,"873 Sutter St, Ste B, San Francisco, CA 94109","Mon-Fri 10am-8:30pm, Sat-Sun 10am-7pm",,,,,,,,,,,,,,,,,,
Cetana Salon,415-371-1335,From website (up to date),Yes,Manager: Jay; jay@cetanasalonspa.com ,South Beach,"155 Brannan St, San Francisco, CA 94107","Tue 9am-8:30pm, Wed 9am-7pm, Thu-Fri 8am-8:30pm, Sat 9am-6pm, Sun 10am-6pm",,,,,,,,,,,,,,,,,,
Charles W Thomas,415-805-3403,From website (up to date),No,,Presidio Heights,"3571 Sacramento St, San Francisco, CA 94118",Tue-Sat 9am-6pm,,,,,,,,,,,,,,,,,,
Choice Brow Threading,415-504-5905,From website (up to date),No,call Friday for owner,SoMa,"1005 Market St, San Francisco, CA 94103","Mon-Fri 10:30am-7pm, Sat 11am-6pm",,,,,,,,,,,,,,,,,,
Code Salon,415-624-8340,From website (up to date),Yes,,SoMa,"370 4th St, Fl 2, San Francisco CA 94107","Tue-Fri 10am-8pm, Sat 9am-6pm",,,,,,,,,,,,,,,,,,
Cowboys & Angels,415-362-8516,From website (up to date),Yes,,Union Square,"207 Powell St, Ste #400, San Francisco, CA 94102","Tue-Wed 10am-7pm, Thu 11am-8pm, Fri 10am-7pm, Sat 9am-6pm",,,,,,,,,,,,,,,,,,
Damia Salon,415-824-1707,From website (up to date),No,,Noe Valley,"1504 Church St, San Francisco, CA 94131","Tue-Fri 11am-7pm, Sat 10am-6pm",,,,,,,,,,,,,,,,,,
e Salon,415-563-5655,From website (up to date),Yes,,Cow Hollow,"2288 Union St, San Francisco, CA 94123","Mon-Fri 10am-8pm, Sat 9am-6pm",,,,,,,,,,,,,,,,,,
Earthbody,415-552-7200,From website (up to date),Yes,,Hayes Valley,"534 Laguna St, San Francisco, CA 94102","Wed-Mon 9am-9:45pm, Tue 12pm-6:30pm",,,,,,,,,,,,,,,,,,
Edo Salon,415-861-0131,From website (up to date),Yes,,Lower Haight,"601 Haight St, San Francisco, CA 94117","Sun-Fri 10am-8pm, Sat 10am-7pm",,,,,,,,,,,,,,,,,,
Jasmine Massage Spa,415-550-8738,From website (up to date),No,*Jasmine Beauty Spa,Mission,"3085 24th St, Ste 203, San Francisco, CA 94110",Mon-Sun 1pm-8pm,,,,,,,,,,,,,,,,,,
John Francis Spa,415-861-3000,From website (up to date),Yes,,Castro,"4200 18th, St #101, San Francisco, CA 94114","Tue 11am-6pm, Wed 12am-6pm, Thu 11am-6pm, Fri 12am-6pm, Sat 11am-5pm",,,,,,,,,,,,,,,,,,
JP Kempt Barber,415-437-1300,From website (up to date),Yes,,Lower Haight,"351 Divisadero St, San Francisco, CA 94117","Mon-Fri 10am-6:30pm,  Sat 9pm-5pm, Sun 10am-6pm",,,,,,,,,,,,,,,,,,
Jungle Red,415-934-9755,From website (up to date),Yes,,Castro,"4233 18th St, San Francisco, CA 94114","Tue 10am-7pm, Wed 10am-6pm, Thu 11am-7pm, Fri 10am-7pm, Sat 10am-6pm",,,,,,,,,,,,,,,,,,
Jun's Beauty Salon,415-564-8982,From website (up to date),No,,Inner Sunset,"1373 7th Ave, San Francisco, CA 94122","Mon-Fri 10am-7pm, Sat-Sun 9am-6pm",,,,,,,,,,,,,,,,,,
Kabuki Springs & Spa,415-922-6000,From website (up to date),Yes,,Japantown,"1750 Geary Blvd, San Francisco, CA 94115",Mon-Sun 10am-10pm,,,,,,,,,,,,,,,,,,
Keter Salon,510-849-0306,From website (up to date),Yes,,West Berkeley,"2030 Fourth St, Berkeley, CA 94710","Mon 8am-3pm, Tue-Fri 8am-9pm, Sat-Sun 9am-5pm",,,,,,,,,,,,,,,,,,
Kinship Salon & Barber,415-735-9300,From website (up to date),Yes,,Inner Richmond,"253 Clement St, San Francisco, CA 94118","Mon-Fri 10am-8pm, Sat-Sun 10am-6pm",,,,,,,,,,,,,,,,,,
Kyle's Barbershop,707-363-2719,From website (up to date),No,,Financial District,"660 Market St, Ste #223, San Francisco, CA 94104","Mon-Tue 8am-6:30pm, Thu-Fri 8am-6:30pm",,,,,,,,,,,,,,,,,,
La Biang Thai Massage,415-931-7692,From website (up to date),Yes,,Nob Hill,"1301 Polk St, San Francisco, CA 94109",Mon-Sun 10am-8pm,,,,,,,,,,,,,,,,,,
La Nee Thai Massage,415-282-2236,From website (up to date),Yes,,Mission,"1453 Valencia St, San Francisco, CA 94110",Mon-Sun 11am-8pm,,,,,,,,,,,,,,,,,,
Lavande Nail Spa,415-566-5333 ,From website (up to date),No,,Cole Valley,"113 Carl St, San Francisco, CA 94117 ","Mon-Sat 10:30am-7pm, Sun 10am-6pm",,,,,,,,,,,,,,,,,,
Leelawadee Thai Classic Massage,415-412-2519,From website (up to date),No,,Financial District,"310 Sutter St, 2nd Fl, San Francisco, CA 94108",Mon-Sat 10:30am-9pm,,,,,,,,,,,,,,,,,,
Locals Barbershop,415-525-3194,From website (up to date),No,,Lower Nob Hill,"1188 Polk St, San Francisco, CA 94109","Tue-Fri 9am-7pm, Sat 10pm-7pm",,,,,,,,,,,,,,,,,,
Lucid Beauty,415-252-9591,From website (up to date),No,,Hayes Valley,"427 Hayes St, San Francisco, CA 94102","Tue 11am-3pm, Wed-Thu 11am-7pm, Fri 11am-3pm, Sat 10am-6pm",,,,,,,,,,,,,,,,,,
M Spa,415-556-9100,From website (up to date),No,,Castro,"2187 Market St San Francisco, CA 94114","Mon-Fri 11am-8pm, Sat 10am-8pm, Sun 11am-7pm",,,,,,,,,,,,,,,,,,
M&M Thread Salon,415-434-1960,From website (up to date),Yes,,Union Square,"547 Sutter St San Francisco, CA 94102","Mon-Sat 10:30am-7pm, Sun 12pm-4pm",,,,,,,,,,,,,,,,,,
MaiThai Massage and Bodywork,415-601-2649,From website (up to date),No,,Lower Pacific Heights,"1706 Steiner St, San Francisco, CA 94115","Mon 10am-8pm, Tue 10am-7pm, Wed 3pm-7pm, Thu 10am-7pm, Fri-Sat 10am-8pm, Sun 10am-5pm",,,,,,,,,,,,,,,,,,
Mama Lounge SF,415-857-3228,From website (up to date),Yes,,Lower Pacific Heights,"2001 Pine St, San Francisco, CA 94115","Mon-Thu 12pm-7pm, Fri 11am-6pm, Sat 10am-2:30pm",,,,,,,,,,,,,,,,,,
Mane Attraction,415-753-5500,From website (up to date),Yes,,Cole Valley,"103 Carl St, San Francisco, CA 94117","Mon 11am-6pm, Tue-Fri 10am-6pm, Sat 10am-5pm, Sun 11am-4pm",,,,,,,,,,,,,,,,,,
Marina Thai Massage,415-440-1263,From website (up to date),Yes,,Cow Hollow,"3288 Steiner St, San Francisco, CA 94123",Mon-Sun 10am-9pm,,,,,,,,,,,,,,,,,,
Massage in Soma,415-240-0854,From website (up to date),No,,Mission Bay,"350 Townsend St, San Francisco, CA 94107",Mon-Fri 11am-8pm,,,,,,,,,,,,,,,,,,
May's Beauty Skin Care,415-816-9389,From website (up to date),Yes,,Inner Richmond,"4308 Geary Blvd Ste 201, San Francisco, CA 94118",Mon-Fri 8:30am-5:30pm,,,,,,,,,,,,,,,,,,
Mike's Barbershop,415-660-5031,From website (up to date),No,,Lower Haight,"505 Haight St, San Francisco, CA 94117","Mon-Fri 11am-7pm, Sat 9am-3pm, Sun 10am-3pm",,,,,,,,,,,,,,,,,,
Population Nopa Salon,415-440-7677,From website (up to date),Yes,,NoPa,"537 Divisadero St, San Francisco, CA 94117","Mon-Fri 11am-7:30pm, Sat-Sun 11am-7pm",,,,,,,,,,,,,,,,,,
Pretty Parlor,415-556-2883,From website (up to date),Yes,,Mission,"483 Guerrero St, San Francisco, CA 94110","Tue 11am-8pm, Wed-Fri 10am-8pm, Sat-Sun 10am-6pm",,,,,,,,,,,,,,,,,,
Psoas Massage + Bodywork,415-227-0331,From website (up to date),Yes,,SoMa,"333 3rd St Suite 205, San Francisco, CA 94107","Mon-Fri 7:30am-8:30pm, Sat-Sun 9:30am-6:30pm",,,,,,,,,,,,,,,,,,
Public Barber Salon - Tenderloin,415-441-8599,From website (up to date),Yes,,Tenderloin,"571 Geary St, San Francisco, CA 94102","Mon-Sat 9am-9pm, Sun 10am-4pm",,,,,,,,,,,,,,,,,,
Qua The Spa at SOMA GRAND,415-598-8686,From website (up to date),Yes,,SoMa,"1162 Mission St, San Francisco, CA 94103",Tue-Sun 10am-7pm,,,,,,,,,,,,,,,,,,
Relax Nails,415-255-9188 ,Menu pic from April 2019,No,,The Haight,"1340 Haight St, San Francisco, CA 94117 ","Mon-Sat 10am-7:30pm, Sun 10am-7pm",,,,,,,,,,,,,,,,,,
Cut To Contrast Barbershop,415-841-1050,Menu pic from February  2015,No,Going to call me back,Ingleside Terraces,"1907 Ocean Ave, San Francisco, CA 94127",,,,,,,,,,,,,,,,,,,
Luxury Spa,415-702-6350,Menu pic from July 2019,No,,Inner Richmond,"405 Balboa St San Francisco, CA 94118","Mon-Sat 9:30am-7pm, Sun 10am-7pm",,,,,,,,,,,,,,,,,,
Mandy's Massage,415-530-7069,Menu pic from July 2019,No,,Parkside,"830 Taraval St, Ste #100, San Francisco, CA 94116","Mon-Sat 10:30am-7pm, Sun 1pm-7pm",,,,,,,,,,,,,,,,,,
Kayo Hair Salon,415-831-2222,Menu pic from June 2018,No,,Outer Richmond,"2211 Clement St, San Francisco, CA 94121",Thu-Tue 10am-7pm,,,,,,,,,,,,,,,,,,
Deluxe Foot Massage,415-715-0200,Menu pic from March 2019,No,,Excelsior,"11 Silliman St, San Francisco, CA 94134",Mon-Sun 10:30am-9:30pm,,,,,,,,,,,,,,,,,,
Daddy's Barbershop,415-552-5101,Menu pic from November  2018,Yes,,Castro,"4102 19th St, San Francisco, CA 94114","Tue 11am-5pm, Wed-Thu 11am-7pm, Fri-Sat 9am-7pm, Sun 11am-5pm",,,,,,,,,,,,,,,,,,
Boniva Nail Spa,415-829-2188 ,Menu pic from Oct 2018,No,,Marina,"1929 Lombard St, San Francisco, CA 94123 ","Tue-Sat 10am - 7pm, Sun 10am - 6pm	",,,,,,,,,,,,,,,,,,
Perfect Foot Massage,415-587-2288,Menu pic from October 2017,No,,Parkside,"1936 Ocean Ave, San Francisco, CA 94127",,,,,,,,,,,,,,,,,,,
,,,,,,,,,,,,,,,,,,,,,,,,,
,,,,,,,,,,,,,,,,,,,,,,,,,
,,,,,,,,,,,,,,,,,,,,,,,,,
,,,,,,,,,,,,,,,,,,,,,,,,,
,,,,,,,,,,,,,,,,,,,,,,,,,
,,,,,,,,,,,,,,,,,,,,,,,,,
,,,,,,,,,,,,,,,,,,,,,,,,,
,,,,,,,,,,,,,,,,,,,,,,,,,
,,,,,,,,,,,,,,,,,,,,,,,,,
,,,,,,,,,,,,,,,,,,,,,,,,,
,,,,,,,,,,,,,,,,,,,,,,,,,
,,,,,,,,,,,,,,,,,,,,,,,,,
,,,,,,,,,,,,,,,,,,,,,,,,,
,,,,,,,,,,,,,,,,,,,,,,,,,
,,,,,,,,,,,,,,,,,,,,,,,,,
,,,,,,,,,,,,,,,,,,,,,,,,,
,,,,,,,,,,,,,,,,,,,,,,,,,
,,,,,,,,,,,,,,,,,,,,,,,,,
,,,,,,,,,,,,,,,,,,,,,,,,,
,,,,,,,,,,,,,,,,,,,,,,,,,
,,,,,,,,,,,,,,,,,,,,,,,,,
,,,,,,,,,,,,,,,,,,,,,,,,,
,,,,,,,,,,,,,,,,,,,,,,,,,
,,,,,,,,,,,,,,,,,,,,,,,,,
,,,,,,,,,,,,,,,,,,,,,,,,,
,,,,,,,,,,,,,,,,,,,,,,,,,
,,,,,,,,,,,,,,,,,,,,,,,,,
,,,,,,,,,,,,,,,,,,,,,,,,,
,,,,,,,,,,,,,,,,,,,,,,,,,
,,,,,,,,,,,,,,,,,,,,,,,,,
,,,,,,,,,,,,,,,,,,,,,,,,,
,,,,,,,,,,,,,,,,,,,,,,,,,
,,,,,,,,,,,,,,,,,,,,,,,,,
,,,,,,,,,,,,,,,,,,,,,,,,,
,,,,,,,,,,,,,,,,,,,,,,,,,
,,,,,,,,,,,,,,,,,,,,,,,,,
,,,,,,,,,,,,,,,,,,,,,,,,,
,,,,,,,,,,,,,,,,,,,,,,,,,
,,,,,,,,,,,,,,,,,,,,,,,,,
,,,,,,,,,,,,,,,,,,,,,,,,,
,,,,,,,,,,,,,,,,,,,,,,,,,
,,,,,,,,,,,,,,,,,,,,,,,,,
,,,,,,,,,,,,,,,,,,,,,,,,,
,,,,,,,,,,,,,,,,,,,,,,,,,
,,,,,,,,,,,,,,,,,,,,,,,,,
,,,,,,,,,,,,,,,,,,,,,,,,,
,,,,,,,,,,,,,,,,,,,,,,,,,
,,,,,,,,,,,,,,,,,,,,,,,,,
,,,,,,,,,,,,,,,,,,,,,,,,,
,,,,,,,,,,,,,,,,,,,,,,,,,
,,,,,,,,,,,,,,,,,,,,,,,,,
,,,,,,,,,,,,,,,,,,,,,,,,,
,,,,,,,,,,,,,,,,,,,,,,,,,
,,,,,,,,,,,,,,,,,,,,,,,,,
,,,,,,,,,,,,,,,,,,,,,,,,,
,,,,,,,,,,,,,,,,,,,,,,,,,
,,,,,,,,,,,,,,,,,,,,,,,,,
,,,,,,,,,,,,,,,,,,,,,,,,,
,,,,,,,,,,,,,,,,,,,,,,,,,
,,,,,,,,,,,,,,,,,,,,,,,,,
,,,,,,,,,,,,,,,,,,,,,,,,,
,,,,,,,,,,,,,,,,,,,,,,,,,
,,,,,,,,,,,,,,,,,,,,,,,,,
,,,,,,,,,,,,,,,,,,,,,,,,,
,,,,,,,,,,,,,,,,,,,,,,,,,
,,,,,,,,,,,,,,,,,,,,,,,,,
,,,,,,,,,,,,,,,,,,,,,,,,,
,,,,,,,,,,,,,,,,,,,,,,,,,
,,,,,,,,,,,,,,,,,,,,,,,,,
,,,,,,,,,,,,,,,,,,,,,,,,,
,,,,,,,,,,,,,,,,,,,,,,,,,
,,,,,,,,,,,,,,,,,,,,,,,,,
,,,,,,,,,,,,,,,,,,,,,,,,,
,,,,,,,,,,,,,,,,,,,,,,,,,
,,,,,,,,,,,,,,,,,,,,,,,,,
,,,,,,,,,,,,,,,,,,,,,,,,,
,,,,,,,,,,,,,,,,,,,,,,,,,
,,,,,,,,,,,,,,,,,,,,,,,,,
,,,,,,,,,,,,,,,,,,,,,,,,,
,,,,,,,,,,,,,,,,,,,,,,,,,
,,,,,,,,,,,,,,,,,,,,,,,,,
,,,,,,,,,,,,,,,,,,,,,,,,,
,,,,,,,,,,,,,,,,,,,,,,,,,
,,,,,,,,,,,,,,,,,,,,,,,,,
,,,,,,,,,,,,,,,,,,,,,,,,,
,,,,,,,,,,,,,,,,,,,,,,,,,
,,,,,,,,,,,,,,,,,,,,,,,,,
,,,,,,,,,,,,,,,,,,,,,,,,,
,,,,,,,,,,,,,,,,,,,,,,,,,
,,,,,,,,,,,,,,,,,,,,,,,,,
,,,,,,,,,,,,,,,,,,,,,,,,,
,,,,,,,,,,,,,,,,,,,,,,,,,
,,,,,,,,,,,,,,,,,,,,,,,,,
,,,,,,,,,,,,,,,,,,,,,,,,,
,,,,,,,,,,,,,,,,,,,,,,,,,
,,,,,,,,,,,,,,,,,,,,,,,,,
,,,,,,,,,,,,,,,,,,,,,,,,,
,,,,,,,,,,,,,,,,,,,,,,,,,
,,,,,,,,,,,,,,,,,,,,,,,,,
,,,,,,,,,,,,,,,,,,,,,,,,,
,,,,,,,,,,,,,,,,,,,,,,,,,
,,,,,,,,,,,,,,,,,,,,,,,,,
,,,,,,,,,,,,,,,,,,,,,,,,,
,,,,,,,,,,,,,,,,,,,,,,,,,
,,,,,,,,,,,,,,,,,,,,,,,,,
,,,,,,,,,,,,,,,,,,,,,,,,,
,,,,,,,,,,,,,,,,,,,,,,,,,
,,,,,,,,,,,,,,,,,,,,,,,,,
,,,,,,,,,,,,,,,,,,,,,,,,,
,,,,,,,,,,,,,,,,,,,,,,,,,
,,,,,,,,,,,,,,,,,,,,,,,,,
,,,,,,,,,,,,,,,,,,,,,,,,,
,,,,,,,,,,,,,,,,,,,,,,,,,
,,,,,,,,,,,,,,,,,,,,,,,,,
,,,,,,,,,,,,,,,,,,,,,,,,,
,,,,,,,,,,,,,,,,,,,,,,,,,
,,,,,,,,,,,,,,,,,,,,,,,,,
,,,,,,,,,,,,,,,,,,,,,,,,,
,,,,,,,,,,,,,,,,,,,,,,,,,
,,,,,,,,,,,,,,,,,,,,,,,,,
,,,,,,,,,,,,,,,,,,,,,,,,,
,,,,,,,,,,,,,,,,,,,,,,,,,
,,,,,,,,,,,,,,,,,,,,,,,,,
,,,,,,,,,,,,,,,,,,,,,,,,,
,,,,,,,,,,,,,,,,,,,,,,,,,
,,,,,,,,,,,,,,,,,,,,,,,,,
,,,,,,,,,,,,,,,,,,,,,,,,,
,,,,,,,,,,,,,,,,,,,,,,,,,
,,,,,,,,,,,,,,,,,,,,,,,,,
,,,,,,,,,,,,,,,,,,,,,,,,,
,,,,,,,,,,,,,,,,,,,,,,,,,
,,,,,,,,,,,,,,,,,,,,,,,,,
,,,,,,,,,,,,,,,,,,,,,,,,,
,,,,,,,,,,,,,,,,,,,,,,,,,
,,,,,,,,,,,,,,,,,,,,,,,,,
,,,,,,,,,,,,,,,,,,,,,,,,,
,,,,,,,,,,,,,,,,,,,,,,,,,
,,,,,,,,,,,,,,,,,,,,,,,,,
,,,,,,,,,,,,,,,,,,,,,,,,,
,,,,,,,,,,,,,,,,,,,,,,,,,
,,,,,,,,,,,,,,,,,,,,,,,,,
,,,,,,,,,,,,,,,,,,,,,,,,,
,,,,,,,,,,,,,,,,,,,,,,,,,
,,,,,,,,,,,,,,,,,,,,,,,,,
,,,,,,,,,,,,,,,,,,,,,,,,,
,,,,,,,,,,,,,,,,,,,,,,,,,
,,,,,,,,,,,,,,,,,,,,,,,,,
,,,,,,,,,,,,,,,,,,,,,,,,,
,,,,,,,,,,,,,,,,,,,,,,,,,
,,,,,,,,,,,,,,,,,,,,,,,,,
,,,,,,,,,,,,,,,,,,,,,,,,,
,,,,,,,,,,,,,,,,,,,,,,,,,
,,,,,,,,,,,,,,,,,,,,,,,,,
,,,,,,,,,,,,,,,,,,,,,,,,,
,,,,,,,,,,,,,,,,,,,,,,,,,
,,,,,,,,,,,,,,,,,,,,,,,,,
,,,,,,,,,,,,,,,,,,,,,,,,,
,,,,,,,,,,,,,,,,,,,,,,,,,
,,,,,,,,,,,,,,,,,,,,,,,,,
,,,,,,,,,,,,,,,,,,,,,,,,,
,,,,,,,,,,,,,,,,,,,,,,,,,
,,,,,,,,,,,,,,,,,,,,,,,,,
,,,,,,,,,,,,,,,,,,,,,,,,,
,,,,,,,,,,,,,,,,,,,,,,,,,
,,,,,,,,,,,,,,,,,,,,,,,,,
,,,,,,,,,,,,,,,,,,,,,,,,,
,,,,,,,,,,,,,,,,,,,,,,,,,
,,,,,,,,,,,,,,,,,,,,,,,,,
,,,,,,,,,,,,,,,,,,,,,,,,,
,,,,,,,,,,,,,,,,,,,,,,,,,
,,,,,,,,,,,,,,,,,,,,,,,,,
,,,,,,,,,,,,,,,,,,,,,,,,,
,,,,,,,,,,,,,,,,,,,,,,,,,
,,,,,,,,,,,,,,,,,,,,,,,,,
,,,,,,,,,,,,,,,,,,,,,,,,,
,,,,,,,,,,,,,,,,,,,,,,,,,
,,,,,,,,,,,,,,,,,,,,,,,,,
,,,,,,,,,,,,,,,,,,,,,,,,,
,,,,,,,,,,,,,,,,,,,,,,,,,
,,,,,,,,,,,,,,,,,,,,,,,,,
,,,,,,,,,,,,,,,,,,,,,,,,,
,,,,,,,,,,,,,,,,,,,,,,,,,
,,,,,,,,,,,,,,,,,,,,,,,,,
,,,,,,,,,,,,,,,,,,,,,,,,,
,,,,,,,,,,,,,,,,,,,,,,,,,
,,,,,,,,,,,,,,,,,,,,,,,,,
,,,,,,,,,,,,,,,,,,,,,,,,,
,,,,,,,,,,,,,,,,,,,,,,,,,
,,,,,,,,,,,,,,,,,,,,,,,,,
,,,,,,,,,,,,,,,,,,,,,,,,,
,,,,,,,,,,,,,,,,,,,,,,,,,
,,,,,,,,,,,,,,,,,,,,,,,,,
,,,,,,,,,,,,,,,,,,,,,,,,,
,,,,,,,,,,,,,,,,,,,,,,,,,
,,,,,,,,,,,,,,,,,,,,,,,,,
,,,,,,,,,,,,,,,,,,,,,,,,,
,,,,,,,,,,,,,,,,,,,,,,,,,
,,,,,,,,,,,,,,,,,,,,,,,,,
,,,,,,,,,,,,,,,,,,,,,,,,,
,,,,,,,,,,,,,,,,,,,,,,,,,
,,,,,,,,,,,,,,,,,,,,,,,,,
,,,,,,,,,,,,,,,,,,,,,,,,,
,,,,,,,,,,,,,,,,,,,,,,,,,
,,,,,,,,,,,,,,,,,,,,,,,,,
,,,,,,,,,,,,,,,,,,,,,,,,,
,,,,,,,,,,,,,,,,,,,,,,,,,
,,,,,,,,,,,,,,,,,,,,,,,,,
,,,,,,,,,,,,,,,,,,,,,,,,,
,,,,,,,,,,,,,,,,,,,,,,,,,
,,,,,,,,,,,,,,,,,,,,,,,,,
,,,,,,,,,,,,,,,,,,,,,,,,,
,,,,,,,,,,,,,,,,,,,,,,,,,
,,,,,,,,,,,,,,,,,,,,,,,,,
,,,,,,,,,,,,,,,,,,,,,,,,,
,,,,,,,,,,,,,,,,,,,,,,,,,
,,,,,,,,,,,,,,,,,,,,,,,,,
,,,,,,,,,,,,,,,,,,,,,,,,,
,,,,,,,,,,,,,,,,,,,,,,,,,
,,,,,,,,,,,,,,,,,,,,,,,,,
,,,,,,,,,,,,,,,,,,,,,,,,,
,,,,,,,,,,,,,,,,,,,,,,,,,
,,,,,,,,,,,,,,,,,,,,,,,,,
,,,,,,,,,,,,,,,,,,,,,,,,,
,,,,,,,,,,,,,,,,,,,,,,,,,
,,,,,,,,,,,,,,,,,,,,,,,,,
,,,,,,,,,,,,,,,,,,,,,,,,,
,,,,,,,,,,,,,,,,,,,,,,,,,
,,,,,,,,,,,,,,,,,,,,,,,,,
,,,,,,,,,,,,,,,,,,,,,,,,,
,,,,,,,,,,,,,,,,,,,,,,,,,
,,,,,,,,,,,,,,,,,,,,,,,,,
,,,,,,,,,,,,,,,,,,,,,,,,,
,,,,,,,,,,,,,,,,,,,,,,,,,
,,,,,,,,,,,,,,,,,,,,,,,,,
,,,,,,,,,,,,,,,,,,,,,,,,,
,,,,,,,,,,,,,,,,,,,,,,,,,
,,,,,,,,,,,,,,,,,,,,,,,,,
,,,,,,,,,,,,,,,,,,,,,,,,,
,,,,,,,,,,,,,,,,,,,,,,,,,
,,,,,,,,,,,,,,,,,,,,,,,,,
,,,,,,,,,,,,,,,,,,,,,,,,,
,,,,,,,,,,,,,,,,,,,,,,,,,
,,,,,,,,,,,,,,,,,,,,,,,,,
,,,,,,,,,,,,,,,,,,,,,,,,,
,,,,,,,,,,,,,,,,,,,,,,,,,
,,,,,,,,,,,,,,,,,,,,,,,,,
,,,,,,,,,,,,,,,,,,,,,,,,,
,,,,,,,,,,,,,,,,,,,,,,,,,
,,,,,,,,,,,,,,,,,,,,,,,,,
,,,,,,,,,,,,,,,,,,,,,,,,,
,,,,,,,,,,,,,,,,,,,,,,,,,
,,,,,,,,,,,,,,,,,,,,,,,,,
,,,,,,,,,,,,,,,,,,,,,,,,,
,,,,,,,,,,,,,,,,,,,,,,,,,
,,,,,,,,,,,,,,,,,,,,,,,,,
,,,,,,,,,,,,,,,,,,,,,,,,,
,,,,,,,,,,,,,,,,,,,,,,,,,
,,,,,,,,,,,,,,,,,,,,,,,,,
,,,,,,,,,,,,,,,,,,,,,,,,,
,,,,,,,,,,,,,,,,,,,,,,,,,
,,,,,,,,,,,,,,,,,,,,,,,,,
,,,,,,,,,,,,,,,,,,,,,,,,,
,,,,,,,,,,,,,,,,,,,,,,,,,
,,,,,,,,,,,,,,,,,,,,,,,,,
,,,,,,,,,,,,,,,,,,,,,,,,,
,,,,,,,,,,,,,,,,,,,,,,,,,
,,,,,,,,,,,,,,,,,,,,,,,,,
,,,,,,,,,,,,,,,,,,,,,,,,,
,,,,,,,,,,,,,,,,,,,,,,,,,
,,,,,,,,,,,,,,,,,,,,,,,,,
,,,,,,,,,,,,,,,,,,,,,,,,,
,,,,,,,,,,,,,,,,,,,,,,,,,
,,,,,,,,,,,,,,,,,,,,,,,,,
,,,,,,,,,,,,,,,,,,,,,,,,,
,,,,,,,,,,,,,,,,,,,,,,,,,
,,,,,,,,,,,,,,,,,,,,,,,,,
,,,,,,,,,,,,,,,,,,,,,,,,,
,,,,,,,,,,,,,,,,,,,,,,,,,
,,,,,,,,,,,,,,,,,,,,,,,,,
,,,,,,,,,,,,,,,,,,,,,,,,,
,,,,,,,,,,,,,,,,,,,,,,,,,
,,,,,,,,,,,,,,,,,,,,,,,,,
,,,,,,,,,,,,,,,,,,,,,,,,,
,,,,,,,,,,,,,,,,,,,,,,,,,
,,,,,,,,,,,,,,,,,,,,,,,,,
,,,,,,,,,,,,,,,,,,,,,,,,,
,,,,,,,,,,,,,,,,,,,,,,,,,
,,,,,,,,,,,,,,,,,,,,,,,,,
,,,,,,,,,,,,,,,,,,,,,,,,,
,,,,,,,,,,,,,,,,,,,,,,,,,
,,,,,,,,,,,,,,,,,,,,,,,,,
,,,,,,,,,,,,,,,,,,,,,,,,,
,,,,,,,,,,,,,,,,,,,,,,,,,
,,,,,,,,,,,,,,,,,,,,,,,,,
,,,,,,,,,,,,,,,,,,,,,,,,,
,,,,,,,,,,,,,,,,,,,,,,,,,
,,,,,,,,,,,,,,,,,,,,,,,,,
,,,,,,,,,,,,,,,,,,,,,,,,,
,,,,,,,,,,,,,,,,,,,,,,,,,
,,,,,,,,,,,,,,,,,,,,,,,,,
,,,,,,,,,,,,,,,,,,,,,,,,,
,,,,,,,,,,,,,,,,,,,,,,,,,
,,,,,,,,,,,,,,,,,,,,,,,,,
,,,,,,,,,,,,,,,,,,,,,,,,,
,,,,,,,,,,,,,,,,,,,,,,,,,
,,,,,,,,,,,,,,,,,,,,,,,,,
,,,,,,,,,,,,,,,,,,,,,,,,,
,,,,,,,,,,,,,,,,,,,,,,,,,
,,,,,,,,,,,,,,,,,,,,,,,,,
,,,,,,,,,,,,,,,,,,,,,,,,,
,,,,,,,,,,,,,,,,,,,,,,,,,
,,,,,,,,,,,,,,,,,,,,,,,,,
,,,,,,,,,,,,,,,,,,,,,,,,,
,,,,,,,,,,,,,,,,,,,,,,,,,
,,,,,,,,,,,,,,,,,,,,,,,,,
,,,,,,,,,,,,,,,,,,,,,,,,,
,,,,,,,,,,,,,,,,,,,,,,,,,
,,,,,,,,,,,,,,,,,,,,,,,,,
,,,,,,,,,,,,,,,,,,,,,,,,,
,,,,,,,,,,,,,,,,,,,,,,,,,
,,,,,,,,,,,,,,,,,,,,,,,,,
,,,,,,,,,,,,,,,,,,,,,,,,,
,,,,,,,,,,,,,,,,,,,,,,,,,
,,,,,,,,,,,,,,,,,,,,,,,,,
,,,,,,,,,,,,,,,,,,,,,,,,,
,,,,,,,,,,,,,,,,,,,,,,,,,
,,,,,,,,,,,,,,,,,,,,,,,,,
,,,,,,,,,,,,,,,,,,,,,,,,,
,,,,,,,,,,,,,,,,,,,,,,,,,
,,,,,,,,,,,,,,,,,,,,,,,,,
,,,,,,,,,,,,,,,,,,,,,,,,,
,,,,,,,,,,,,,,,,,,,,,,,,,
,,,,,,,,,,,,,,,,,,,,,,,,,
,,,,,,,,,,,,,,,,,,,,,,,,,
,,,,,,,,,,,,,,,,,,,,,,,,,
,,,,,,,,,,,,,,,,,,,,,,,,,
,,,,,,,,,,,,,,,,,,,,,,,,,
,,,,,,,,,,,,,,,,,,,,,,,,,
,,,,,,,,,,,,,,,,,,,,,,,,,
,,,,,,,,,,,,,,,,,,,,,,,,,
,,,,,,,,,,,,,,,,,,,,,,,,,
,,,,,,,,,,,,,,,,,,,,,,,,,
,,,,,,,,,,,,,,,,,,,,,,,,,
,,,,,,,,,,,,,,,,,,,,,,,,,
,,,,,,,,,,,,,,,,,,,,,,,,,
,,,,,,,,,,,,,,,,,,,,,,,,,
,,,,,,,,,,,,,,,,,,,,,,,,,
,,,,,,,,,,,,,,,,,,,,,,,,,
,,,,,,,,,,,,,,,,,,,,,,,,,
,,,,,,,,,,,,,,,,,,,,,,,,,
,,,,,,,,,,,,,,,,,,,,,,,,,
,,,,,,,,,,,,,,,,,,,,,,,,,
,,,,,,,,,,,,,,,,,,,,,,,,,
,,,,,,,,,,,,,,,,,,,,,,,,,
,,,,,,,,,,,,,,,,,,,,,,,,,
,,,,,,,,,,,,,,,,,,,,,,,,,
,,,,,,,,,,,,,,,,,,,,,,,,,
,,,,,,,,,,,,,,,,,,,,,,,,,
,,,,,,,,,,,,,,,,,,,,,,,,,
,,,,,,,,,,,,,,,,,,,,,,,,,
,,,,,,,,,,,,,,,,,,,,,,,,,
,,,,,,,,,,,,,,,,,,,,,,,,,
,,,,,,,,,,,,,,,,,,,,,,,,,
,,,,,,,,,,,,,,,,,,,,,,,,,
,,,,,,,,,,,,,,,,,,,,,,,,,
,,,,,,,,,,,,,,,,,,,,,,,,,
,,,,,,,,,,,,,,,,,,,,,,,,,
,,,,,,,,,,,,,,,,,,,,,,,,,
,,,,,,,,,,,,,,,,,,,,,,,,,
,,,,,,,,,,,,,,,,,,,,,,,,,
,,,,,,,,,,,,,,,,,,,,,,,,,
,,,,,,,,,,,,,,,,,,,,,,,,,
,,,,,,,,,,,,,,,,,,,,,,,,,
,,,,,,,,,,,,,,,,,,,,,,,,,
,,,,,,,,,,,,,,,,,,,,,,,,,
,,,,,,,,,,,,,,,,,,,,,,,,,
,,,,,,,,,,,,,,,,,,,,,,,,,
,,,,,,,,,,,,,,,,,,,,,,,,,
,,,,,,,,,,,,,,,,,,,,,,,,,
,,,,,,,,,,,,,,,,,,,,,,,,,
,,,,,,,,,,,,,,,,,,,,,,,,,
,,,,,,,,,,,,,,,,,,,,,,,,,
,,,,,,,,,,,,,,,,,,,,,,,,,
,,,,,,,,,,,,,,,,,,,,,,,,,
,,,,,,,,,,,,,,,,,,,,,,,,,
,,,,,,,,,,,,,,,,,,,,,,,,,
,,,,,,,,,,,,,,,,,,,,,,,,,
,,,,,,,,,,,,,,,,,,,,,,,,,
,,,,,,,,,,,,,,,,,,,,,,,,,
,,,,,,,,,,,,,,,,,,,,,,,,,
,,,,,,,,,,,,,,,,,,,,,,,,,
,,,,,,,,,,,,,,,,,,,,,,,,,
,,,,,,,,,,,,,,,,,,,,,,,,,
,,,,,,,,,,,,,,,,,,,,,,,,,
,,,,,,,,,,,,,,,,,,,,,,,,,
,,,,,,,,,,,,,,,,,,,,,,,,,
,,,,,,,,,,,,,,,,,,,,,,,,,
,,,,,,,,,,,,,,,,,,,,,,,,,
,,,,,,,,,,,,,,,,,,,,,,,,,
,,,,,,,,,,,,,,,,,,,,,,,,,
,,,,,,,,,,,,,,,,,,,,,,,,,
,,,,,,,,,,,,,,,,,,,,,,,,,
,,,,,,,,,,,,,,,,,,,,,,,,,
,,,,,,,,,,,,,,,,,,,,,,,,,
,,,,,,,,,,,,,,,,,,,,,,,,,
,,,,,,,,,,,,,,,,,,,,,,,,,
,,,,,,,,,,,,,,,,,,,,,,,,,
,,,,,,,,,,,,,,,,,,,,,,,,,
,,,,,,,,,,,,,,,,,,,,,,,,,
,,,,,,,,,,,,,,,,,,,,,,,,,
,,,,,,,,,,,,,,,,,,,,,,,,,
,,,,,,,,,,,,,,,,,,,,,,,,,
,,,,,,,,,,,,,,,,,,,,,,,,,
,,,,,,,,,,,,,,,,,,,,,,,,,
,,,,,,,,,,,,,,,,,,,,,,,,,
,,,,,,,,,,,,,,,,,,,,,,,,,
,,,,,,,,,,,,,,,,,,,,,,,,,
,,,,,,,,,,,,,,,,,,,,,,,,,
,,,,,,,,,,,,,,,,,,,,,,,,,
,,,,,,,,,,,,,,,,,,,,,,,,,
,,,,,,,,,,,,,,,,,,,,,,,,,
,,,,,,,,,,,,,,,,,,,,,,,,,
,,,,,,,,,,,,,,,,,,,,,,,,,
,,,,,,,,,,,,,,,,,,,,,,,,,
,,,,,,,,,,,,,,,,,,,,,,,,,
,,,,,,,,,,,,,,,,,,,,,,,,,
,,,,,,,,,,,,,,,,,,,,,,,,,
,,,,,,,,,,,,,,,,,,,,,,,,,
,,,,,,,,,,,,,,,,,,,,,,,,,
,,,,,,,,,,,,,,,,,,,,,,,,,
,,,,,,,,,,,,,,,,,,,,,,,,,
,,,,,,,,,,,,,,,,,,,,,,,,,
,,,,,,,,,,,,,,,,,,,,,,,,,
,,,,,,,,,,,,,,,,,,,,,,,,,
,,,,,,,,,,,,,,,,,,,,,,,,,
,,,,,,,,,,,,,,,,,,,,,,,,,
,,,,,,,,,,,,,,,,,,,,,,,,,
,,,,,,,,,,,,,,,,,,,,,,,,,
,,,,,,,,,,,,,,,,,,,,,,,,,
,,,,,,,,,,,,,,,,,,,,,,,,,
,,,,,,,,,,,,,,,,,,,,,,,,,
,,,,,,,,,,,,,,,,,,,,,,,,,
,,,,,,,,,,,,,,,,,,,,,,,,,
,,,,,,,,,,,,,,,,,,,,,,,,,
,,,,,,,,,,,,,,,,,,,,,,,,,
,,,,,,,,,,,,,,,,,,,,,,,,,
,,,,,,,,,,,,,,,,,,,,,,,,,
,,,,,,,,,,,,,,,,,,,,,,,,,
,,,,,,,,,,,,,,,,,,,,,,,,,
,,,,,,,,,,,,,,,,,,,,,,,,,
,,,,,,,,,,,,,,,,,,,,,,,,,
,,,,,,,,,,,,,,,,,,,,,,,,,
,,,,,,,,,,,,,,,,,,,,,,,,,
,,,,,,,,,,,,,,,,,,,,,,,,,
,,,,,,,,,,,,,,,,,,,,,,,,,
,,,,,,,,,,,,,,,,,,,,,,,,,
,,,,,,,,,,,,,,,,,,,,,,,,,
,,,,,,,,,,,,,,,,,,,,,,,,,
,,,,,,,,,,,,,,,,,,,,,,,,,
,,,,,,,,,,,,,,,,,,,,,,,,,
,,,,,,,,,,,,,,,,,,,,,,,,,
,,,,,,,,,,,,,,,,,,,,,,,,,
,,,,,,,,,,,,,,,,,,,,,,,,,
,,,,,,,,,,,,,,,,,,,,,,,,,
,,,,,,,,,,,,,,,,,,,,,,,,,
,,,,,,,,,,,,,,,,,,,,,,,,,
,,,,,,,,,,,,,,,,,,,,,,,,,
,,,,,,,,,,,,,,,,,,,,,,,,,
,,,,,,,,,,,,,,,,,,,,,,,,,
,,,,,,,,,,,,,,,,,,,,,,,,,
,,,,,,,,,,,,,,,,,,,,,,,,,
,,,,,,,,,,,,,,,,,,,,,,,,,
,,,,,,,,,,,,,,,,,,,,,,,,,
,,,,,,,,,,,,,,,,,,,,,,,,,
,,,,,,,,,,,,,,,,,,,,,,,,,
,,,,,,,,,,,,,,,,,,,,,,,,,
,,,,,,,,,,,,,,,,,,,,,,,,,
,,,,,,,,,,,,,,,,,,,,,,,,,
,,,,,,,,,,,,,,,,,,,,,,,,,
,,,,,,,,,,,,,,,,,,,,,,,,,
,,,,,,,,,,,,,,,,,,,,,,,,,
,,,,,,,,,,,,,,,,,,,,,,,,,
,,,,,,,,,,,,,,,,,,,,,,,,,
,,,,,,,,,,,,,,,,,,,,,,,,,
,,,,,,,,,,,,,,,,,,,,,,,,,
,,,,,,,,,,,,,,,,,,,,,,,,,
,,,,,,,,,,,,,,,,,,,,,,,,,
,,,,,,,,,,,,,,,,,,,,,,,,,
,,,,,,,,,,,,,,,,,,,,,,,,,
,,,,,,,,,,,,,,,,,,,,,,,,,
,,,,,,,,,,,,,,,,,,,,,,,,,
,,,,,,,,,,,,,,,,,,,,,,,,,
,,,,,,,,,,,,,,,,,,,,,,,,,
,,,,,,,,,,,,,,,,,,,,,,,,,
,,,,,,,,,,,,,,,,,,,,,,,,,
,,,,,,,,,,,,,,,,,,,,,,,,,
,,,,,,,,,,,,,,,,,,,,,,,,,
,,,,,,,,,,,,,,,,,,,,,,,,,
,,,,,,,,,,,,,,,,,,,,,,,,,
,,,,,,,,,,,,,,,,,,,,,,,,,
,,,,,,,,,,,,,,,,,,,,,,,,,
,,,,,,,,,,,,,,,,,,,,,,,,,
,,,,,,,,,,,,,,,,,,,,,,,,,
,,,,,,,,,,,,,,,,,,,,,,,,,
,,,,,,,,,,,,,,,,,,,,,,,,,
,,,,,,,,,,,,,,,,,,,,,,,,,
,,,,,,,,,,,,,,,,,,,,,,,,,
,,,,,,,,,,,,,,,,,,,,,,,,,
,,,,,,,,,,,,,,,,,,,,,,,,,
,,,,,,,,,,,,,,,,,,,,,,,,,
,,,,,,,,,,,,,,,,,,,,,,,,,
,,,,,,,,,,,,,,,,,,,,,,,,,
,,,,,,,,,,,,,,,,,,,,,,,,,
,,,,,,,,,,,,,,,,,,,,,,,,,
,,,,,,,,,,,,,,,,,,,,,,,,,
,,,,,,,,,,,,,,,,,,,,,,,,,
,,,,,,,,,,,,,,,,,,,,,,,,,
,,,,,,,,,,,,,,,,,,,,,,,,,
,,,,,,,,,,,,,,,,,,,,,,,,,
,,,,,,,,,,,,,,,,,,,,,,,,,
,,,,,,,,,,,,,,,,,,,,,,,,,
,,,,,,,,,,,,,,,,,,,,,,,,,
,,,,,,,,,,,,,,,,,,,,,,,,,
,,,,,,,,,,,,,,,,,,,,,,,,,
,,,,,,,,,,,,,,,,,,,,,,,,,
,,,,,,,,,,,,,,,,,,,,,,,,,
,,,,,,,,,,,,,,,,,,,,,,,,,
,,,,,,,,,,,,,,,,,,,,,,,,,
,,,,,,,,,,,,,,,,,,,,,,,,,
,,,,,,,,,,,,,,,,,,,,,,,,,
,,,,,,,,,,,,,,,,,,,,,,,,,
,,,,,,,,,,,,,,,,,,,,,,,,,
,,,,,,,,,,,,,,,,,,,,,,,,,
,,,,,,,,,,,,,,,,,,,,,,,,,
,,,,,,,,,,,,,,,,,,,,,,,,,
,,,,,,,,,,,,,,,,,,,,,,,,,
,,,,,,,,,,,,,,,,,,,,,,,,,
,,,,,,,,,,,,,,,,,,,,,,,,,
,,,,,,,,,,,,,,,,,,,,,,,,,
,,,,,,,,,,,,,,,,,,,,,,,,,
,,,,,,,,,,,,,,,,,,,,,,,,,
,,,,,,,,,,,,,,,,,,,,,,,,,
,,,,,,,,,,,,,,,,,,,,,,,,,
,,,,,,,,,,,,,,,,,,,,,,,,,
,,,,,,,,,,,,,,,,,,,,,,,,,
,,,,,,,,,,,,,,,,,,,,,,,,,
,,,,,,,,,,,,,,,,,,,,,,,,,
,,,,,,,,,,,,,,,,,,,,,,,,,
,,,,,,,,,,,,,,,,,,,,,,,,,
,,,,,,,,,,,,,,,,,,,,,,,,,
,,,,,,,,,,,,,,,,,,,,,,,,,
,,,,,,,,,,,,,,,,,,,,,,,,,
,,,,,,,,,,,,,,,,,,,,,,,,,
,,,,,,,,,,,,,,,,,,,,,,,,,
,,,,,,,,,,,,,,,,,,,,,,,,,
,,,,,,,,,,,,,,,,,,,,,,,,,
,,,,,,,,,,,,,,,,,,,,,,,,,
,,,,,,,,,,,,,,,,,,,,,,,,,
,,,,,,,,,,,,,,,,,,,,,,,,,
,,,,,,,,,,,,,,,,,,,,,,,,,
,,,,,,,,,,,,,,,,,,,,,,,,,
,,,,,,,,,,,,,,,,,,,,,,,,,
,,,,,,,,,,,,,,,,,,,,,,,,,
,,,,,,,,,,,,,,,,,,,,,,,,,
,,,,,,,,,,,,,,,,,,,,,,,,,
,,,,,,,,,,,,,,,,,,,,,,,,,
,,,,,,,,,,,,,,,,,,,,,,,,,
,,,,,,,,,,,,,,,,,,,,,,,,,
,,,,,,,,,,,,,,,,,,,,,,,,,
,,,,,,,,,,,,,,,,,,,,,,,,,
,,,,,,,,,,,,,,,,,,,,,,,,,
,,,,,,,,,,,,,,,,,,,,,,,,,
,,,,,,,,,,,,,,,,,,,,,,,,,
,,,,,,,,,,,,,,,,,,,,,,,,,
,,,,,,,,,,,,,,,,,,,,,,,,,
,,,,,,,,,,,,,,,,,,,,,,,,,
,,,,,,,,,,,,,,,,,,,,,,,,,
,,,,,,,,,,,,,,,,,,,,,,,,,
,,,,,,,,,,,,,,,,,,,,,,,,,
,,,,,,,,,,,,,,,,,,,,,,,,,
,,,,,,,,,,,,,,,,,,,,,,,,,
,,,,,,,,,,,,,,,,,,,,,,,,,
,,,,,,,,,,,,,,,,,,,,,,,,,
,,,,,,,,,,,,,,,,,,,,,,,,,
,,,,,,,,,,,,,,,,,,,,,,,,,
,,,,,,,,,,,,,,,,,,,,,,,,,
,,,,,,,,,,,,,,,,,,,,,,,,,
,,,,,,,,,,,,,,,,,,,,,,,,,
,,,,,,,,,,,,,,,,,,,,,,,,,
,,,,,,,,,,,,,,,,,,,,,,,,,
,,,,,,,,,,,,,,,,,,,,,,,,,
,,,,,,,,,,,,,,,,,,,,,,,,,
,,,,,,,,,,,,,,,,,,,,,,,,,
,,,,,,,,,,,,,,,,,,,,,,,,,
,,,,,,,,,,,,,,,,,,,,,,,,,
,,,,,,,,,,,,,,,,,,,,,,,,,
,,,,,,,,,,,,,,,,,,,,,,,,,
,,,,,,,,,,,,,,,,,,,,,,,,,
,,,,,,,,,,,,,,,,,,,,,,,,,
,,,,,,,,,,,,,,,,,,,,,,,,,
,,,,,,,,,,,,,,,,,,,,,,,,,
,,,,,,,,,,,,,,,,,,,,,,,,,
,,,,,,,,,,,,,,,,,,,,,,,,,
,,,,,,,,,,,,,,,,,,,,,,,,,
,,,,,,,,,,,,,,,,,,,,,,,,,
,,,,,,,,,,,,,,,,,,,,,,,,,
,,,,,,,,,,,,,,,,,,,,,,,,,
,,,,,,,,,,,,,,,,,,,,,,,,,
,,,,,,,,,,,,,,,,,,,,,,,,,
,,,,,,,,,,,,,,,,,,,,,,,,,
,,,,,,,,,,,,,,,,,,,,,,,,,
,,,,,,,,,,,,,,,,,,,,,,,,,
,,,,,,,,,,,,,,,,,,,,,,,,,
,,,,,,,,,,,,,,,,,,,,,,,,,
,,,,,,,,,,,,,,,,,,,,,,,,,
,,,,,,,,,,,,,,,,,,,,,,,,,
,,,,,,,,,,,,,,,,,,,,,,,,,
,,,,,,,,,,,,,,,,,,,,,,,,,
,,,,,,,,,,,,,,,,,,,,,,,,,
,,,,,,,,,,,,,,,,,,,,,,,,,
,,,,,,,,,,,,,,,,,,,,,,,,,
,,,,,,,,,,,,,,,,,,,,,,,,,
,,,,,,,,,,,,,,,,,,,,,,,,,
,,,,,,,,,,,,,,,,,,,,,,,,,
,,,,,,,,,,,,,,,,,,,,,,,,,
,,,,,,,,,,,,,,,,,,,,,,,,,
,,,,,,,,,,,,,,,,,,,,,,,,,
,,,,,,,,,,,,,,,,,,,,,,,,,
,,,,,,,,,,,,,,,,,,,,,,,,,
,,,,,,,,,,,,,,,,,,,,,,,,,
,,,,,,,,,,,,,,,,,,,,,,,,,
,,,,,,,,,,,,,,,,,,,,,,,,,
,,,,,,,,,,,,,,,,,,,,,,,,,
,,,,,,,,,,,,,,,,,,,,,,,,,
,,,,,,,,,,,,,,,,,,,,,,,,,
,,,,,,,,,,,,,,,,,,,,,,,,,
,,,,,,,,,,,,,,,,,,,,,,,,,
,,,,,,,,,,,,,,,,,,,,,,,,,
,,,,,,,,,,,,,,,,,,,,,,,,,
,,,,,,,,,,,,,,,,,,,,,,,,,
,,,,,,,,,,,,,,,,,,,,,,,,,
,,,,,,,,,,,,,,,,,,,,,,,,,
,,,,,,,,,,,,,,,,,,,,,,,,,
,,,,,,,,,,,,,,,,,,,,,,,,,
,,,,,,,,,,,,,,,,,,,,,,,,,
,,,,,,,,,,,,,,,,,,,,,,,,,
,,,,,,,,,,,,,,,,,,,,,,,,,
,,,,,,,,,,,,,,,,,,,,,,,,,
,,,,,,,,,,,,,,,,,,,,,,,,,
,,,,,,,,,,,,,,,,,,,,,,,,,
,,,,,,,,,,,,,,,,,,,,,,,,,
,,,,,,,,,,,,,,,,,,,,,,,,,
,,,,,,,,,,,,,,,,,,,,,,,,,
,,,,,,,,,,,,,,,,,,,,,,,,,
,,,,,,,,,,,,,,,,,,,,,,,,,
,,,,,,,,,,,,,,,,,,,,,,,,,
,,,,,,,,,,,,,,,,,,,,,,,,,
,,,,,,,,,,,,,,,,,,,,,,,,,
,,,,,,,,,,,,,,,,,,,,,,,,,
,,,,,,,,,,,,,,,,,,,,,,,,,
,,,,,,,,,,,,,,,,,,,,,,,,,
,,,,,,,,,,,,,,,,,,,,,,,,,
,,,,,,,,,,,,,,,,,,,,,,,,,
,,,,,,,,,,,,,,,,,,,,,,,,,
,,,,,,,,,,,,,,,,,,,,,,,,,
,,,,,,,,,,,,,,,,,,,,,,,,,
,,,,,,,,,,,,,,,,,,,,,,,,,
,,,,,,,,,,,,,,,,,,,,,,,,,
,,,,,,,,,,,,,,,,,,,,,,,,,
,,,,,,,,,,,,,,,,,,,,,,,,,
,,,,,,,,,,,,,,,,,,,,,,,,,
,,,,,,,,,,,,,,,,,,,,,,,,,
,,,,,,,,,,,,,,,,,,,,,,,,,
,,,,,,,,,,,,,,,,,,,,,,,,,
,,,,,,,,,,,,,,,,,,,,,,,,,
,,,,,,,,,,,,,,,,,,,,,,,,,
,,,,,,,,,,,,,,,,,,,,,,,,,
,,,,,,,,,,,,,,,,,,,,,,,,,
,,,,,,,,,,,,,,,,,,,,,,,,,
,,,,,,,,,,,,,,,,,,,,,,,,,
,,,,,,,,,,,,,,,,,,,,,,,,,
,,,,,,,,,,,,,,,,,,,,,,,,,
,,,,,,,,,,,,,,,,,,,,,,,,,
,,,,,,,,,,,,,,,,,,,,,,,,,
,,,,,,,,,,,,,,,,,,,,,,,,,
,,,,,,,,,,,,,,,,,,,,,,,,,
,,,,,,,,,,,,,,,,,,,,,,,,,
,,,,,,,,,,,,,,,,,,,,,,,,,
,,,,,,,,,,,,,,,,,,,,,,,,,
,,,,,,,,,,,,,,,,,,,,,,,,,
,,,,,,,,,,,,,,,,,,,,,,,,,
,,,,,,,,,,,,,,,,,,,,,,,,,
,,,,,,,,,,,,,,,,,,,,,,,,,
,,,,,,,,,,,,,,,,,,,,,,,,,
,,,,,,,,,,,,,,,,,,,,,,,,,
,,,,,,,,,,,,,,,,,,,,,,,,,
,,,,,,,,,,,,,,,,,,,,,,,,,
,,,,,,,,,,,,,,,,,,,,,,,,,
,,,,,,,,,,,,,,,,,,,,,,,,,
,,,,,,,,,,,,,,,,,,,,,,,,,
,,,,,,,,,,,,,,,,,,,,,,,,,
,,,,,,,,,,,,,,,,,,,,,,,,,
,,,,,,,,,,,,,,,,,,,,,,,,,
,,,,,,,,,,,,,,,,,,,,,,,,,
